{"type": "FeatureCollection", "features": [{"type": "Feature", "geometry": {"type": "Point", "coordinates": [76.4915272, 22.0634759]}, "properties": {"name": "Mundi", "population": 1500, "place_class": "village", "population_source": "class_default", "osm_id": "2667622113"}}, {"type": "Feature", "geometry": {"type": "Point", "coordinates": [76.4323903, 22.1910279]}, "properties": {"name": "Bhadliikhera", "population": 1500, "place_class": "village", "population_source": "class_default", "osm_id": "11381501650"}}, {"type": "Feature", "geometry": {"type": "Point", "coordinates": [76.4370009, 22.2237764]}, "properties": {"name": "Piplani", "population": 1500, "place_class": "village", "population_source": "class_default", "osm_id": "11381501651"}}, {"type": "Feature", "geometry": {"type": "Point", "coordinates": [76.4244082, 22.2166691]}, "properties": {"name": "Sarilya", "population": 1500, "place_class": "village", "population_source": "class_default", "osm_id": "11381501652"}}, {"type": "Feature", "geometry": {"type": "Point", "coordinates": [76.4266315, 22.235458]}, "properties": {"name": "Bedani", "population": 1500, "place_class": "village", "population_source": "class_default", "osm_id": "11381639070"}}, {"type": "Feature", "geometry": {"type": "Point", "coordinates": [76.4189136, 22.2448252]}, "properties": {"name": "Richhi", "population": 1500, "place_class": "village", "population_source": "class_default", "osm_id": "11381639071"}}, {"type": "Feature", "geometry": {"type": "Point", "coordinates": [76.5285128, 22.0533637]}, "properties": {"name": "Mohad", "population": 1500, "place_class": "village", "population_source": "class_default", "osm_id": "11381972872"}}, {"type": "Feature", "geometry": {"type": "Point", "coordinates": [76.4848572, 22.0864494]}, "properties": {"name": "Gondkhera", "population": 1500, "place_class": "village", "population_source": "class_default", "osm_id": "11381972873"}}, {"type": "Feature", "geometry": {"type": "Point", "coordinates": [76.5028807, 22.0902218]}, "properties": {"name": "Phephariya", "population": 1500, "place_class": "village", "population_source": "class_default", "osm_id": "11381972874"}}, {"type": "Feature", "geometry": {"type": "Point", "coordinates": [76.5222255, 22.0897844]}, "properties": {"name": "Sindh Khol", "population": 1500, "place_class": "village", "population_source": "class_default", "osm_id": "11381972875"}}, {"type": "Feature", "geometry": {"type": "Point", "coordinates": [76.5290777, 22.0840165]}, "properties": {"name": "Mirjhapur", "population": 1500, "place_class": "village", "population_source": "class_default", "osm_id": "11381972877"}}, {"type": "Feature", "geometry": {"type": "Point", "coordinates": [76.516772, 22.1091565]}, "properties": {"name": "Satmohni", "population": 1500, "place_class": "village", "population_source": "class_default", "osm_id": "11381972878"}}, {"type": "Feature", "geometry": {"type": "Point", "coordinates": [76.500138, 22.1134848]}, "properties": {"name": "Haidi", "population": 1500, "place_class": "village", "population_source": "class_default", "osm_id": "11381972879"}}, {"type": "Feature", "geometry": {"type": "Point", "coordinates": [76.5195283, 22.1358821]}, "properties": {"name": "Gulgaonmal", "population": 1500, "place_class": "village", "population_source": "class_default", "osm_id": "11381972881"}}, {"type": "Feature", "geometry": {"type": "Point", "coordinates": [76.4819413, 22.0536827]}, "properties": {"name": "Bavdiya", "population": 1500, "place_class": "village", "population_source": "class_default", "osm_id": "11381972882"}}, {"type": "Feature", "geometry": {"type": "Point", "coordinates": [76.4436436, 22.0513044]}, "properties": {"name": "Jamniya", "population": 1500, "place_class": "village", "population_source": "class_default", "osm_id": "11381972884"}}, {"type": "Feature", "geometry": {"type": "Point", "coordinates": [76.4611022, 22.0656103]}, "properties": {"name": "Chiclli", "population": 1500, "place_class": "village", "population_source": "class_default", "osm_id": "11381972885"}}, {"type": "Feature", "geometry": {"type": "Point", "coordinates": [76.4660136, 22.0780026]}, "properties": {"name": "Kenud", "population": 1500, "place_class": "village", "population_source": "class_default", "osm_id": "11381972886"}}, {"type": "Feature", "geometry": {"type": "Point", "coordinates": [76.4271144, 22.0840439]}, "properties": {"name": "Bhamori", "population": 1500, "place_class": "village", "population_source": "class_default", "osm_id": "11381972887"}}, {"type": "Feature", "geometry": {"type": "Point", "coordinates": [76.4403542, 22.1032246]}, "properties": {"name": "Borani", "population": 1500, "place_class": "village", "population_source": "class_default", "osm_id": "11381972890"}}, {"type": "Feature", "geometry": {"type": "Point", "coordinates": [76.4455662, 22.1351531]}, "properties": {"name": "Utawad", "population": 1500, "place_class": "village", "population_source": "class_default", "osm_id": "11381972891"}}, {"type": "Feature", "geometry": {"type": "Point", "coordinates": [76.4589882, 22.1190157]}, "properties": {"name": "Charakhan", "population": 1500, "place_class": "village", "population_source": "class_default", "osm_id": "11381972892"}}, {"type": "Feature", "geometry": {"type": "Point", "coordinates": [76.4735674, 22.1273532]}, "properties": {"name": "Pipalkota", "population": 1500, "place_class": "village", "population_source": "class_default", "osm_id": "11381972893"}}, {"type": "Feature", "geometry": {"type": "Point", "coordinates": [76.4626148, 22.1477641]}, "properties": {"name": "Bangarda", "population": 1500, "place_class": "village", "population_source": "class_default", "osm_id": "11381972894"}}, {"type": "Feature", "geometry": {"type": "Point", "coordinates": [76.4341443, 22.1534591]}, "properties": {"name": "Pandhana", "population": 1500, "place_class": "village", "population_source": "class_default", "osm_id": "11381972895"}}, {"type": "Feature", "geometry": {"type": "Point", "coordinates": [76.4391787, 22.1602931]}, "properties": {"name": "Chandpura", "population": 1500, "place_class": "village", "population_source": "class_default", "osm_id": "11381972896"}}, {"type": "Feature", "geometry": {"type": "Point", "coordinates": [76.4147449, 22.1664665]}, "properties": {"name": "Telyamal", "population": 1500, "place_class": "village", "population_source": "class_default", "osm_id": "11381972897"}}, {"type": "Feature", "geometry": {"type": "Point", "coordinates": [76.4181938, 22.1533862]}, "properties": {"name": "Palsud", "population": 1500, "place_class": "village", "population_source": "class_default", "osm_id": "11381972898"}}, {"type": "Feature", "geometry": {"type": "Point", "coordinates": [76.4148952, 21.9174764]}, "properties": {"name": "Lalwara", "population": 1500, "place_class": "village", "population_source": "class_default", "osm_id": "11382006819"}}, {"type": "Feature", "geometry": {"type": "Point", "coordinates": [76.4364816, 21.9422246]}, "properties": {"name": "Bamangaon", "population": 1500, "place_class": "village", "population_source": "class_default", "osm_id": "11382006821"}}, {"type": "Feature", "geometry": {"type": "Point", "coordinates": [76.4475435, 21.9419877]}, "properties": {"name": "Talwadya", "population": 1500, "place_class": "village", "population_source": "class_default", "osm_id": "11382006822"}}, {"type": "Feature", "geometry": {"type": "Point", "coordinates": [76.4487919, 21.9311444]}, "properties": {"name": "Jawar", "population": 1500, "place_class": "village", "population_source": "class_default", "osm_id": "11382006823"}}, {"type": "Feature", "geometry": {"type": "Point", "coordinates": [76.4829254, 21.9224971]}, "properties": {"name": "Gohlari", "population": 1500, "place_class": "village", "population_source": "class_default", "osm_id": "11382006824"}}, {"type": "Feature", "geometry": {"type": "Point", "coordinates": [76.5025709, 21.9321832]}, "properties": {"name": "Dhangaon", "population": 1500, "place_class": "village", "population_source": "class_default", "osm_id": "11382006825"}}, {"type": "Feature", "geometry": {"type": "Point", "coordinates": [76.5011586, 21.9432725]}, "properties": {"name": "Rohni", "population": 1500, "place_class": "village", "population_source": "class_default", "osm_id": "11382006826"}}, {"type": "Feature", "geometry": {"type": "Point", "coordinates": [76.506808, 21.9684308]}, "properties": {"name": "Pipalkota", "population": 1500, "place_class": "village", "population_source": "class_default", "osm_id": "11382006832"}}, {"type": "Feature", "geometry": {"type": "Point", "coordinates": [76.4827842, 21.9725448]}, "properties": {"name": "Fatehpur", "population": 1500, "place_class": "village", "population_source": "class_default", "osm_id": "11382006833"}}, {"type": "Feature", "geometry": {"type": "Point", "coordinates": [76.4733761, 21.966335]}, "properties": {"name": "Jamli", "population": 1500, "place_class": "village", "population_source": "class_default", "osm_id": "11382006834"}}, {"type": "Feature", "geometry": {"type": "Point", "coordinates": [76.4313879, 21.9769505]}, "properties": {"name": "Khutphal", "population": 1500, "place_class": "village", "population_source": "class_default", "osm_id": "11382006835"}}, {"type": "Feature", "geometry": {"type": "Point", "coordinates": [76.4198704, 21.960968]}, "properties": {"name": "Pipliyaphul", "population": 1500, "place_class": "village", "population_source": "class_default", "osm_id": "11382006836"}}, {"type": "Feature", "geometry": {"type": "Point", "coordinates": [76.4371285, 21.9984001]}, "properties": {"name": "Richgaon", "population": 1500, "place_class": "village", "population_source": "class_default", "osm_id": "11382006842"}}, {"type": "Feature", "geometry": {"type": "Point", "coordinates": [76.4316613, 21.9904818]}, "properties": {"name": "Rangaon", "population": 1500, "place_class": "village", "population_source": "class_default", "osm_id": "11382006843"}}, {"type": "Feature", "geometry": {"type": "Point", "coordinates": [76.4629064, 21.9826819]}, "properties": {"name": "Khoelari", "population": 1500, "place_class": "village", "population_source": "class_default", "osm_id": "11382006844"}}, {"type": "Feature", "geometry": {"type": "Point", "coordinates": [76.4691116, 22.0065189]}, "properties": {"name": "Kakriya", "population": 1500, "place_class": "village", "population_source": "class_default", "osm_id": "11382006845"}}, {"type": "Feature", "geometry": {"type": "Point", "coordinates": [76.479226, 22.0130431]}, "properties": {"name": "Khaygaon", "population": 1500, "place_class": "village", "population_source": "class_default", "osm_id": "11382006846"}}, {"type": "Feature", "geometry": {"type": "Point", "coordinates": [76.4935409, 21.9884407]}, "properties": {"name": "Jamlisaiyad Khan", "population": 1500, "place_class": "village", "population_source": "class_default", "osm_id": "11382006847"}}, {"type": "Feature", "geometry": {"type": "Point", "coordinates": [76.4968486, 21.9860898]}, "properties": {"name": "Bodul", "population": 1500, "place_class": "village", "population_source": "class_default", "osm_id": "11382006848"}}, {"type": "Feature", "geometry": {"type": "Point", "coordinates": [76.51315, 22.0020495]}, "properties": {"name": "Mathani", "population": 1500, "place_class": "village", "population_source": "class_default", "osm_id": "11382006849"}}, {"type": "Feature", "geometry": {"type": "Point", "coordinates": [76.4999922, 22.0236358]}, "properties": {"name": "Palsud", "population": 1500, "place_class": "village", "population_source": "class_default", "osm_id": "11382006855"}}, {"type": "Feature", "geometry": {"type": "Point", "coordinates": [76.4720001, 22.0296452]}, "properties": {"name": "Gurada", "population": 1500, "place_class": "village", "population_source": "class_default", "osm_id": "11382006856"}}, {"type": "Feature", "geometry": {"type": "Point", "coordinates": [76.4473431, 22.022146]}, "properties": {"name": "Dudwas", "population": 1500, "place_class": "village", "population_source": "class_default", "osm_id": "11382006857"}}, {"type": "Feature", "geometry": {"type": "Point", "coordinates": [76.421465, 22.0144555]}, "properties": {"name": "Kolgaon", "population": 1500, "place_class": "village", "population_source": "class_default", "osm_id": "11382006858"}}, {"type": "Feature", "geometry": {"type": "Point", "coordinates": [76.459298, 21.8910698]}, "properties": {"name": "Saonkhera", "population": 1500, "place_class": "village", "population_source": "class_default", "osm_id": "11383421997"}}, {"type": "Feature", "geometry": {"type": "Point", "coordinates": [76.4359348, 21.8866414]}, "properties": {"name": "Palakna", "population": 1500, "place_class": "village", "population_source": "class_default", "osm_id": "11383421998"}}, {"type": "Feature", "geometry": {"type": "Point", "coordinates": [76.4276657, 21.879329]}, "properties": {"name": "Mundwara", "population": 1500, "place_class": "village", "population_source": "class_default", "osm_id": "11383421999"}}, {"type": "Feature", "geometry": {"type": "Point", "coordinates": [76.4337115, 21.8775021]}, "properties": {"name": "Satwara", "population": 1500, "place_class": "village", "population_source": "class_default", "osm_id": "11383422000"}}, {"type": "Feature", "geometry": {"type": "Point", "coordinates": [76.4974135, 21.882131]}, "properties": {"name": "Mathani", "population": 1500, "place_class": "village", "population_source": "class_default", "osm_id": "11383422015"}}, {"type": "Feature", "geometry": {"type": "Point", "coordinates": [76.5140475, 21.8820717]}, "properties": {"name": "Banipuri", "population": 1500, "place_class": "village", "population_source": "class_default", "osm_id": "11383422016"}}, {"type": "Feature", "geometry": {"type": "Point", "coordinates": [76.5232825, 21.8947055]}, "properties": {"name": "Dongri", "population": 1500, "place_class": "village", "population_source": "class_default", "osm_id": "11383422017"}}, {"type": "Feature", "geometry": {"type": "Point", "coordinates": [76.4925842, 22.1384334]}, "properties": {"name": "Jamkota", "population": 250, "place_class": "hamlet", "population_source": "class_default", "osm_id": "11381972880"}}]}