{"type": "FeatureCollection", "crs": {"type": "name", "properties": {"name": "urn:ogc:def:crs:OGC:1.3:CRS84"}}, "features": [{"type": "Feature", "geometry": {"type": "Polygon", "coordinates": [[[88.64734913353769, 27.603266372022166], [88.64734913353769, 27.597882472140526], [88.64886865999314, 27.597882472140526], [88.64886865999314, 27.596536497170117], [88.6503881864486, 27.596536497170117], [88.6503881864486, 27.595190522199704], [88.65190771290405, 27.595190522199704], [88.65190771290405, 27.593844547229295], [88.65494676581494, 27.593844547229295], [88.65494676581494, 27.596536497170117], [88.65190771290405, 27.596536497170117], [88.65190771290405, 27.599228447110935], [88.6503881864486, 27.599228447110935], [88.6503881864486, 27.601920397051757], [88.64886865999314, 27.601920397051757], [88.64886865999314, 27.603266372022166], [88.64734913353769, 27.603266372022166]]]}, "properties": {"area_km2": 0.3364, "min_depth_m": 0.05}}]}