{"type": "FeatureCollection", "features": [{"type": "Feature", "geometry": {"type": "Point", "coordinates": [79.6368235, 16.5589293]}, "properties": {"name": "Gurazala", "population": 1000, "place_class": "town", "population_source": "osm:population", "osm_id": "245636833"}}, {"type": "Feature", "geometry": {"type": "Point", "coordinates": [79.5528824, 16.5523765]}, "properties": {"name": "Rentachintala", "population": 16523, "place_class": "village", "population_source": "osm:population", "osm_id": "245636815"}}, {"type": "Feature", "geometry": {"type": "Point", "coordinates": [79.3123747, 16.5603673]}, "properties": {"name": "Vijayapuri", "population": 5000, "place_class": "village", "population_source": "osm:population", "osm_id": "571542090"}}, {"type": "Feature", "geometry": {"type": "Point", "coordinates": [79.3207113, 16.5857016]}, "properties": {"name": "Vijayapuri North", "population": 1500, "place_class": "village", "population_source": "class_default", "osm_id": "571542093"}}, {"type": "Feature", "geometry": {"type": "Point", "coordinates": [79.3035951, 16.6076981]}, "properties": {"name": "Hill Colony", "population": 1500, "place_class": "village", "population_source": "class_default", "osm_id": "571542096"}}, {"type": "Feature", "geometry": {"type": "Point", "coordinates": [79.2684478, 16.6952035]}, "properties": {"name": "Chalakurthy", "population": 1500, "place_class": "village", "population_source": "class_default", "osm_id": "4457174980"}}, {"type": "Feature", "geometry": {"type": "Point", "coordinates": [79.6412873, 16.5368433]}, "properties": {"name": "Jangameshwarapuram", "population": 1500, "place_class": "village", "population_source": "class_default", "osm_id": "5548269752"}}, {"type": "Feature", "geometry": {"type": "Point", "coordinates": [79.382025, 16.5368227]}, "properties": {"name": "Chinnivaripalem", "population": 1500, "place_class": "village", "population_source": "class_default", "osm_id": "5548269756"}}, {"type": "Feature", "geometry": {"type": "Point", "coordinates": [79.3605244, 16.5420783]}, "properties": {"name": "Kothur", "population": 1500, "place_class": "village", "population_source": "class_default", "osm_id": "5548269759"}}, {"type": "Feature", "geometry": {"type": "Point", "coordinates": [79.4723832, 16.5220631]}, "properties": {"name": "Matukumalli", "population": 1500, "place_class": "village", "population_source": "class_default", "osm_id": "5548269760"}}, {"type": "Feature", "geometry": {"type": "Point", "coordinates": [79.4736278, 16.6015254]}, "properties": {"name": "Mallavaram", "population": 1500, "place_class": "village", "population_source": "class_default", "osm_id": "5548269761"}}, {"type": "Feature", "geometry": {"type": "Point", "coordinates": [79.6437549, 16.5751925]}, "properties": {"name": "Gangavaram", "population": 1500, "place_class": "village", "population_source": "class_default", "osm_id": "5548269765"}}, {"type": "Feature", "geometry": {"type": "Point", "coordinates": [79.5177126, 16.5707707]}, "properties": {"name": "Pasarlapadu", "population": 1500, "place_class": "village", "population_source": "class_default", "osm_id": "5548269766"}}, {"type": "Feature", "geometry": {"type": "Point", "coordinates": [79.5212017, 16.5891797]}, "properties": {"name": "Goli", "population": 1500, "place_class": "village", "population_source": "class_default", "osm_id": "5548269767"}}, {"type": "Feature", "geometry": {"type": "Point", "coordinates": [79.5457363, 16.6221492]}, "properties": {"name": "Samadhanampeta", "population": 1500, "place_class": "village", "population_source": "class_default", "osm_id": "5548269768"}}, {"type": "Feature", "geometry": {"type": "Point", "coordinates": [79.5668185, 16.6391936]}, "properties": {"name": "Gottinukala", "population": 1500, "place_class": "village", "population_source": "class_default", "osm_id": "5548269769"}}, {"type": "Feature", "geometry": {"type": "Point", "coordinates": [79.6014941, 16.6342901]}, "properties": {"name": "Telukutla", "population": 1500, "place_class": "village", "population_source": "class_default", "osm_id": "5548269770"}}, {"type": "Feature", "geometry": {"type": "Point", "coordinates": [79.6679592, 16.6362741]}, "properties": {"name": "Srinivasapuram", "population": 1500, "place_class": "village", "population_source": "class_default", "osm_id": "5548269771"}}, {"type": "Feature", "geometry": {"type": "Point", "coordinates": [79.6628201, 16.6797422]}, "properties": {"name": "Pondugula", "population": 1500, "place_class": "village", "population_source": "class_default", "osm_id": "5548269772"}}, {"type": "Feature", "geometry": {"type": "Point", "coordinates": [79.4970274, 16.5431171]}, "properties": {"name": "Paluvoi", "population": 1500, "place_class": "village", "population_source": "class_default", "osm_id": "5548269939"}}, {"type": "Feature", "geometry": {"type": "Point", "coordinates": [79.5386875, 16.5706576]}, "properties": {"name": "Mittagudipadu", "population": 1500, "place_class": "village", "population_source": "class_default", "osm_id": "5548269940"}}, {"type": "Feature", "geometry": {"type": "Point", "coordinates": [79.652456, 16.6081878]}, "properties": {"name": "Pulipadu", "population": 1500, "place_class": "village", "population_source": "class_default", "osm_id": "5548269941"}}, {"type": "Feature", "geometry": {"type": "Point", "coordinates": [79.2912269, 16.5269077]}, "properties": {"name": "Jammigadda", "population": 1500, "place_class": "village", "population_source": "class_default", "osm_id": "5548271932"}}, {"type": "Feature", "geometry": {"type": "Point", "coordinates": [79.2867851, 16.5264242]}, "properties": {"name": "Chintala Thanda", "population": 1500, "place_class": "village", "population_source": "class_default", "osm_id": "5548271933"}}, {"type": "Feature", "geometry": {"type": "Point", "coordinates": [79.4712353, 16.5244185]}, "properties": {"name": "Gannavaram", "population": 1500, "place_class": "village", "population_source": "class_default", "osm_id": "5548271935"}}, {"type": "Feature", "geometry": {"type": "Point", "coordinates": [79.4582856, 16.558523]}, "properties": {"name": "Tummurukota", "population": 1500, "place_class": "village", "population_source": "class_default", "osm_id": "5548293025"}}, {"type": "Feature", "geometry": {"type": "Point", "coordinates": [79.6541405, 16.5431582]}, "properties": {"name": "Pallegunta", "population": 1500, "place_class": "village", "population_source": "class_default", "osm_id": "5548293721"}}, {"type": "Feature", "geometry": {"type": "Point", "coordinates": [79.5984578, 16.5265168]}, "properties": {"name": "Anjanapuram", "population": 1500, "place_class": "village", "population_source": "class_default", "osm_id": "5548293921"}}, {"type": "Feature", "geometry": {"type": "Point", "coordinates": [79.3630403, 16.5209008]}, "properties": {"name": "Pasuvemula", "population": 1500, "place_class": "village", "population_source": "class_default", "osm_id": "5548293922"}}, {"type": "Feature", "geometry": {"type": "Point", "coordinates": [79.4989157, 16.599829]}, "properties": {"name": "Jettipalem", "population": 1500, "place_class": "village", "population_source": "class_default", "osm_id": "5548294023"}}, {"type": "Feature", "geometry": {"type": "Point", "coordinates": [79.6040583, 16.6383917]}, "properties": {"name": "Dadao", "population": 1500, "place_class": "village", "population_source": "class_default", "osm_id": "5548294026"}}, {"type": "Feature", "geometry": {"type": "Point", "coordinates": [79.5642784, 16.5291701]}, "properties": {"name": "Rentala", "population": 1500, "place_class": "village", "population_source": "class_default", "osm_id": "5636861976"}}, {"type": "Feature", "geometry": {"type": "Point", "coordinates": [79.3128553, 16.5641131]}, "properties": {"name": "Vijayapuri South", "population": 1500, "place_class": "village", "population_source": "class_default", "osm_id": "5636861977"}}, {"type": "Feature", "geometry": {"type": "Point", "coordinates": [79.38756, 16.5759281]}, "properties": {"name": "Ekunampet", "population": 1500, "place_class": "village", "population_source": "class_default", "osm_id": "5636861978"}}, {"type": "Feature", "geometry": {"type": "Point", "coordinates": [79.4500505, 16.5789782]}, "properties": {"name": "Kotturu", "population": 1500, "place_class": "village", "population_source": "class_default", "osm_id": "5636861980"}}, {"type": "Feature", "geometry": {"type": "Point", "coordinates": [79.6260871, 16.6686866]}, "properties": {"name": "Iragudem", "population": 1500, "place_class": "village", "population_source": "class_default", "osm_id": "5636861981"}}, {"type": "Feature", "geometry": {"type": "Point", "coordinates": [79.4286923, 16.6180193]}, "properties": {"name": "Thimmai Palem", "population": 1500, "place_class": "village", "population_source": "class_default", "osm_id": "6183929299"}}, {"type": "Feature", "geometry": {"type": "Point", "coordinates": [79.4594265, 16.6774673]}, "properties": {"name": "Mulka Charla", "population": 1500, "place_class": "village", "population_source": "class_default", "osm_id": "6183929306"}}, {"type": "Feature", "geometry": {"type": "Point", "coordinates": [79.4818449, 16.6804479]}, "properties": {"name": "Kothanandi Konda", "population": 1500, "place_class": "village", "population_source": "class_default", "osm_id": "6183929307"}}, {"type": "Feature", "geometry": {"type": "Point", "coordinates": [79.4532815, 16.6825018]}, "properties": {"name": "Bangarigunta Thanda", "population": 1500, "place_class": "village", "population_source": "class_default", "osm_id": "6183929308"}}, {"type": "Feature", "geometry": {"type": "Point", "coordinates": [79.4607336, 16.6723556]}, "properties": {"name": "Balaji Thanda", "population": 1500, "place_class": "village", "population_source": "class_default", "osm_id": "6183929309"}}, {"type": "Feature", "geometry": {"type": "Point", "coordinates": [79.4669286, 16.6278188]}, "properties": {"name": "Chityala", "population": 1500, "place_class": "village", "population_source": "class_default", "osm_id": "6183929316"}}, {"type": "Feature", "geometry": {"type": "Point", "coordinates": [79.4673588, 16.6551893]}, "properties": {"name": "Baleen Palli", "population": 1500, "place_class": "village", "population_source": "class_default", "osm_id": "6183929317"}}, {"type": "Feature", "geometry": {"type": "Point", "coordinates": [79.5134933, 16.6627222]}, "properties": {"name": "Adavi Devula Palli", "population": 1500, "place_class": "village", "population_source": "class_default", "osm_id": "6183929318"}}, {"type": "Feature", "geometry": {"type": "Point", "coordinates": [79.5425364, 16.69449]}, "properties": {"name": "Veerla Palem", "population": 1500, "place_class": "village", "population_source": "class_default", "osm_id": "6183929321"}}, {"type": "Feature", "geometry": {"type": "Point", "coordinates": [79.5617249, 16.6475881]}, "properties": {"name": "Mudimanikam", "population": 1500, "place_class": "village", "population_source": "class_default", "osm_id": "6183929323"}}, {"type": "Feature", "geometry": {"type": "Point", "coordinates": [79.6051766, 16.6972956]}, "properties": {"name": "Thalla Veerappa Gudem", "population": 1500, "place_class": "village", "population_source": "class_default", "osm_id": "6183929324"}}, {"type": "Feature", "geometry": {"type": "Point", "coordinates": [79.6604135, 16.692076]}, "properties": {"name": "Wadapalli", "population": 1500, "place_class": "village", "population_source": "class_default", "osm_id": "6183929326"}}, {"type": "Feature", "geometry": {"type": "Point", "coordinates": [79.6777244, 16.7023518]}, "properties": {"name": "Ganesh Pahad", "population": 1500, "place_class": "village", "population_source": "class_default", "osm_id": "6183929329"}}, {"type": "Feature", "geometry": {"type": "Point", "coordinates": [79.3862199, 16.6629996]}, "properties": {"name": "Thuniki Nuthula", "population": 1500, "place_class": "village", "population_source": "class_default", "osm_id": "6542415848"}}, {"type": "Feature", "geometry": {"type": "Point", "coordinates": [79.4259166, 16.6764843]}, "properties": {"name": "Garkanattu Thanda", "population": 1500, "place_class": "village", "population_source": "class_default", "osm_id": "6542415849"}}, {"type": "Feature", "geometry": {"type": "Point", "coordinates": [79.3363612, 16.7220899]}, "properties": {"name": "Tirumalagiri", "population": 1500, "place_class": "village", "population_source": "class_default", "osm_id": "6576972928"}}, {"type": "Feature", "geometry": {"type": "Point", "coordinates": [79.3672613, 16.716309]}, "properties": {"name": "Kompalli", "population": 1500, "place_class": "village", "population_source": "class_default", "osm_id": "6576972934"}}, {"type": "Feature", "geometry": {"type": "Point", "coordinates": [79.4233814, 16.725663]}, "properties": {"name": "Nehatapur", "population": 1500, "place_class": "village", "population_source": "class_default", "osm_id": "6576972942"}}, {"type": "Feature", "geometry": {"type": "Point", "coordinates": [79.415242, 16.7078599]}, "properties": {"name": "Rajavaram", "population": 1500, "place_class": "village", "population_source": "class_default", "osm_id": "6576972949"}}, {"type": "Feature", "geometry": {"type": "Point", "coordinates": [79.354867, 16.6941303]}, "properties": {"name": "Yellapur", "population": 1500, "place_class": "village", "population_source": "class_default", "osm_id": "6576972981"}}, {"type": "Feature", "geometry": {"type": "Point", "coordinates": [79.3759118, 16.6822829]}, "properties": {"name": "Sunkishla (Sm)", "population": 1500, "place_class": "village", "population_source": "class_default", "osm_id": "6576972983"}}, {"type": "Feature", "geometry": {"type": "Point", "coordinates": [79.3337032, 16.641784]}, "properties": {"name": "Nellikal", "population": 1500, "place_class": "village", "population_source": "class_default", "osm_id": "6576972987"}}, {"type": "Feature", "geometry": {"type": "Point", "coordinates": [79.5507753, 16.7257229]}, "properties": {"name": "Timmapur", "population": 1500, "place_class": "village", "population_source": "class_default", "osm_id": "6576972996"}}, {"type": "Feature", "geometry": {"type": "Point", "coordinates": [79.5046234, 16.5211374]}, "properties": {"name": "New Paluvayi", "population": 1500, "place_class": "village", "population_source": "class_default", "osm_id": "11795361096"}}, {"type": "Feature", "geometry": {"type": "Point", "coordinates": [79.4047884, 16.5369966]}, "properties": {"name": "Ethipothala", "population": 250, "place_class": "hamlet", "population_source": "class_default", "osm_id": "5636861979"}}, {"type": "Feature", "geometry": {"type": "Point", "coordinates": [79.3296993, 16.5350435]}, "properties": {"name": "Javuk Thanda", "population": 250, "place_class": "hamlet", "population_source": "class_default", "osm_id": "5636862424"}}, {"type": "Feature", "geometry": {"type": "Point", "coordinates": [79.4898935, 16.7131211]}, "properties": {"name": "Gandhi Nagar", "population": 250, "place_class": "hamlet", "population_source": "class_default", "osm_id": "6183929295"}}, {"type": "Feature", "geometry": {"type": "Point", "coordinates": [79.5021325, 16.7148114]}, "properties": {"name": "Tatichettu Thanda", "population": 250, "place_class": "hamlet", "population_source": "class_default", "osm_id": "6183929296"}}, {"type": "Feature", "geometry": {"type": "Point", "coordinates": [79.4966415, 16.7057781]}, "properties": {"name": "Indira Nagar", "population": 250, "place_class": "hamlet", "population_source": "class_default", "osm_id": "6183929297"}}, {"type": "Feature", "geometry": {"type": "Point", "coordinates": [79.4627011, 16.6933192]}, "properties": {"name": "Chintalachettu Thanda", "population": 250, "place_class": "hamlet", "population_source": "class_default", "osm_id": "6183929298"}}, {"type": "Feature", "geometry": {"type": "Point", "coordinates": [79.4251437, 16.6345537]}, "properties": {"name": "Saregudem", "population": 250, "place_class": "hamlet", "population_source": "class_default", "osm_id": "6183929300"}}, {"type": "Feature", "geometry": {"type": "Point", "coordinates": [79.44438, 16.6238787]}, "properties": {"name": "Nadigadda", "population": 250, "place_class": "hamlet", "population_source": "class_default", "osm_id": "6183929301"}}, {"type": "Feature", "geometry": {"type": "Point", "coordinates": [79.4258279, 16.640266]}, "properties": {"name": "Nallamitta Thanda", "population": 250, "place_class": "hamlet", "population_source": "class_default", "osm_id": "6183929302"}}, {"type": "Feature", "geometry": {"type": "Point", "coordinates": [79.4335522, 16.6218183]}, "properties": {"name": "Jala Koti Thanda", "population": 250, "place_class": "hamlet", "population_source": "class_default", "osm_id": "6183929303"}}, {"type": "Feature", "geometry": {"type": "Point", "coordinates": [79.4374848, 16.6360352]}, "properties": {"name": "Ravulagadda Thanda", "population": 250, "place_class": "hamlet", "population_source": "class_default", "osm_id": "6183929304"}}, {"type": "Feature", "geometry": {"type": "Point", "coordinates": [79.4335345, 16.6130845]}, "properties": {"name": "Nayakuni Thanda", "population": 250, "place_class": "hamlet", "population_source": "class_default", "osm_id": "6183929305"}}, {"type": "Feature", "geometry": {"type": "Point", "coordinates": [79.4997275, 16.6725004]}, "properties": {"name": "Hamu Thanda", "population": 250, "place_class": "hamlet", "population_source": "class_default", "osm_id": "6183929310"}}, {"type": "Feature", "geometry": {"type": "Point", "coordinates": [79.5003488, 16.6707432]}, "properties": {"name": "Jilakula Thanda", "population": 250, "place_class": "hamlet", "population_source": "class_default", "osm_id": "6183929311"}}, {"type": "Feature", "geometry": {"type": "Point", "coordinates": [79.5045695, 16.6804953]}, "properties": {"name": "Champla Thanda", "population": 250, "place_class": "hamlet", "population_source": "class_default", "osm_id": "6183929312"}}, {"type": "Feature", "geometry": {"type": "Point", "coordinates": [79.4960406, 16.6786561]}, "properties": {"name": "Dudya Thanda", "population": 250, "place_class": "hamlet", "population_source": "class_default", "osm_id": "6183929313"}}, {"type": "Feature", "geometry": {"type": "Point", "coordinates": [79.5096067, 16.6779503]}, "properties": {"name": "Gonya Thanda", "population": 250, "place_class": "hamlet", "population_source": "class_default", "osm_id": "6183929314"}}, {"type": "Feature", "geometry": {"type": "Point", "coordinates": [79.5022484, 16.6822333]}, "properties": {"name": "Vasram Thanda", "population": 250, "place_class": "hamlet", "population_source": "class_default", "osm_id": "6183929315"}}, {"type": "Feature", "geometry": {"type": "Point", "coordinates": [79.5233427, 16.6572412]}, "properties": {"name": "Vadderagudem", "population": 250, "place_class": "hamlet", "population_source": "class_default", "osm_id": "6183929319"}}, {"type": "Feature", "geometry": {"type": "Point", "coordinates": [79.5611429, 16.6921311]}, "properties": {"name": "Sath Thanda", "population": 250, "place_class": "hamlet", "population_source": "class_default", "osm_id": "6183929320"}}, {"type": "Feature", "geometry": {"type": "Point", "coordinates": [79.5548885, 16.6961726]}, "properties": {"name": "Dubba Thanda", "population": 250, "place_class": "hamlet", "population_source": "class_default", "osm_id": "6183929322"}}, {"type": "Feature", "geometry": {"type": "Point", "coordinates": [79.644855, 16.6921628]}, "properties": {"name": "Vishnupuram", "population": 250, "place_class": "hamlet", "population_source": "class_default", "osm_id": "6183929325"}}, {"type": "Feature", "geometry": {"type": "Point", "coordinates": [79.6473934, 16.7175558]}, "properties": {"name": "Veerabadrapuram", "population": 250, "place_class": "hamlet", "population_source": "class_default", "osm_id": "6184115050"}}, {"type": "Feature", "geometry": {"type": "Point", "coordinates": [79.4206676, 16.6813147]}, "properties": {"name": "Keecha Thanda", "population": 250, "place_class": "hamlet", "population_source": "class_default", "osm_id": "6542415713"}}, {"type": "Feature", "geometry": {"type": "Point", "coordinates": [79.5145154, 16.7168709]}, "properties": {"name": "Ulshaya Palem", "population": 250, "place_class": "hamlet", "population_source": "class_default", "osm_id": "6543119866"}}, {"type": "Feature", "geometry": {"type": "Point", "coordinates": [79.5032287, 16.5411835]}, "properties": {"name": "Kothapaluvoi", "population": 250, "place_class": "hamlet", "population_source": "class_default", "osm_id": "6544127728"}}, {"type": "Feature", "geometry": {"type": "Point", "coordinates": [79.3499841, 16.7008214]}, "properties": {"name": "Laxmipuram", "population": 250, "place_class": "hamlet", "population_source": "class_default", "osm_id": "6576972926"}}, {"type": "Feature", "geometry": {"type": "Point", "coordinates": [79.335909, 16.7003828]}, "properties": {"name": "Rangundla Thanda", "population": 250, "place_class": "hamlet", "population_source": "class_default", "osm_id": "6576972927"}}, {"type": "Feature", "geometry": {"type": "Point", "coordinates": [79.3343439, 16.70365]}, "properties": {"name": "Rangunla", "population": 250, "place_class": "hamlet", "population_source": "class_default", "osm_id": "6576972929"}}, {"type": "Feature", "geometry": {"type": "Point", "coordinates": [79.3276446, 16.7258073]}, "properties": {"name": "Badaigadda", "population": 250, "place_class": "hamlet", "population_source": "class_default", "osm_id": "6576972930"}}, {"type": "Feature", "geometry": {"type": "Point", "coordinates": [79.3304703, 16.7008944]}, "properties": {"name": "Pashamvariguda", "population": 250, "place_class": "hamlet", "population_source": "class_default", "osm_id": "6576972931"}}, {"type": "Feature", "geometry": {"type": "Point", "coordinates": [79.3903283, 16.708914]}, "properties": {"name": "Ashok Nagar", "population": 250, "place_class": "hamlet", "population_source": "class_default", "osm_id": "6576972932"}}, {"type": "Feature", "geometry": {"type": "Point", "coordinates": [79.4217019, 16.7218825]}, "properties": {"name": "Shanthinagar", "population": 250, "place_class": "hamlet", "population_source": "class_default", "osm_id": "6576972944"}}, {"type": "Feature", "geometry": {"type": "Point", "coordinates": [79.4041786, 16.6967147]}, "properties": {"name": "Yerragattu Thanda", "population": 250, "place_class": "hamlet", "population_source": "class_default", "osm_id": "6576972945"}}, {"type": "Feature", "geometry": {"type": "Point", "coordinates": [79.4248376, 16.6974705]}, "properties": {"name": "Dokkalabavi Thanda", "population": 250, "place_class": "hamlet", "population_source": "class_default", "osm_id": "6576972946"}}, {"type": "Feature", "geometry": {"type": "Point", "coordinates": [79.4111274, 16.7060069]}, "properties": {"name": "Narayanpur", "population": 250, "place_class": "hamlet", "population_source": "class_default", "osm_id": "6576972947"}}, {"type": "Feature", "geometry": {"type": "Point", "coordinates": [79.4245441, 16.6871024]}, "properties": {"name": "Juvvichettu Thanda", "population": 250, "place_class": "hamlet", "population_source": "class_default", "osm_id": "6576972948"}}, {"type": "Feature", "geometry": {"type": "Point", "coordinates": [79.515261, 16.7108939]}, "properties": {"name": "Gangadevi Peta", "population": 250, "place_class": "hamlet", "population_source": "class_default", "osm_id": "6576972956"}}, {"type": "Feature", "geometry": {"type": "Point", "coordinates": [79.5179034, 16.6949641]}, "properties": {"name": "Banjara Thanda", "population": 250, "place_class": "hamlet", "population_source": "class_default", "osm_id": "6576972957"}}, {"type": "Feature", "geometry": {"type": "Point", "coordinates": [79.518249, 16.7053898]}, "properties": {"name": "Kalvakatta", "population": 250, "place_class": "hamlet", "population_source": "class_default", "osm_id": "6576972958"}}, {"type": "Feature", "geometry": {"type": "Point", "coordinates": [79.5008325, 16.726447]}, "properties": {"name": "Metya Thanda", "population": 250, "place_class": "hamlet", "population_source": "class_default", "osm_id": "6576972962"}}, {"type": "Feature", "geometry": {"type": "Point", "coordinates": [79.5120876, 16.7259859]}, "properties": {"name": "Palgu Thanda", "population": 250, "place_class": "hamlet", "population_source": "class_default", "osm_id": "6576972964"}}, {"type": "Feature", "geometry": {"type": "Point", "coordinates": [79.5330031, 16.7198846]}, "properties": {"name": "Puttalagadda Thanda", "population": 250, "place_class": "hamlet", "population_source": "class_default", "osm_id": "6576972967"}}, {"type": "Feature", "geometry": {"type": "Point", "coordinates": [79.5196895, 16.7215708]}, "properties": {"name": "Bangari Gadda", "population": 250, "place_class": "hamlet", "population_source": "class_default", "osm_id": "6576972968"}}, {"type": "Feature", "geometry": {"type": "Point", "coordinates": [79.5761542, 16.7134661]}, "properties": {"name": "Modgulakunta Thanda", "population": 250, "place_class": "hamlet", "population_source": "class_default", "osm_id": "6576972974"}}, {"type": "Feature", "geometry": {"type": "Point", "coordinates": [79.5711525, 16.7150851]}, "properties": {"name": "Kapura Thanda", "population": 250, "place_class": "hamlet", "population_source": "class_default", "osm_id": "6576972975"}}, {"type": "Feature", "geometry": {"type": "Point", "coordinates": [79.3481153, 16.6672462]}, "properties": {"name": "Chekolam Thanda", "population": 250, "place_class": "hamlet", "population_source": "class_default", "osm_id": "6576972978"}}, {"type": "Feature", "geometry": {"type": "Point", "coordinates": [79.3229413, 16.6780085]}, "properties": {"name": "Gath Thanda", "population": 250, "place_class": "hamlet", "population_source": "class_default", "osm_id": "6576972979"}}, {"type": "Feature", "geometry": {"type": "Point", "coordinates": [79.3188679, 16.6813529]}, "properties": {"name": "Thootpet Thanda", "population": 250, "place_class": "hamlet", "population_source": "class_default", "osm_id": "6576972980"}}, {"type": "Feature", "geometry": {"type": "Point", "coordinates": [79.3531009, 16.6871687]}, "properties": {"name": "Yellapur Thanda", "population": 250, "place_class": "hamlet", "population_source": "class_default", "osm_id": "6576972982"}}, {"type": "Feature", "geometry": {"type": "Point", "coordinates": [79.3730773, 16.6839474]}, "properties": {"name": "Sunkishala Thanda", "population": 250, "place_class": "hamlet", "population_source": "class_default", "osm_id": "6576972984"}}, {"type": "Feature", "geometry": {"type": "Point", "coordinates": [79.3398646, 16.6540092]}, "properties": {"name": "Pilligundla Thanda", "population": 250, "place_class": "hamlet", "population_source": "class_default", "osm_id": "6576972985"}}, {"type": "Feature", "geometry": {"type": "Point", "coordinates": [79.3130254, 16.6494052]}, "properties": {"name": "Yerracheruvu Thanda", "population": 250, "place_class": "hamlet", "population_source": "class_default", "osm_id": "6576972986"}}, {"type": "Feature", "geometry": {"type": "Point", "coordinates": [79.3442564, 16.6352514]}, "properties": {"name": "Jal Thanda", "population": 250, "place_class": "hamlet", "population_source": "class_default", "osm_id": "6576972988"}}, {"type": "Feature", "geometry": {"type": "Point", "coordinates": [79.3345251, 16.6340957]}, "properties": {"name": "Nellamla Thanda", "population": 250, "place_class": "hamlet", "population_source": "class_default", "osm_id": "6576972989"}}, {"type": "Feature", "geometry": {"type": "Point", "coordinates": [79.3289137, 16.6262893]}, "properties": {"name": "Chenchani Thanda", "population": 250, "place_class": "hamlet", "population_source": "class_default", "osm_id": "6576972990"}}, {"type": "Feature", "geometry": {"type": "Point", "coordinates": [79.3451369, 16.6005002]}, "properties": {"name": "Nagarjuna Peta", "population": 250, "place_class": "hamlet", "population_source": "class_default", "osm_id": "6576972991"}}, {"type": "Feature", "geometry": {"type": "Point", "coordinates": [79.3981185, 16.6389065]}, "properties": {"name": "Chennaipalem", "population": 250, "place_class": "hamlet", "population_source": "class_default", "osm_id": "6576972992"}}, {"type": "Feature", "geometry": {"type": "Point", "coordinates": [79.3676445, 16.636312]}, "properties": {"name": "New Godumadka", "population": 250, "place_class": "hamlet", "population_source": "class_default", "osm_id": "6576972993"}}, {"type": "Feature", "geometry": {"type": "Point", "coordinates": [79.3737467, 16.6300215]}, "properties": {"name": "B.V.Bavi Thanda", "population": 250, "place_class": "hamlet", "population_source": "class_default", "osm_id": "6576972994"}}, {"type": "Feature", "geometry": {"type": "Point", "coordinates": [79.5188594, 16.5457954]}, "properties": {"name": "Paluvai Junction", "population": 250, "place_class": "hamlet", "population_source": "class_default", "osm_id": "14024514867"}}]}