{"type": "FeatureCollection", "features": [{"type": "Feature", "geometry": {"type": "Point", "coordinates": [92.853767, 27.2849959]}, "properties": {"name": "Bana", "population": 1500, "place_class": "village", "population_source": "class_default", "osm_id": "1185177134"}}, {"type": "Feature", "geometry": {"type": "Point", "coordinates": [92.7771732, 27.2934767]}, "properties": {"name": "Palizi", "population": 1500, "place_class": "village", "population_source": "class_default", "osm_id": "1185177423"}}, {"type": "Feature", "geometry": {"type": "Point", "coordinates": [92.7679122, 27.3150413]}, "properties": {"name": "Tuluhi", "population": 1500, "place_class": "village", "population_source": "class_default", "osm_id": "1185182418"}}, {"type": "Feature", "geometry": {"type": "Point", "coordinates": [92.8247309, 27.383943]}, "properties": {"name": "Richukrong", "population": 1500, "place_class": "village", "population_source": "class_default", "osm_id": "7164628780"}}, {"type": "Feature", "geometry": {"type": "Point", "coordinates": [92.9151963, 27.2492384]}, "properties": {"name": "哈罗", "population": 1500, "place_class": "village", "population_source": "class_default", "osm_id": "10864153548"}}, {"type": "Feature", "geometry": {"type": "Point", "coordinates": [92.8979019, 27.3179381]}, "properties": {"name": "辛克列", "population": 1500, "place_class": "village", "population_source": "class_default", "osm_id": "10864153549"}}, {"type": "Feature", "geometry": {"type": "Point", "coordinates": [92.843717, 27.3802312]}, "properties": {"name": "Talomsima", "population": 1500, "place_class": "village", "population_source": "class_default", "osm_id": "10864184707"}}, {"type": "Feature", "geometry": {"type": "Point", "coordinates": [92.8542889, 27.3112891]}, "properties": {"name": "Chijang", "population": 1500, "place_class": "village", "population_source": "class_default", "osm_id": "11518406604"}}, {"type": "Feature", "geometry": {"type": "Point", "coordinates": [92.8905218, 27.2629563]}, "properties": {"name": "Yangse", "population": 1500, "place_class": "village", "population_source": "class_default", "osm_id": "11883835079"}}, {"type": "Feature", "geometry": {"type": "Point", "coordinates": [92.8866145, 27.291801]}, "properties": {"name": "Kitchang", "population": 1500, "place_class": "village", "population_source": "class_default", "osm_id": "11883835080"}}, {"type": "Feature", "geometry": {"type": "Point", "coordinates": [92.8167398, 27.3145838]}, "properties": {"name": "New Sapong", "population": 1500, "place_class": "village", "population_source": "class_default", "osm_id": "11883835081"}}, {"type": "Feature", "geometry": {"type": "Point", "coordinates": [92.8063377, 27.313088]}, "properties": {"name": "Kaya Valley Village", "population": 1500, "place_class": "village", "population_source": "class_default", "osm_id": "11883835082"}}, {"type": "Feature", "geometry": {"type": "Point", "coordinates": [92.7597549, 27.4311686]}, "properties": {"name": "Janaching", "population": 250, "place_class": "hamlet", "population_source": "class_default", "osm_id": "10917567485"}}, {"type": "Feature", "geometry": {"type": "Point", "coordinates": [92.8167632, 27.3935329]}, "properties": {"name": "姜母盆", "population": 250, "place_class": "hamlet", "population_source": "class_default", "osm_id": "10992042856"}}, {"type": "Feature", "geometry": {"type": "Point", "coordinates": [92.7719092, 27.3008816]}, "properties": {"name": "Tania", "population": 250, "place_class": "hamlet", "population_source": "class_default", "osm_id": "11295521908"}}, {"type": "Feature", "geometry": {"type": "Point", "coordinates": [92.8238476, 27.3263555]}, "properties": {"name": "Pitchang", "population": 250, "place_class": "hamlet", "population_source": "class_default", "osm_id": "11518481094"}}]}