{"type": "FeatureCollection", "features": [{"type": "Feature", "geometry": {"type": "Point", "coordinates": [86.74855, 26.539598]}, "properties": {"name": "राजविराज", "population": 37738, "place_class": "town", "population_source": "osm:population", "osm_id": "2803154322"}}, {"type": "Feature", "geometry": {"type": "Point", "coordinates": [86.8590707, 26.5044827]}, "properties": {"name": "हनुमाननगर कङ्कालिनी", "population": 20000, "place_class": "town", "population_source": "class_default", "osm_id": "5922899535"}}, {"type": "Feature", "geometry": {"type": "Point", "coordinates": [86.9147697, 26.6416032]}, "properties": {"name": "कञ्चनरूप", "population": 20000, "place_class": "town", "population_source": "class_default", "osm_id": "11286408742"}}, {"type": "Feature", "geometry": {"type": "Point", "coordinates": [86.809888, 26.4849536]}, "properties": {"name": "कोईलाडी", "population": 8000, "place_class": "suburb", "population_source": "class_default", "osm_id": "2837163667"}}, {"type": "Feature", "geometry": {"type": "Point", "coordinates": [86.7671563, 26.4677728]}, "properties": {"name": "तिलाठी", "population": 8000, "place_class": "suburb", "population_source": "class_default", "osm_id": "2837164008"}}, {"type": "Feature", "geometry": {"type": "Point", "coordinates": [86.8334674, 26.4829816]}, "properties": {"name": "Tikuliya", "population": 1500, "place_class": "village", "population_source": "class_default", "osm_id": "2798524194"}}, {"type": "Feature", "geometry": {"type": "Point", "coordinates": [86.8901477, 26.5501194]}, "properties": {"name": "भारदह", "population": 1500, "place_class": "village", "population_source": "class_default", "osm_id": "2837163625"}}, {"type": "Feature", "geometry": {"type": "Point", "coordinates": [86.7537055, 26.4814598]}, "properties": {"name": "वीरपुर", "population": 1500, "place_class": "village", "population_source": "class_default", "osm_id": "2837163627"}}, {"type": "Feature", "geometry": {"type": "Point", "coordinates": [86.7323379, 26.4515269]}, "properties": {"name": "छिन्नमस्ता", "population": 1500, "place_class": "village", "population_source": "class_default", "osm_id": "2837163629"}}, {"type": "Feature", "geometry": {"type": "Point", "coordinates": [86.8285904, 26.5286236]}, "properties": {"name": "महादेवा", "population": 1500, "place_class": "village", "population_source": "class_default", "osm_id": "2837163674"}}, {"type": "Feature", "geometry": {"type": "Point", "coordinates": [86.9573971, 26.523699]}, "properties": {"name": "Bantabari", "population": 1500, "place_class": "village", "population_source": "class_default", "osm_id": "3253305876"}}, {"type": "Feature", "geometry": {"type": "Point", "coordinates": [86.917131, 26.4393734]}, "properties": {"name": "Ratanpura", "population": 1500, "place_class": "village", "population_source": "class_default", "osm_id": "3815862722"}}, {"type": "Feature", "geometry": {"type": "Point", "coordinates": [86.7810157, 26.6311965]}, "properties": {"name": "अग्नीसाइर कृष्णासवरन", "population": 1500, "place_class": "village", "population_source": "class_default", "osm_id": "13185347358"}}, {"type": "Feature", "geometry": {"type": "Point", "coordinates": [86.850978, 26.5744884]}, "properties": {"name": "तिरहुत", "population": 1500, "place_class": "village", "population_source": "class_default", "osm_id": "13185347359"}}, {"type": "Feature", "geometry": {"type": "Point", "coordinates": [86.7914938, 26.4787703]}, "properties": {"name": "तिलाठी कोईलाडी", "population": 1500, "place_class": "village", "population_source": "class_default", "osm_id": "13185347360"}}, {"type": "Feature", "geometry": {"type": "Point", "coordinates": [86.7237678, 26.5043676]}, "properties": {"name": "विष्णुपुर", "population": 1500, "place_class": "village", "population_source": "class_default", "osm_id": "13185347361"}}, {"type": "Feature", "geometry": {"type": "Point", "coordinates": [86.9017182, 26.5659473]}, "properties": {"name": "भलुवा", "population": 1000, "place_class": "hamlet", "population_source": "osm:population", "osm_id": "12039031134"}}, {"type": "Feature", "geometry": {"type": "Point", "coordinates": [86.9616386, 26.5129021]}, "properties": {"name": "Bhimnagar", "population": 250, "place_class": "hamlet", "population_source": "class_default", "osm_id": "1437729448"}}, {"type": "Feature", "geometry": {"type": "Point", "coordinates": [86.906906, 26.610542]}, "properties": {"name": "बदगामा", "population": 250, "place_class": "hamlet", "population_source": "class_default", "osm_id": "2837163607"}}, {"type": "Feature", "geometry": {"type": "Point", "coordinates": [86.9124525, 26.5869326]}, "properties": {"name": "बैरवा", "population": 250, "place_class": "hamlet", "population_source": "class_default", "osm_id": "2837163609"}}, {"type": "Feature", "geometry": {"type": "Point", "coordinates": [86.819984, 26.628944]}, "properties": {"name": "बाखदौवा", "population": 250, "place_class": "hamlet", "population_source": "class_default", "osm_id": "2837163610"}}, {"type": "Feature", "geometry": {"type": "Point", "coordinates": [86.818497, 26.507353]}, "properties": {"name": "बभनगामाकट्टी", "population": 250, "place_class": "hamlet", "population_source": "class_default", "osm_id": "2837163611"}}, {"type": "Feature", "geometry": {"type": "Point", "coordinates": [86.8835985, 26.6024251]}, "properties": {"name": "बरमझिया", "population": 250, "place_class": "hamlet", "population_source": "class_default", "osm_id": "2837163615"}}, {"type": "Feature", "geometry": {"type": "Point", "coordinates": [86.74128, 26.581326]}, "properties": {"name": "बसबिट्टी", "population": 250, "place_class": "hamlet", "population_source": "class_default", "osm_id": "2837163619"}}, {"type": "Feature", "geometry": {"type": "Point", "coordinates": [86.8069382, 26.5628815]}, "properties": {"name": "बथनाहा", "population": 250, "place_class": "hamlet", "population_source": "class_default", "osm_id": "2837163620"}}, {"type": "Feature", "geometry": {"type": "Point", "coordinates": [86.830811, 26.540329]}, "properties": {"name": "भागवतपुर", "population": 250, "place_class": "hamlet", "population_source": "class_default", "osm_id": "2837163623"}}, {"type": "Feature", "geometry": {"type": "Point", "coordinates": [86.7815436, 26.4997306]}, "properties": {"name": "विषहरिया", "population": 250, "place_class": "hamlet", "population_source": "class_default", "osm_id": "2837163628"}}, {"type": "Feature", "geometry": {"type": "Point", "coordinates": [86.8449608, 26.5599049]}, "properties": {"name": "डाढा", "population": 250, "place_class": "hamlet", "population_source": "class_default", "osm_id": "2837163630"}}, {"type": "Feature", "geometry": {"type": "Point", "coordinates": [86.7861862, 26.5096378]}, "properties": {"name": "देउरी भरङ्गा", "population": 250, "place_class": "hamlet", "population_source": "class_default", "osm_id": "2837163632"}}, {"type": "Feature", "geometry": {"type": "Point", "coordinates": [86.8766708, 26.6493855]}, "properties": {"name": "धरमपुर", "population": 250, "place_class": "hamlet", "population_source": "class_default", "osm_id": "2837163635"}}, {"type": "Feature", "geometry": {"type": "Point", "coordinates": [86.8367367, 26.5897142]}, "properties": {"name": "दिमान", "population": 250, "place_class": "hamlet", "population_source": "class_default", "osm_id": "2837163637"}}, {"type": "Feature", "geometry": {"type": "Point", "coordinates": [86.774658, 26.524574]}, "properties": {"name": "फर्सैठ", "population": 250, "place_class": "hamlet", "population_source": "class_default", "osm_id": "2837163639"}}, {"type": "Feature", "geometry": {"type": "Point", "coordinates": [86.7738114, 26.5971993]}, "properties": {"name": "हरिहरपुर", "population": 250, "place_class": "hamlet", "population_source": "class_default", "osm_id": "2837163647"}}, {"type": "Feature", "geometry": {"type": "Point", "coordinates": [86.8509293, 26.5066509]}, "properties": {"name": "इनारवा", "population": 250, "place_class": "hamlet", "population_source": "class_default", "osm_id": "2837163649"}}, {"type": "Feature", "geometry": {"type": "Point", "coordinates": [86.7301483, 26.5025806]}, "properties": {"name": "इटहरी विष्णुपुर", "population": 250, "place_class": "hamlet", "population_source": "class_default", "osm_id": "2837163651"}}, {"type": "Feature", "geometry": {"type": "Point", "coordinates": [86.9349442, 26.6296577]}, "properties": {"name": "जगतपुर", "population": 250, "place_class": "hamlet", "population_source": "class_default", "osm_id": "2837163652"}}, {"type": "Feature", "geometry": {"type": "Point", "coordinates": [86.7236634, 26.5432235]}, "properties": {"name": "जमुनी मधेपुरा", "population": 250, "place_class": "hamlet", "population_source": "class_default", "osm_id": "2837163653"}}, {"type": "Feature", "geometry": {"type": "Point", "coordinates": [86.8030318, 26.6267468]}, "properties": {"name": "जण्डौल", "population": 250, "place_class": "hamlet", "population_source": "class_default", "osm_id": "2837163654"}}, {"type": "Feature", "geometry": {"type": "Point", "coordinates": [86.865425, 26.526007]}, "properties": {"name": "जोगिनिया १", "population": 250, "place_class": "hamlet", "population_source": "class_default", "osm_id": "2837163656"}}, {"type": "Feature", "geometry": {"type": "Point", "coordinates": [86.88784, 26.535444]}, "properties": {"name": "जोगिनिया २", "population": 250, "place_class": "hamlet", "population_source": "class_default", "osm_id": "2837163657"}}, {"type": "Feature", "geometry": {"type": "Point", "coordinates": [86.7366105, 26.4774343]}, "properties": {"name": "कोचबखरी", "population": 250, "place_class": "hamlet", "population_source": "class_default", "osm_id": "2837163666"}}, {"type": "Feature", "geometry": {"type": "Point", "coordinates": [86.7447893, 26.4467107]}, "properties": {"name": "लालपाटी", "population": 250, "place_class": "hamlet", "population_source": "class_default", "osm_id": "2837163669"}}, {"type": "Feature", "geometry": {"type": "Point", "coordinates": [86.7720985, 26.4836371]}, "properties": {"name": "लौनिया", "population": 250, "place_class": "hamlet", "population_source": "class_default", "osm_id": "2837163670"}}, {"type": "Feature", "geometry": {"type": "Point", "coordinates": [86.830368, 26.611727]}, "properties": {"name": "लोहजारा", "population": 250, "place_class": "hamlet", "population_source": "class_default", "osm_id": "2837163671"}}, {"type": "Feature", "geometry": {"type": "Point", "coordinates": [86.8709793, 26.5555038]}, "properties": {"name": "माधवपुर", "population": 250, "place_class": "hamlet", "population_source": "class_default", "osm_id": "2837163673"}}, {"type": "Feature", "geometry": {"type": "Point", "coordinates": [86.8698273, 26.5942249]}, "properties": {"name": "मैना कादेरी", "population": 250, "place_class": "hamlet", "population_source": "class_default", "osm_id": "2837163675"}}, {"type": "Feature", "geometry": {"type": "Point", "coordinates": [86.7435303, 26.5702858]}, "properties": {"name": "मालेथ", "population": 250, "place_class": "hamlet", "population_source": "class_default", "osm_id": "2837163678"}}, {"type": "Feature", "geometry": {"type": "Point", "coordinates": [86.790741, 26.561216]}, "properties": {"name": "पकरी", "population": 250, "place_class": "hamlet", "population_source": "class_default", "osm_id": "2837163686"}}, {"type": "Feature", "geometry": {"type": "Point", "coordinates": [86.78981, 26.6144794]}, "properties": {"name": "पारसबनी", "population": 250, "place_class": "hamlet", "population_source": "class_default", "osm_id": "2837163688"}}, {"type": "Feature", "geometry": {"type": "Point", "coordinates": [86.8048519, 26.4626591]}, "properties": {"name": "रामपुर मल्हनियाँ", "population": 250, "place_class": "hamlet", "population_source": "class_default", "osm_id": "2837163696"}}, {"type": "Feature", "geometry": {"type": "Point", "coordinates": [86.8942184, 26.6500587]}, "properties": {"name": "रूपनगर", "population": 250, "place_class": "hamlet", "population_source": "class_default", "osm_id": "2837163698"}}, {"type": "Feature", "geometry": {"type": "Point", "coordinates": [86.7927891, 26.4755928]}, "properties": {"name": "सकरपुरा", "population": 250, "place_class": "hamlet", "population_source": "class_default", "osm_id": "2837163700"}}, {"type": "Feature", "geometry": {"type": "Point", "coordinates": [86.7664337, 26.6228161]}, "properties": {"name": "सितापुर", "population": 250, "place_class": "hamlet", "population_source": "class_default", "osm_id": "2837164003"}}, {"type": "Feature", "geometry": {"type": "Point", "coordinates": [86.751007, 26.60771]}, "properties": {"name": "तेराहोता", "population": 250, "place_class": "hamlet", "population_source": "class_default", "osm_id": "2837164005"}}, {"type": "Feature", "geometry": {"type": "Point", "coordinates": [86.8659806, 26.6264037]}, "properties": {"name": "ठेलिया", "population": 250, "place_class": "hamlet", "population_source": "class_default", "osm_id": "2837164006"}}, {"type": "Feature", "geometry": {"type": "Point", "coordinates": [86.794495, 26.453411]}, "properties": {"name": "कुनोली", "population": 250, "place_class": "hamlet", "population_source": "class_default", "osm_id": "3391004311"}}, {"type": "Feature", "geometry": {"type": "Point", "coordinates": [86.8119764, 26.4585886]}, "properties": {"name": "दलाबा पुर्बटोल", "population": 250, "place_class": "hamlet", "population_source": "class_default", "osm_id": "5109968986"}}, {"type": "Feature", "geometry": {"type": "Point", "coordinates": [86.8166917, 26.4731704]}, "properties": {"name": "दलाबा उत्तरटोल", "population": 250, "place_class": "hamlet", "population_source": "class_default", "osm_id": "5109968987"}}]}