{"type": "FeatureCollection", "features": [{"type": "Feature", "geometry": {"type": "Point", "coordinates": [79.5612607, 30.5555752]}, "properties": {"name": "Joshīmath", "population": 16709, "place_class": "town", "population_source": "osm:population", "osm_id": "342105699"}}, {"type": "Feature", "geometry": {"type": "Point", "coordinates": [79.618965, 30.4780383]}, "properties": {"name": "Ringi", "population": 1500, "place_class": "village", "population_source": "class_default", "osm_id": "245770322"}}, {"type": "Feature", "geometry": {"type": "Point", "coordinates": [79.42841, 30.4335]}, "properties": {"name": "Pīpalkoti", "population": 1500, "place_class": "village", "population_source": "class_default", "osm_id": "342104895"}}, {"type": "Feature", "geometry": {"type": "Point", "coordinates": [79.44489, 30.46509]}, "properties": {"name": "Garurganga", "population": 1500, "place_class": "village", "population_source": "class_default", "osm_id": "342104924"}}, {"type": "Feature", "geometry": {"type": "Point", "coordinates": [79.5014947, 30.5240067]}, "properties": {"name": "Helong", "population": 1500, "place_class": "village", "population_source": "class_default", "osm_id": "342105686"}}, {"type": "Feature", "geometry": {"type": "Point", "coordinates": [79.5657242, 30.5377872]}, "properties": {"name": "Auli", "population": 1500, "place_class": "village", "population_source": "class_default", "osm_id": "342105710"}}, {"type": "Feature", "geometry": {"type": "Point", "coordinates": [79.38584, 30.40741]}, "properties": {"name": "Birahi", "population": 1500, "place_class": "village", "population_source": "class_default", "osm_id": "342109786"}}, {"type": "Feature", "geometry": {"type": "Point", "coordinates": [79.5619683, 30.6192257]}, "properties": {"name": "Govindghat", "population": 1500, "place_class": "village", "population_source": "class_default", "osm_id": "440867595"}}, {"type": "Feature", "geometry": {"type": "Point", "coordinates": [79.6113429, 30.498861]}, "properties": {"name": "Dhak", "population": 1500, "place_class": "village", "population_source": "class_default", "osm_id": "5519535106"}}, {"type": "Feature", "geometry": {"type": "Point", "coordinates": [79.4566318, 30.5400882]}, "properties": {"name": "Urgam", "population": 1500, "place_class": "village", "population_source": "class_default", "osm_id": "6520174609"}}, {"type": "Feature", "geometry": {"type": "Point", "coordinates": [79.4523689, 30.4978872]}, "properties": {"name": "Kimana", "population": 1500, "place_class": "village", "population_source": "class_default", "osm_id": "6520204849"}}, {"type": "Feature", "geometry": {"type": "Point", "coordinates": [79.3831468, 30.5072396]}, "properties": {"name": "Dumak", "population": 1500, "place_class": "village", "population_source": "class_default", "osm_id": "6520216752"}}, {"type": "Feature", "geometry": {"type": "Point", "coordinates": [79.3663756, 30.4153852]}, "properties": {"name": "Chhinka", "population": 1500, "place_class": "village", "population_source": "class_default", "osm_id": "6588203950"}}, {"type": "Feature", "geometry": {"type": "Point", "coordinates": [79.3684516, 30.4149735]}, "properties": {"name": "Chamoli", "population": 1500, "place_class": "village", "population_source": "class_default", "osm_id": "6588203951"}}, {"type": "Feature", "geometry": {"type": "Point", "coordinates": [79.6102059, 30.4779429]}, "properties": {"name": "Raighadi", "population": 1500, "place_class": "village", "population_source": "class_default", "osm_id": "7690199371"}}, {"type": "Feature", "geometry": {"type": "Point", "coordinates": [79.6077382, 30.4830375]}, "properties": {"name": "Karchi", "population": 1500, "place_class": "village", "population_source": "class_default", "osm_id": "7690199372"}}, {"type": "Feature", "geometry": {"type": "Point", "coordinates": [79.5207657, 30.4831116]}, "properties": {"name": "Molta", "population": 1500, "place_class": "village", "population_source": "class_default", "osm_id": "7733346066"}}, {"type": "Feature", "geometry": {"type": "Point", "coordinates": [79.5036742, 30.4725443]}, "properties": {"name": "Ganaj", "population": 1500, "place_class": "village", "population_source": "class_default", "osm_id": "7733346067"}}, {"type": "Feature", "geometry": {"type": "Point", "coordinates": [79.6252673, 30.488531]}, "properties": {"name": "Tapoban", "population": 1500, "place_class": "village", "population_source": "class_default", "osm_id": "7833070513"}}, {"type": "Feature", "geometry": {"type": "Point", "coordinates": [79.6768841, 30.4782325]}, "properties": {"name": "Subhain", "population": 1500, "place_class": "village", "population_source": "class_default", "osm_id": "7833070519"}}, {"type": "Feature", "geometry": {"type": "Point", "coordinates": [79.5387943, 30.5669897]}, "properties": {"name": "Chain", "population": 1500, "place_class": "village", "population_source": "class_default", "osm_id": "7833130298"}}, {"type": "Feature", "geometry": {"type": "Point", "coordinates": [79.5136711, 30.5736131]}, "properties": {"name": "Parari", "population": 1500, "place_class": "village", "population_source": "class_default", "osm_id": "7833130299"}}, {"type": "Feature", "geometry": {"type": "Point", "coordinates": [79.5096105, 30.5667243]}, "properties": {"name": "Thaing", "population": 1500, "place_class": "village", "population_source": "class_default", "osm_id": "7833130300"}}, {"type": "Feature", "geometry": {"type": "Point", "coordinates": [79.5996133, 30.5212631]}, "properties": {"name": "Kharori", "population": 1500, "place_class": "village", "population_source": "class_default", "osm_id": "7833130310"}}, {"type": "Feature", "geometry": {"type": "Point", "coordinates": [79.6167121, 30.5001965]}, "properties": {"name": "Chamtoli", "population": 1500, "place_class": "village", "population_source": "class_default", "osm_id": "7833130313"}}, {"type": "Feature", "geometry": {"type": "Point", "coordinates": [79.5932808, 30.5295592]}, "properties": {"name": "Mirag", "population": 1500, "place_class": "village", "population_source": "class_default", "osm_id": "7833155599"}}, {"type": "Feature", "geometry": {"type": "Point", "coordinates": [79.5809743, 30.544045]}, "properties": {"name": "Oucha", "population": 1500, "place_class": "village", "population_source": "class_default", "osm_id": "7833155600"}}, {"type": "Feature", "geometry": {"type": "Point", "coordinates": [79.4962988, 30.4945351]}, "properties": {"name": "Pagnau", "population": 1500, "place_class": "village", "population_source": "class_default", "osm_id": "7833216679"}}, {"type": "Feature", "geometry": {"type": "Point", "coordinates": [79.4792409, 30.4933697]}, "properties": {"name": "Langsi", "population": 1500, "place_class": "village", "population_source": "class_default", "osm_id": "7833216681"}}, {"type": "Feature", "geometry": {"type": "Point", "coordinates": [79.4294967, 30.4173668]}, "properties": {"name": "Gadora", "population": 1500, "place_class": "village", "population_source": "class_default", "osm_id": "7833568788"}}, {"type": "Feature", "geometry": {"type": "Point", "coordinates": [79.4171758, 30.4135226]}, "properties": {"name": "Batula", "population": 1500, "place_class": "village", "population_source": "class_default", "osm_id": "7833568789"}}, {"type": "Feature", "geometry": {"type": "Point", "coordinates": [79.4205814, 30.4061118]}, "properties": {"name": "Mahargaon", "population": 1500, "place_class": "village", "population_source": "class_default", "osm_id": "7833568790"}}, {"type": "Feature", "geometry": {"type": "Point", "coordinates": [79.4082726, 30.4169297]}, "properties": {"name": "Jaisau", "population": 1500, "place_class": "village", "population_source": "class_default", "osm_id": "7863123840"}}, {"type": "Feature", "geometry": {"type": "Point", "coordinates": [79.3693965, 30.4390585]}, "properties": {"name": "Kunjaun", "population": 1500, "place_class": "village", "population_source": "class_default", "osm_id": "7863167790"}}, {"type": "Feature", "geometry": {"type": "Point", "coordinates": [79.5981038, 30.4822562]}, "properties": {"name": "Tugasi", "population": 1500, "place_class": "village", "population_source": "class_default", "osm_id": "9387763623"}}, {"type": "Feature", "geometry": {"type": "Point", "coordinates": [79.4613085, 30.5351606]}, "properties": {"name": "Bangīna", "population": 250, "place_class": "hamlet", "population_source": "class_default", "osm_id": "2376466260"}}, {"type": "Feature", "geometry": {"type": "Point", "coordinates": [79.6510041, 30.4840721]}, "properties": {"name": "Rini", "population": 250, "place_class": "hamlet", "population_source": "class_default", "osm_id": "2376466284"}}, {"type": "Feature", "geometry": {"type": "Point", "coordinates": [79.5791482, 30.5626444]}, "properties": {"name": "Vishnuprayāg", "population": 250, "place_class": "hamlet", "population_source": "class_default", "osm_id": "2376466294"}}, {"type": "Feature", "geometry": {"type": "Point", "coordinates": [79.4271978, 30.4708447]}, "properties": {"name": "Pokhani", "population": 250, "place_class": "hamlet", "population_source": "class_default", "osm_id": "2386934076"}}, {"type": "Feature", "geometry": {"type": "Point", "coordinates": [79.3742068, 30.5103799]}, "properties": {"name": "Kanth", "population": 250, "place_class": "hamlet", "population_source": "class_default", "osm_id": "2386934116"}}, {"type": "Feature", "geometry": {"type": "Point", "coordinates": [79.4516298, 30.5408156]}, "properties": {"name": "Ranta", "population": 250, "place_class": "hamlet", "population_source": "class_default", "osm_id": "2386934192"}}, {"type": "Feature", "geometry": {"type": "Point", "coordinates": [79.4223876, 30.511071]}, "properties": {"name": "Kujani", "population": 250, "place_class": "hamlet", "population_source": "class_default", "osm_id": "6520172138"}}, {"type": "Feature", "geometry": {"type": "Point", "coordinates": [79.4917899, 30.5298379]}, "properties": {"name": "Salma", "population": 250, "place_class": "hamlet", "population_source": "class_default", "osm_id": "6520184159"}}, {"type": "Feature", "geometry": {"type": "Point", "coordinates": [79.4636205, 30.506207]}, "properties": {"name": "Jakola", "population": 250, "place_class": "hamlet", "population_source": "class_default", "osm_id": "6520208828"}}, {"type": "Feature", "geometry": {"type": "Point", "coordinates": [79.415042, 30.516532]}, "properties": {"name": "Kalgoth", "population": 250, "place_class": "hamlet", "population_source": "class_default", "osm_id": "6520218642"}}, {"type": "Feature", "geometry": {"type": "Point", "coordinates": [79.4034115, 30.5167055]}, "properties": {"name": "Jokuda", "population": 250, "place_class": "hamlet", "population_source": "class_default", "osm_id": "6520221075"}}, {"type": "Feature", "geometry": {"type": "Point", "coordinates": [79.4317932, 30.5031669]}, "properties": {"name": "Uchwan", "population": 250, "place_class": "hamlet", "population_source": "class_default", "osm_id": "6520222522"}}, {"type": "Feature", "geometry": {"type": "Point", "coordinates": [79.4720821, 30.5122953]}, "properties": {"name": "Palla", "population": 250, "place_class": "hamlet", "population_source": "class_default", "osm_id": "6520225502"}}, {"type": "Feature", "geometry": {"type": "Point", "coordinates": [79.4740295, 30.5313269]}, "properties": {"name": "Thana", "population": 250, "place_class": "hamlet", "population_source": "class_default", "osm_id": "6520225503"}}, {"type": "Feature", "geometry": {"type": "Point", "coordinates": [79.5244004, 30.4888981]}, "properties": {"name": "Rupung", "population": 250, "place_class": "hamlet", "population_source": "class_default", "osm_id": "7733346065"}}, {"type": "Feature", "geometry": {"type": "Point", "coordinates": [79.6331412, 30.4764781]}, "properties": {"name": "Rangeli", "population": 250, "place_class": "hamlet", "population_source": "class_default", "osm_id": "7733346070"}}, {"type": "Feature", "geometry": {"type": "Point", "coordinates": [79.6295181, 30.4703129]}, "properties": {"name": "Rikhulti", "population": 250, "place_class": "hamlet", "population_source": "class_default", "osm_id": "7733346071"}}, {"type": "Feature", "geometry": {"type": "Point", "coordinates": [79.626319, 30.4634951]}, "properties": {"name": "Dhurkunda", "population": 250, "place_class": "hamlet", "population_source": "class_default", "osm_id": "7733346072"}}, {"type": "Feature", "geometry": {"type": "Point", "coordinates": [79.6196412, 30.4952734]}, "properties": {"name": "Bilagarh", "population": 250, "place_class": "hamlet", "population_source": "class_default", "osm_id": "7833070511"}}, {"type": "Feature", "geometry": {"type": "Point", "coordinates": [79.6321168, 30.4956893]}, "properties": {"name": "Bhangyul", "population": 250, "place_class": "hamlet", "population_source": "class_default", "osm_id": "7833070512"}}, {"type": "Feature", "geometry": {"type": "Point", "coordinates": [79.666307, 30.4876073]}, "properties": {"name": "Saldhar", "population": 250, "place_class": "hamlet", "population_source": "class_default", "osm_id": "7833070514"}}, {"type": "Feature", "geometry": {"type": "Point", "coordinates": [79.6662528, 30.483051]}, "properties": {"name": "Chanchri", "population": 250, "place_class": "hamlet", "population_source": "class_default", "osm_id": "7833070515"}}, {"type": "Feature", "geometry": {"type": "Point", "coordinates": [79.6743167, 30.4931218]}, "properties": {"name": "Juwagwar", "population": 250, "place_class": "hamlet", "population_source": "class_default", "osm_id": "7833070516"}}, {"type": "Feature", "geometry": {"type": "Point", "coordinates": [79.5094044, 30.4867033]}, "properties": {"name": "Mamotta", "population": 250, "place_class": "hamlet", "population_source": "class_default", "osm_id": "7833103058"}}, {"type": "Feature", "geometry": {"type": "Point", "coordinates": [79.5328187, 30.4900662]}, "properties": {"name": "Urchyuri", "population": 250, "place_class": "hamlet", "population_source": "class_default", "osm_id": "7833103059"}}, {"type": "Feature", "geometry": {"type": "Point", "coordinates": [79.5346629, 30.4782416]}, "properties": {"name": "Chheli", "population": 250, "place_class": "hamlet", "population_source": "class_default", "osm_id": "7833103060"}}, {"type": "Feature", "geometry": {"type": "Point", "coordinates": [79.5888238, 30.5706174]}, "properties": {"name": "Painka", "population": 250, "place_class": "hamlet", "population_source": "class_default", "osm_id": "7833130297"}}, {"type": "Feature", "geometry": {"type": "Point", "coordinates": [79.511706, 30.5550357]}, "properties": {"name": "Kanakar", "population": 250, "place_class": "hamlet", "population_source": "class_default", "osm_id": "7833130301"}}, {"type": "Feature", "geometry": {"type": "Point", "coordinates": [79.5193691, 30.5542317]}, "properties": {"name": "Loani", "population": 250, "place_class": "hamlet", "population_source": "class_default", "osm_id": "7833130302"}}, {"type": "Feature", "geometry": {"type": "Point", "coordinates": [79.4993351, 30.5014033]}, "properties": {"name": "Dasoli", "population": 250, "place_class": "hamlet", "population_source": "class_default", "osm_id": "7833130303"}}, {"type": "Feature", "geometry": {"type": "Point", "coordinates": [79.5173146, 30.5153337]}, "properties": {"name": "Dumgri", "population": 250, "place_class": "hamlet", "population_source": "class_default", "osm_id": "7833130304"}}, {"type": "Feature", "geometry": {"type": "Point", "coordinates": [79.5129244, 30.5100821]}, "properties": {"name": "Warosi", "population": 250, "place_class": "hamlet", "population_source": "class_default", "osm_id": "7833130305"}}, {"type": "Feature", "geometry": {"type": "Point", "coordinates": [79.5135901, 30.5058234]}, "properties": {"name": "Solur", "population": 250, "place_class": "hamlet", "population_source": "class_default", "osm_id": "7833130306"}}, {"type": "Feature", "geometry": {"type": "Point", "coordinates": [79.5269168, 30.5069688]}, "properties": {"name": "Dungra", "population": 250, "place_class": "hamlet", "population_source": "class_default", "osm_id": "7833130307"}}, {"type": "Feature", "geometry": {"type": "Point", "coordinates": [79.5775238, 30.5227631]}, "properties": {"name": "Koti", "population": 250, "place_class": "hamlet", "population_source": "class_default", "osm_id": "7833130308"}}, {"type": "Feature", "geometry": {"type": "Point", "coordinates": [79.6190808, 30.5416843]}, "properties": {"name": "Aira", "population": 250, "place_class": "hamlet", "population_source": "class_default", "osm_id": "7833130309"}}, {"type": "Feature", "geometry": {"type": "Point", "coordinates": [79.6089889, 30.5136333]}, "properties": {"name": "Chormi", "population": 250, "place_class": "hamlet", "population_source": "class_default", "osm_id": "7833130311"}}, {"type": "Feature", "geometry": {"type": "Point", "coordinates": [79.6061622, 30.5018638]}, "properties": {"name": "Kunj", "population": 250, "place_class": "hamlet", "population_source": "class_default", "osm_id": "7833130312"}}, {"type": "Feature", "geometry": {"type": "Point", "coordinates": [79.6243512, 30.5008874]}, "properties": {"name": "Garghaniya", "population": 250, "place_class": "hamlet", "population_source": "class_default", "osm_id": "7833130314"}}, {"type": "Feature", "geometry": {"type": "Point", "coordinates": [79.5803201, 30.5341999]}, "properties": {"name": "Premnagar", "population": 250, "place_class": "hamlet", "population_source": "class_default", "osm_id": "7833155601"}}, {"type": "Feature", "geometry": {"type": "Point", "coordinates": [79.5613087, 30.5497024]}, "properties": {"name": "Dadon", "population": 250, "place_class": "hamlet", "population_source": "class_default", "osm_id": "7833155602"}}, {"type": "Feature", "geometry": {"type": "Point", "coordinates": [79.5473452, 30.5511851]}, "properties": {"name": "Sunil", "population": 250, "place_class": "hamlet", "population_source": "class_default", "osm_id": "7833155603"}}, {"type": "Feature", "geometry": {"type": "Point", "coordinates": [79.5402106, 30.5472291]}, "properties": {"name": "Gaunkh", "population": 250, "place_class": "hamlet", "population_source": "class_default", "osm_id": "7833155604"}}, {"type": "Feature", "geometry": {"type": "Point", "coordinates": [79.5652861, 30.6143413]}, "properties": {"name": "Pinola", "population": 250, "place_class": "hamlet", "population_source": "class_default", "osm_id": "7833155610"}}, {"type": "Feature", "geometry": {"type": "Point", "coordinates": [79.5471218, 30.5840446]}, "properties": {"name": "Toli", "population": 250, "place_class": "hamlet", "population_source": "class_default", "osm_id": "7833155611"}}, {"type": "Feature", "geometry": {"type": "Point", "coordinates": [79.4168712, 30.4611881]}, "properties": {"name": "Bimaru", "population": 250, "place_class": "hamlet", "population_source": "class_default", "osm_id": "7833216661"}}, {"type": "Feature", "geometry": {"type": "Point", "coordinates": [79.4174015, 30.455353]}, "properties": {"name": "Suranda", "population": 250, "place_class": "hamlet", "population_source": "class_default", "osm_id": "7833216662"}}, {"type": "Feature", "geometry": {"type": "Point", "coordinates": [79.4188719, 30.4442944]}, "properties": {"name": "Bajani", "population": 250, "place_class": "hamlet", "population_source": "class_default", "osm_id": "7833216663"}}, {"type": "Feature", "geometry": {"type": "Point", "coordinates": [79.4184148, 30.4482063]}, "properties": {"name": "Badumath", "population": 250, "place_class": "hamlet", "population_source": "class_default", "osm_id": "7833216664"}}, {"type": "Feature", "geometry": {"type": "Point", "coordinates": [79.4209406, 30.45157]}, "properties": {"name": "Tharetha", "population": 250, "place_class": "hamlet", "population_source": "class_default", "osm_id": "7833216665"}}, {"type": "Feature", "geometry": {"type": "Point", "coordinates": [79.4152713, 30.4860378]}, "properties": {"name": "Gwar", "population": 250, "place_class": "hamlet", "population_source": "class_default", "osm_id": "7833216668"}}, {"type": "Feature", "geometry": {"type": "Point", "coordinates": [79.4142467, 30.4949721]}, "properties": {"name": "Uchchhawa Gwar", "population": 250, "place_class": "hamlet", "population_source": "class_default", "osm_id": "7833216669"}}, {"type": "Feature", "geometry": {"type": "Point", "coordinates": [79.4331634, 30.4760042]}, "properties": {"name": "Pokhani", "population": 250, "place_class": "hamlet", "population_source": "class_default", "osm_id": "7833216670"}}, {"type": "Feature", "geometry": {"type": "Point", "coordinates": [79.4483104, 30.480797]}, "properties": {"name": "Lanji", "population": 250, "place_class": "hamlet", "population_source": "class_default", "osm_id": "7833216671"}}, {"type": "Feature", "geometry": {"type": "Point", "coordinates": [79.4620501, 30.4886522]}, "properties": {"name": "Dwing", "population": 250, "place_class": "hamlet", "population_source": "class_default", "osm_id": "7833216672"}}, {"type": "Feature", "geometry": {"type": "Point", "coordinates": [79.4637431, 30.4772727]}, "properties": {"name": "Tangi Talli", "population": 250, "place_class": "hamlet", "population_source": "class_default", "osm_id": "7833216673"}}, {"type": "Feature", "geometry": {"type": "Point", "coordinates": [79.4734521, 30.4775801]}, "properties": {"name": "Tangi Malli", "population": 250, "place_class": "hamlet", "population_source": "class_default", "osm_id": "7833216674"}}, {"type": "Feature", "geometry": {"type": "Point", "coordinates": [79.4923213, 30.4749207]}, "properties": {"name": "Darni", "population": 250, "place_class": "hamlet", "population_source": "class_default", "osm_id": "7833216677"}}, {"type": "Feature", "geometry": {"type": "Point", "coordinates": [79.4731564, 30.4941124]}, "properties": {"name": "Lapon", "population": 250, "place_class": "hamlet", "population_source": "class_default", "osm_id": "7833216680"}}, {"type": "Feature", "geometry": {"type": "Point", "coordinates": [79.4368825, 30.4120957]}, "properties": {"name": "Kiruli", "population": 250, "place_class": "hamlet", "population_source": "class_default", "osm_id": "7833568791"}}, {"type": "Feature", "geometry": {"type": "Point", "coordinates": [79.4365109, 30.4267259]}, "properties": {"name": "Shalla", "population": 250, "place_class": "hamlet", "population_source": "class_default", "osm_id": "7833568792"}}, {"type": "Feature", "geometry": {"type": "Point", "coordinates": [79.4370102, 30.4227194]}, "properties": {"name": "Nargoli", "population": 250, "place_class": "hamlet", "population_source": "class_default", "osm_id": "7833568793"}}, {"type": "Feature", "geometry": {"type": "Point", "coordinates": [79.447924, 30.4174013]}, "properties": {"name": "Kamyar", "population": 250, "place_class": "hamlet", "population_source": "class_default", "osm_id": "7833568794"}}, {"type": "Feature", "geometry": {"type": "Point", "coordinates": [79.4916067, 30.5046348]}, "properties": {"name": "Gulabkoti", "population": 250, "place_class": "hamlet", "population_source": "class_default", "osm_id": "7834388275"}}, {"type": "Feature", "geometry": {"type": "Point", "coordinates": [79.4870733, 30.5013671]}, "properties": {"name": "Palam", "population": 250, "place_class": "hamlet", "population_source": "class_default", "osm_id": "7834388276"}}, {"type": "Feature", "geometry": {"type": "Point", "coordinates": [79.3916261, 30.5157406]}, "properties": {"name": "Jangro", "population": 250, "place_class": "hamlet", "population_source": "class_default", "osm_id": "7834388280"}}, {"type": "Feature", "geometry": {"type": "Point", "coordinates": [79.4701641, 30.5406433]}, "properties": {"name": "Botha", "population": 250, "place_class": "hamlet", "population_source": "class_default", "osm_id": "7834421755"}}, {"type": "Feature", "geometry": {"type": "Point", "coordinates": [79.4792423, 30.5384208]}, "properties": {"name": "Pilkni", "population": 250, "place_class": "hamlet", "population_source": "class_default", "osm_id": "7834421756"}}, {"type": "Feature", "geometry": {"type": "Point", "coordinates": [79.4912943, 30.5370832]}, "properties": {"name": "Goana", "population": 250, "place_class": "hamlet", "population_source": "class_default", "osm_id": "7834421757"}}, {"type": "Feature", "geometry": {"type": "Point", "coordinates": [79.4968207, 30.5375373]}, "properties": {"name": "Aroshi", "population": 250, "place_class": "hamlet", "population_source": "class_default", "osm_id": "7834421758"}}, {"type": "Feature", "geometry": {"type": "Point", "coordinates": [79.4498508, 30.5371492]}, "properties": {"name": "Gira", "population": 250, "place_class": "hamlet", "population_source": "class_default", "osm_id": "7834445152"}}, {"type": "Feature", "geometry": {"type": "Point", "coordinates": [79.4412299, 30.5290614]}, "properties": {"name": "Bansa", "population": 250, "place_class": "hamlet", "population_source": "class_default", "osm_id": "7834445153"}}, {"type": "Feature", "geometry": {"type": "Point", "coordinates": [79.4547646, 30.5489227]}, "properties": {"name": "Kalpeshwar", "population": 250, "place_class": "hamlet", "population_source": "class_default", "osm_id": "7834445154"}}, {"type": "Feature", "geometry": {"type": "Point", "coordinates": [79.460013, 30.5484191]}, "properties": {"name": "Barki", "population": 250, "place_class": "hamlet", "population_source": "class_default", "osm_id": "7834445155"}}, {"type": "Feature", "geometry": {"type": "Point", "coordinates": [79.4294369, 30.4227109]}, "properties": {"name": "Retali", "population": 250, "place_class": "hamlet", "population_source": "class_default", "osm_id": "7863123837"}}, {"type": "Feature", "geometry": {"type": "Point", "coordinates": [79.430124, 30.4101747]}, "properties": {"name": "Luhan", "population": 250, "place_class": "hamlet", "population_source": "class_default", "osm_id": "7863123838"}}, {"type": "Feature", "geometry": {"type": "Point", "coordinates": [79.4232327, 30.4101198]}, "properties": {"name": "Digoli", "population": 250, "place_class": "hamlet", "population_source": "class_default", "osm_id": "7863123839"}}, {"type": "Feature", "geometry": {"type": "Point", "coordinates": [79.387085, 30.4113865]}, "properties": {"name": "Durgapuri", "population": 250, "place_class": "hamlet", "population_source": "class_default", "osm_id": "7863130781"}}, {"type": "Feature", "geometry": {"type": "Point", "coordinates": [79.3820566, 30.4111787]}, "properties": {"name": "Rowala", "population": 250, "place_class": "hamlet", "population_source": "class_default", "osm_id": "7863130782"}}, {"type": "Feature", "geometry": {"type": "Point", "coordinates": [79.3834603, 30.4156638]}, "properties": {"name": "Kunj", "population": 250, "place_class": "hamlet", "population_source": "class_default", "osm_id": "7863130783"}}, {"type": "Feature", "geometry": {"type": "Point", "coordinates": [79.3860023, 30.4211902]}, "properties": {"name": "Maholta", "population": 250, "place_class": "hamlet", "population_source": "class_default", "osm_id": "7863130784"}}, {"type": "Feature", "geometry": {"type": "Point", "coordinates": [79.3868007, 30.4252508]}, "properties": {"name": "Kandara", "population": 250, "place_class": "hamlet", "population_source": "class_default", "osm_id": "7863167785"}}, {"type": "Feature", "geometry": {"type": "Point", "coordinates": [79.3887419, 30.4321471]}, "properties": {"name": "Kana", "population": 250, "place_class": "hamlet", "population_source": "class_default", "osm_id": "7863167786"}}, {"type": "Feature", "geometry": {"type": "Point", "coordinates": [79.3794058, 30.4279866]}, "properties": {"name": "Kunj", "population": 250, "place_class": "hamlet", "population_source": "class_default", "osm_id": "7863167787"}}, {"type": "Feature", "geometry": {"type": "Point", "coordinates": [79.3697216, 30.4255849]}, "properties": {"name": "Dungri", "population": 250, "place_class": "hamlet", "population_source": "class_default", "osm_id": "7863167788"}}, {"type": "Feature", "geometry": {"type": "Point", "coordinates": [79.3736748, 30.4362545]}, "properties": {"name": "Maikot", "population": 250, "place_class": "hamlet", "population_source": "class_default", "osm_id": "7863167789"}}]}