{"type": "FeatureCollection", "features": [{"type": "Feature", "geometry": {"type": "Point", "coordinates": [88.5495009, 27.7306136]}, "properties": {"name": "Lachen", "population": 20000, "place_class": "town", "population_source": "class_default", "osm_id": "342098800"}}, {"type": "Feature", "geometry": {"type": "Point", "coordinates": [88.5359631, 27.8924989]}, "properties": {"name": "Thangu", "population": 1500, "place_class": "village", "population_source": "class_default", "osm_id": "12258040622"}}, {"type": "Feature", "geometry": {"type": "Point", "coordinates": [88.6465196, 27.604236]}, "properties": {"name": "Chungthang", "population": 1500, "place_class": "village", "population_source": "class_default", "osm_id": "13148720740"}}, {"type": "Feature", "geometry": {"type": "Point", "coordinates": [88.5446814, 27.9014906]}, "properties": {"name": "Bamzey", "population": 250, "place_class": "hamlet", "population_source": "class_default", "osm_id": "9978572311"}}]}