{"type": "FeatureCollection", "features": [{"type": "Feature", "geometry": {"type": "Point", "coordinates": [77.1666792, 33.1782023]}, "properties": {"name": "Testa", "population": 1500, "place_class": "village", "population_source": "class_default", "osm_id": "926749964"}}, {"type": "Feature", "geometry": {"type": "Point", "coordinates": [77.1260898, 33.2439585]}, "properties": {"name": "Cha", "population": 1500, "place_class": "village", "population_source": "class_default", "osm_id": "11758878933"}}, {"type": "Feature", "geometry": {"type": "Point", "coordinates": [76.9976325, 33.3055312]}, "properties": {"name": "Ichar", "population": 250, "place_class": "hamlet", "population_source": "class_default", "osm_id": "926583333"}}, {"type": "Feature", "geometry": {"type": "Point", "coordinates": [77.0648359, 33.2489855]}, "properties": {"name": "Tsetang", "population": 250, "place_class": "hamlet", "population_source": "class_default", "osm_id": "926666592"}}, {"type": "Feature", "geometry": {"type": "Point", "coordinates": [77.0910496, 33.2366842]}, "properties": {"name": "Surle", "population": 250, "place_class": "hamlet", "population_source": "class_default", "osm_id": "926673961"}}, {"type": "Feature", "geometry": {"type": "Point", "coordinates": [77.1096972, 33.2371608]}, "properties": {"name": "Kyalbok", "population": 250, "place_class": "hamlet", "population_source": "class_default", "osm_id": "926674836"}}, {"type": "Feature", "geometry": {"type": "Point", "coordinates": [77.1218472, 33.2392146]}, "properties": {"name": "Zamdang", "population": 250, "place_class": "hamlet", "population_source": "class_default", "osm_id": "926685160"}}, {"type": "Feature", "geometry": {"type": "Point", "coordinates": [77.1583429, 33.2006623]}, "properties": {"name": "Marling", "population": 250, "place_class": "hamlet", "population_source": "class_default", "osm_id": "926749307"}}, {"type": "Feature", "geometry": {"type": "Point", "coordinates": [77.1504947, 33.2093834]}, "properties": {"name": "Yal", "population": 250, "place_class": "hamlet", "population_source": "class_default", "osm_id": "926749513"}}, {"type": "Feature", "geometry": {"type": "Point", "coordinates": [77.1827588, 33.2664763]}, "properties": {"name": "Yugar", "population": 250, "place_class": "hamlet", "population_source": "class_default", "osm_id": "2472087486"}}, {"type": "Feature", "geometry": {"type": "Point", "coordinates": [77.0910725, 33.2309879]}, "properties": {"name": "Yulgog", "population": 250, "place_class": "hamlet", "population_source": "class_default", "osm_id": "6340438878"}}, {"type": "Feature", "geometry": {"type": "Point", "coordinates": [77.1504748, 33.2378498]}, "properties": {"name": "Khangsar", "population": 250, "place_class": "hamlet", "population_source": "class_default", "osm_id": "7861931290"}}, {"type": "Feature", "geometry": {"type": "Point", "coordinates": [77.0167837, 33.2914698]}, "properties": {"name": "Dorzong", "population": 250, "place_class": "hamlet", "population_source": "class_default", "osm_id": "7861931292"}}, {"type": "Feature", "geometry": {"type": "Point", "coordinates": [77.0664514, 33.2488206]}, "properties": {"name": "Khangsar", "population": 250, "place_class": "hamlet", "population_source": "class_default", "osm_id": "11758878931"}}, {"type": "Feature", "geometry": {"type": "Point", "coordinates": [77.0734825, 33.2478218]}, "properties": {"name": "Anmu", "population": 250, "place_class": "hamlet", "population_source": "class_default", "osm_id": "11758878932"}}, {"type": "Feature", "geometry": {"type": "Point", "coordinates": [77.1442721, 33.2344932]}, "properties": {"name": "Purne", "population": 250, "place_class": "hamlet", "population_source": "class_default", "osm_id": "11758878934"}}]}