{"type": "FeatureCollection", "features": [{"type": "Feature", "geometry": {"type": "Point", "coordinates": [79.1328042, 18.4348122]}, "properties": {"name": "Karimnagar", "population": 150000, "place_class": "city", "population_source": "class_default", "osm_id": "2885001471"}}, {"type": "Feature", "geometry": {"type": "Point", "coordinates": [79.3192023, 18.5279573]}, "properties": {"name": "Sultanabad", "population": 20000, "place_class": "town", "population_source": "class_default", "osm_id": "5608980149"}}, {"type": "Feature", "geometry": {"type": "Point", "coordinates": [79.1859734, 18.4013037]}, "properties": {"name": "Manakondur", "population": 1500, "place_class": "village", "population_source": "class_default", "osm_id": "245644738"}}, {"type": "Feature", "geometry": {"type": "Point", "coordinates": [79.0947986, 18.4894877]}, "properties": {"name": "Kottapalli", "population": 1500, "place_class": "village", "population_source": "class_default", "osm_id": "245645825"}}, {"type": "Feature", "geometry": {"type": "Point", "coordinates": [79.2765889, 18.3646571]}, "properties": {"name": "Gangipalli", "population": 1500, "place_class": "village", "population_source": "class_default", "osm_id": "3535511572"}}, {"type": "Feature", "geometry": {"type": "Point", "coordinates": [79.3039238, 18.3796673]}, "properties": {"name": "Konadapalakala", "population": 1500, "place_class": "village", "population_source": "class_default", "osm_id": "3535568405"}}, {"type": "Feature", "geometry": {"type": "Point", "coordinates": [79.3428863, 18.3903116]}, "properties": {"name": "Elabaka", "population": 1500, "place_class": "village", "population_source": "class_default", "osm_id": "3954691380"}}, {"type": "Feature", "geometry": {"type": "Point", "coordinates": [79.3067835, 18.3538006]}, "properties": {"name": "Eradapalli", "population": 1500, "place_class": "village", "population_source": "class_default", "osm_id": "3954691381"}}, {"type": "Feature", "geometry": {"type": "Point", "coordinates": [79.336759, 18.3704578]}, "properties": {"name": "Gangavaram", "population": 1500, "place_class": "village", "population_source": "class_default", "osm_id": "3954691382"}}, {"type": "Feature", "geometry": {"type": "Point", "coordinates": [79.2372684, 18.3626498]}, "properties": {"name": "Chenjarla", "population": 1500, "place_class": "village", "population_source": "class_default", "osm_id": "4144014303"}}, {"type": "Feature", "geometry": {"type": "Point", "coordinates": [79.237894, 18.5320065]}, "properties": {"name": "Sultanpur", "population": 1500, "place_class": "village", "population_source": "class_default", "osm_id": "5608980108"}}, {"type": "Feature", "geometry": {"type": "Point", "coordinates": [79.2132233, 18.5180222]}, "properties": {"name": "Taharakondapur", "population": 1500, "place_class": "village", "population_source": "class_default", "osm_id": "5608980109"}}, {"type": "Feature", "geometry": {"type": "Point", "coordinates": [79.2256125, 18.5106559]}, "properties": {"name": "Ithrajpalle", "population": 1500, "place_class": "village", "population_source": "class_default", "osm_id": "5608980110"}}, {"type": "Feature", "geometry": {"type": "Point", "coordinates": [79.2542241, 18.5191029]}, "properties": {"name": "Burahanmiyapet", "population": 1500, "place_class": "village", "population_source": "class_default", "osm_id": "5608980111"}}, {"type": "Feature", "geometry": {"type": "Point", "coordinates": [79.226998, 18.4938889]}, "properties": {"name": "Dubbapalli", "population": 1500, "place_class": "village", "population_source": "class_default", "osm_id": "5608980112"}}, {"type": "Feature", "geometry": {"type": "Point", "coordinates": [79.2518209, 18.4902241]}, "properties": {"name": "Garrepally", "population": 1500, "place_class": "village", "population_source": "class_default", "osm_id": "5608980113"}}, {"type": "Feature", "geometry": {"type": "Point", "coordinates": [79.2357905, 18.5026374]}, "properties": {"name": "Bhupathipur", "population": 1500, "place_class": "village", "population_source": "class_default", "osm_id": "5608980115"}}, {"type": "Feature", "geometry": {"type": "Point", "coordinates": [79.2191583, 18.4507207]}, "properties": {"name": "Chegurti", "population": 1500, "place_class": "village", "population_source": "class_default", "osm_id": "5608980116"}}, {"type": "Feature", "geometry": {"type": "Point", "coordinates": [79.2141879, 18.4743118]}, "properties": {"name": "Maqdumpur", "population": 1500, "place_class": "village", "population_source": "class_default", "osm_id": "5608980117"}}, {"type": "Feature", "geometry": {"type": "Point", "coordinates": [79.2341703, 18.4697319]}, "properties": {"name": "Sambiaahpalli", "population": 1500, "place_class": "village", "population_source": "class_default", "osm_id": "5608980118"}}, {"type": "Feature", "geometry": {"type": "Point", "coordinates": [79.2316423, 18.4581483]}, "properties": {"name": "Narayanraopalli", "population": 1500, "place_class": "village", "population_source": "class_default", "osm_id": "5608980119"}}, {"type": "Feature", "geometry": {"type": "Point", "coordinates": [79.2248131, 18.4614657]}, "properties": {"name": "Mandulapally", "population": 1500, "place_class": "village", "population_source": "class_default", "osm_id": "5608980120"}}, {"type": "Feature", "geometry": {"type": "Point", "coordinates": [79.3745768, 18.5353509]}, "properties": {"name": "Miyapur", "population": 1500, "place_class": "village", "population_source": "class_default", "osm_id": "5608980145"}}, {"type": "Feature", "geometry": {"type": "Point", "coordinates": [79.3660316, 18.5301735]}, "properties": {"name": "Chinna Bonkur", "population": 1500, "place_class": "village", "population_source": "class_default", "osm_id": "5608980146"}}, {"type": "Feature", "geometry": {"type": "Point", "coordinates": [79.3505381, 18.5183911]}, "properties": {"name": "Suddala", "population": 1500, "place_class": "village", "population_source": "class_default", "osm_id": "5608980147"}}, {"type": "Feature", "geometry": {"type": "Point", "coordinates": [79.3055147, 18.5318122]}, "properties": {"name": "Poosala", "population": 1500, "place_class": "village", "population_source": "class_default", "osm_id": "5608980148"}}, {"type": "Feature", "geometry": {"type": "Point", "coordinates": [79.3079949, 18.5224805]}, "properties": {"name": "Shastrinagar", "population": 1500, "place_class": "village", "population_source": "class_default", "osm_id": "5608980150"}}, {"type": "Feature", "geometry": {"type": "Point", "coordinates": [79.2970576, 18.4939423]}, "properties": {"name": "Neerukulla", "population": 1500, "place_class": "village", "population_source": "class_default", "osm_id": "5608980153"}}, {"type": "Feature", "geometry": {"type": "Point", "coordinates": [79.3167275, 18.4934683]}, "properties": {"name": "Gattepally", "population": 1500, "place_class": "village", "population_source": "class_default", "osm_id": "5608980156"}}, {"type": "Feature", "geometry": {"type": "Point", "coordinates": [79.3355164, 18.4920591]}, "properties": {"name": "Kadambapur", "population": 1500, "place_class": "village", "population_source": "class_default", "osm_id": "5608980157"}}, {"type": "Feature", "geometry": {"type": "Point", "coordinates": [79.3960125, 18.5244133]}, "properties": {"name": "Upparapally", "population": 1500, "place_class": "village", "population_source": "class_default", "osm_id": "5608980158"}}, {"type": "Feature", "geometry": {"type": "Point", "coordinates": [79.3843516, 18.5145585]}, "properties": {"name": "Regadimaddikunta", "population": 1500, "place_class": "village", "population_source": "class_default", "osm_id": "5608980159"}}, {"type": "Feature", "geometry": {"type": "Point", "coordinates": [79.3774051, 18.5019914]}, "properties": {"name": "Allipoor", "population": 1500, "place_class": "village", "population_source": "class_default", "osm_id": "5608980160"}}, {"type": "Feature", "geometry": {"type": "Point", "coordinates": [79.4085373, 18.501849]}, "properties": {"name": "Gopurapally", "population": 1500, "place_class": "village", "population_source": "class_default", "osm_id": "5608980163"}}, {"type": "Feature", "geometry": {"type": "Point", "coordinates": [79.3648575, 18.4745321]}, "properties": {"name": "Kanukula", "population": 1500, "place_class": "village", "population_source": "class_default", "osm_id": "5608980165"}}, {"type": "Feature", "geometry": {"type": "Point", "coordinates": [79.3547131, 18.4681858]}, "properties": {"name": "Togarrai", "population": 1500, "place_class": "village", "population_source": "class_default", "osm_id": "5608980166"}}, {"type": "Feature", "geometry": {"type": "Point", "coordinates": [79.3612336, 18.4569123]}, "properties": {"name": "Mancharami", "population": 1500, "place_class": "village", "population_source": "class_default", "osm_id": "5608980167"}}, {"type": "Feature", "geometry": {"type": "Point", "coordinates": [79.4023192, 18.4421535]}, "properties": {"name": "Kangarthi", "population": 1500, "place_class": "village", "population_source": "class_default", "osm_id": "5608980172"}}, {"type": "Feature", "geometry": {"type": "Point", "coordinates": [79.404385, 18.4492266]}, "properties": {"name": "Keeslatapalli", "population": 1500, "place_class": "village", "population_source": "class_default", "osm_id": "5608980173"}}, {"type": "Feature", "geometry": {"type": "Point", "coordinates": [79.2827927, 18.4522091]}, "properties": {"name": "Laxmipoor", "population": 1500, "place_class": "village", "population_source": "class_default", "osm_id": "5609006746"}}, {"type": "Feature", "geometry": {"type": "Point", "coordinates": [79.2589808, 18.4520394]}, "properties": {"name": "Veldi", "population": 1500, "place_class": "village", "population_source": "class_default", "osm_id": "5609006747"}}, {"type": "Feature", "geometry": {"type": "Point", "coordinates": [79.3213555, 18.4581592]}, "properties": {"name": "Utoor", "population": 1500, "place_class": "village", "population_source": "class_default", "osm_id": "5609006748"}}, {"type": "Feature", "geometry": {"type": "Point", "coordinates": [79.2936047, 18.4690726]}, "properties": {"name": "Vegurupally", "population": 1500, "place_class": "village", "population_source": "class_default", "osm_id": "5609006749"}}, {"type": "Feature", "geometry": {"type": "Point", "coordinates": [79.2853964, 18.5166977]}, "properties": {"name": "Katnepalli", "population": 1500, "place_class": "village", "population_source": "class_default", "osm_id": "5609081542"}}, {"type": "Feature", "geometry": {"type": "Point", "coordinates": [79.2733206, 18.5222356]}, "properties": {"name": "Shivapally", "population": 1500, "place_class": "village", "population_source": "class_default", "osm_id": "5609081543"}}, {"type": "Feature", "geometry": {"type": "Point", "coordinates": [79.1585111, 18.3726097]}, "properties": {"name": "Thimmapur", "population": 1500, "place_class": "village", "population_source": "class_default", "osm_id": "7132476466"}}, {"type": "Feature", "geometry": {"type": "Point", "coordinates": [79.2580193, 18.5056098]}, "properties": {"name": "Narsaiahapally", "population": 250, "place_class": "hamlet", "population_source": "class_default", "osm_id": "5608980114"}}, {"type": "Feature", "geometry": {"type": "Point", "coordinates": [79.2132022, 18.451557]}, "properties": {"name": "Mariyapuram", "population": 250, "place_class": "hamlet", "population_source": "class_default", "osm_id": "5608980121"}}, {"type": "Feature", "geometry": {"type": "Point", "coordinates": [79.3281413, 18.5217511]}, "properties": {"name": "Gollapalli", "population": 250, "place_class": "hamlet", "population_source": "class_default", "osm_id": "5608980151"}}, {"type": "Feature", "geometry": {"type": "Point", "coordinates": [79.2857187, 18.5020469]}, "properties": {"name": "Komdlapalli", "population": 250, "place_class": "hamlet", "population_source": "class_default", "osm_id": "5608980152"}}, {"type": "Feature", "geometry": {"type": "Point", "coordinates": [79.2659098, 18.4955246]}, "properties": {"name": "Bonthakuntapalli", "population": 250, "place_class": "hamlet", "population_source": "class_default", "osm_id": "5608980154"}}, {"type": "Feature", "geometry": {"type": "Point", "coordinates": [79.2850108, 18.4899238]}, "properties": {"name": "Rangampalli", "population": 250, "place_class": "hamlet", "population_source": "class_default", "osm_id": "5608980155"}}, {"type": "Feature", "geometry": {"type": "Point", "coordinates": [79.4001067, 18.475627]}, "properties": {"name": "Pittlayellaiahpalli", "population": 250, "place_class": "hamlet", "population_source": "class_default", "osm_id": "5608980161"}}, {"type": "Feature", "geometry": {"type": "Point", "coordinates": [79.3793893, 18.4526905]}, "properties": {"name": "Gundlapalli", "population": 250, "place_class": "hamlet", "population_source": "class_default", "osm_id": "5608980168"}}, {"type": "Feature", "geometry": {"type": "Point", "coordinates": [79.3772824, 18.4431628]}, "properties": {"name": "Keshavapoor", "population": 250, "place_class": "hamlet", "population_source": "class_default", "osm_id": "5608980169"}}, {"type": "Feature", "geometry": {"type": "Point", "coordinates": [79.392381, 18.4484164]}, "properties": {"name": "Kanikadpally", "population": 250, "place_class": "hamlet", "population_source": "class_default", "osm_id": "5608980170"}}, {"type": "Feature", "geometry": {"type": "Point", "coordinates": [79.4100969, 18.4394268]}, "properties": {"name": "Bahgathsingh Nagar", "population": 250, "place_class": "hamlet", "population_source": "class_default", "osm_id": "5608980171"}}, {"type": "Feature", "geometry": {"type": "Point", "coordinates": [79.2954623, 18.5337707]}, "properties": {"name": "Arepally", "population": 250, "place_class": "hamlet", "population_source": "class_default", "osm_id": "5609081541"}}]}