{"type": "FeatureCollection", "features": [{"type": "Feature", "geometry": {"type": "Point", "coordinates": [79.31992, 30.33188]}, "properties": {"name": "Nandaprayāg", "population": 20000, "place_class": "town", "population_source": "class_default", "osm_id": "245769841"}}, {"type": "Feature", "geometry": {"type": "Point", "coordinates": [79.31855, 30.40878]}, "properties": {"name": "Gopeshwar", "population": 20000, "place_class": "town", "population_source": "class_default", "osm_id": "342107407"}}, {"type": "Feature", "geometry": {"type": "Point", "coordinates": [79.4666154, 30.3636459]}, "properties": {"name": "Nijmula", "population": 1500, "place_class": "village", "population_source": "class_default", "osm_id": "342104871"}}, {"type": "Feature", "geometry": {"type": "Point", "coordinates": [79.46137, 30.36484]}, "properties": {"name": "Saiji", "population": 1500, "place_class": "village", "population_source": "class_default", "osm_id": "342104880"}}, {"type": "Feature", "geometry": {"type": "Point", "coordinates": [79.4199158, 30.3835337]}, "properties": {"name": "Garigaon", "population": 1500, "place_class": "village", "population_source": "class_default", "osm_id": "342104890"}}, {"type": "Feature", "geometry": {"type": "Point", "coordinates": [79.42841, 30.4335]}, "properties": {"name": "Pīpalkoti", "population": 1500, "place_class": "village", "population_source": "class_default", "osm_id": "342104895"}}, {"type": "Feature", "geometry": {"type": "Point", "coordinates": [79.44489, 30.46509]}, "properties": {"name": "Garurganga", "population": 1500, "place_class": "village", "population_source": "class_default", "osm_id": "342104924"}}, {"type": "Feature", "geometry": {"type": "Point", "coordinates": [79.38584, 30.40741]}, "properties": {"name": "Birahi", "population": 1500, "place_class": "village", "population_source": "class_default", "osm_id": "342109786"}}, {"type": "Feature", "geometry": {"type": "Point", "coordinates": [79.35974, 30.40741]}, "properties": {"name": "Bimtala", "population": 1500, "place_class": "village", "population_source": "class_default", "osm_id": "342109796"}}, {"type": "Feature", "geometry": {"type": "Point", "coordinates": [79.30481, 30.43625]}, "properties": {"name": "Bheragna", "population": 1500, "place_class": "village", "population_source": "class_default", "osm_id": "342109826"}}, {"type": "Feature", "geometry": {"type": "Point", "coordinates": [79.31717, 30.36072]}, "properties": {"name": "Mathyana", "population": 1500, "place_class": "village", "population_source": "class_default", "osm_id": "342109848"}}, {"type": "Feature", "geometry": {"type": "Point", "coordinates": [79.3083685, 30.4158081]}, "properties": {"name": "Gair", "population": 1500, "place_class": "village", "population_source": "class_default", "osm_id": "342109858"}}, {"type": "Feature", "geometry": {"type": "Point", "coordinates": [79.27872, 30.3772]}, "properties": {"name": "Sitola", "population": 1500, "place_class": "village", "population_source": "class_default", "osm_id": "342109879"}}, {"type": "Feature", "geometry": {"type": "Point", "coordinates": [79.5076489, 30.3165805]}, "properties": {"name": "Ramni", "population": 1500, "place_class": "village", "population_source": "class_default", "osm_id": "6417415162"}}, {"type": "Feature", "geometry": {"type": "Point", "coordinates": [79.429028, 30.3172103]}, "properties": {"name": "Char pagna", "population": 1500, "place_class": "village", "population_source": "class_default", "osm_id": "6417415237"}}, {"type": "Feature", "geometry": {"type": "Point", "coordinates": [79.3663756, 30.4153852]}, "properties": {"name": "Chhinka", "population": 1500, "place_class": "village", "population_source": "class_default", "osm_id": "6588203950"}}, {"type": "Feature", "geometry": {"type": "Point", "coordinates": [79.3684516, 30.4149735]}, "properties": {"name": "Chamoli", "population": 1500, "place_class": "village", "population_source": "class_default", "osm_id": "6588203951"}}, {"type": "Feature", "geometry": {"type": "Point", "coordinates": [79.3499552, 30.3409142]}, "properties": {"name": "Sartoli", "population": 1500, "place_class": "village", "population_source": "class_default", "osm_id": "6588487886"}}, {"type": "Feature", "geometry": {"type": "Point", "coordinates": [79.3704929, 30.3978928]}, "properties": {"name": "Khainuri", "population": 1500, "place_class": "village", "population_source": "class_default", "osm_id": "7833507466"}}, {"type": "Feature", "geometry": {"type": "Point", "coordinates": [79.3514658, 30.3733557]}, "properties": {"name": "Majathi", "population": 1500, "place_class": "village", "population_source": "class_default", "osm_id": "7833507471"}}, {"type": "Feature", "geometry": {"type": "Point", "coordinates": [79.4294967, 30.4173668]}, "properties": {"name": "Gadora", "population": 1500, "place_class": "village", "population_source": "class_default", "osm_id": "7833568788"}}, {"type": "Feature", "geometry": {"type": "Point", "coordinates": [79.4171758, 30.4135226]}, "properties": {"name": "Batula", "population": 1500, "place_class": "village", "population_source": "class_default", "osm_id": "7833568789"}}, {"type": "Feature", "geometry": {"type": "Point", "coordinates": [79.4205814, 30.4061118]}, "properties": {"name": "Mahargaon", "population": 1500, "place_class": "village", "population_source": "class_default", "osm_id": "7833568790"}}, {"type": "Feature", "geometry": {"type": "Point", "coordinates": [79.3008303, 30.4170542]}, "properties": {"name": "Tangsa", "population": 1500, "place_class": "village", "population_source": "class_default", "osm_id": "7863055753"}}, {"type": "Feature", "geometry": {"type": "Point", "coordinates": [79.2874684, 30.4206217]}, "properties": {"name": "Dugari", "population": 1500, "place_class": "village", "population_source": "class_default", "osm_id": "7863055754"}}, {"type": "Feature", "geometry": {"type": "Point", "coordinates": [79.2939521, 30.3834439]}, "properties": {"name": "Bachher", "population": 1500, "place_class": "village", "population_source": "class_default", "osm_id": "7863100059"}}, {"type": "Feature", "geometry": {"type": "Point", "coordinates": [79.2919031, 30.37547]}, "properties": {"name": "Soriala", "population": 1500, "place_class": "village", "population_source": "class_default", "osm_id": "7863100062"}}, {"type": "Feature", "geometry": {"type": "Point", "coordinates": [79.3038984, 30.3678931]}, "properties": {"name": "Saikot", "population": 1500, "place_class": "village", "population_source": "class_default", "osm_id": "7863100067"}}, {"type": "Feature", "geometry": {"type": "Point", "coordinates": [79.3114432, 30.3345443]}, "properties": {"name": "Mason", "population": 1500, "place_class": "village", "population_source": "class_default", "osm_id": "7863100083"}}, {"type": "Feature", "geometry": {"type": "Point", "coordinates": [79.4082726, 30.4169297]}, "properties": {"name": "Jaisau", "population": 1500, "place_class": "village", "population_source": "class_default", "osm_id": "7863123840"}}, {"type": "Feature", "geometry": {"type": "Point", "coordinates": [79.3475023, 30.434674]}, "properties": {"name": "Gingron", "population": 1500, "place_class": "village", "population_source": "class_default", "osm_id": "7863130773"}}, {"type": "Feature", "geometry": {"type": "Point", "coordinates": [79.3445167, 30.4261549]}, "properties": {"name": "Dawar", "population": 1500, "place_class": "village", "population_source": "class_default", "osm_id": "7863130778"}}, {"type": "Feature", "geometry": {"type": "Point", "coordinates": [79.3693965, 30.4390585]}, "properties": {"name": "Kunjaun", "population": 1500, "place_class": "village", "population_source": "class_default", "osm_id": "7863167790"}}, {"type": "Feature", "geometry": {"type": "Point", "coordinates": [79.309872, 30.4416704]}, "properties": {"name": "Gwar", "population": 1500, "place_class": "village", "population_source": "class_default", "osm_id": "7863167796"}}, {"type": "Feature", "geometry": {"type": "Point", "coordinates": [79.3174222, 30.4320177]}, "properties": {"name": "Gangalgaon", "population": 1500, "place_class": "village", "population_source": "class_default", "osm_id": "7863167797"}}, {"type": "Feature", "geometry": {"type": "Point", "coordinates": [79.292346, 30.3336846]}, "properties": {"name": "Devkhal", "population": 250, "place_class": "hamlet", "population_source": "class_default", "osm_id": "342109814"}}, {"type": "Feature", "geometry": {"type": "Point", "coordinates": [79.333028, 30.402708]}, "properties": {"name": "Lālsānga", "population": 250, "place_class": "hamlet", "population_source": "class_default", "osm_id": "2376466278"}}, {"type": "Feature", "geometry": {"type": "Point", "coordinates": [79.3079112, 30.3167478]}, "properties": {"name": "Sunala", "population": 250, "place_class": "hamlet", "population_source": "class_default", "osm_id": "2383782286"}}, {"type": "Feature", "geometry": {"type": "Point", "coordinates": [79.2737193, 30.4193963]}, "properties": {"name": "Bamyala", "population": 250, "place_class": "hamlet", "population_source": "class_default", "osm_id": "2386973069"}}, {"type": "Feature", "geometry": {"type": "Point", "coordinates": [79.5033175, 30.3427166]}, "properties": {"name": "Begar Nala", "population": 250, "place_class": "hamlet", "population_source": "class_default", "osm_id": "7733346061"}}, {"type": "Feature", "geometry": {"type": "Point", "coordinates": [79.5121261, 30.3713875]}, "properties": {"name": "Durmi", "population": 250, "place_class": "hamlet", "population_source": "class_default", "osm_id": "7733346062"}}, {"type": "Feature", "geometry": {"type": "Point", "coordinates": [79.5361392, 30.3723741]}, "properties": {"name": "Pagna", "population": 250, "place_class": "hamlet", "population_source": "class_default", "osm_id": "7733346063"}}, {"type": "Feature", "geometry": {"type": "Point", "coordinates": [79.498915, 30.3481786]}, "properties": {"name": "Kumala", "population": 250, "place_class": "hamlet", "population_source": "class_default", "osm_id": "7833216657"}}, {"type": "Feature", "geometry": {"type": "Point", "coordinates": [79.4685866, 30.3532463]}, "properties": {"name": "Madura", "population": 250, "place_class": "hamlet", "population_source": "class_default", "osm_id": "7833216658"}}, {"type": "Feature", "geometry": {"type": "Point", "coordinates": [79.4737747, 30.3461964]}, "properties": {"name": "Hurung", "population": 250, "place_class": "hamlet", "population_source": "class_default", "osm_id": "7833216659"}}, {"type": "Feature", "geometry": {"type": "Point", "coordinates": [79.4850225, 30.345427]}, "properties": {"name": "Taraktal", "population": 250, "place_class": "hamlet", "population_source": "class_default", "osm_id": "7833216660"}}, {"type": "Feature", "geometry": {"type": "Point", "coordinates": [79.4168712, 30.4611881]}, "properties": {"name": "Bimaru", "population": 250, "place_class": "hamlet", "population_source": "class_default", "osm_id": "7833216661"}}, {"type": "Feature", "geometry": {"type": "Point", "coordinates": [79.4174015, 30.455353]}, "properties": {"name": "Suranda", "population": 250, "place_class": "hamlet", "population_source": "class_default", "osm_id": "7833216662"}}, {"type": "Feature", "geometry": {"type": "Point", "coordinates": [79.4188719, 30.4442944]}, "properties": {"name": "Bajani", "population": 250, "place_class": "hamlet", "population_source": "class_default", "osm_id": "7833216663"}}, {"type": "Feature", "geometry": {"type": "Point", "coordinates": [79.4184148, 30.4482063]}, "properties": {"name": "Badumath", "population": 250, "place_class": "hamlet", "population_source": "class_default", "osm_id": "7833216664"}}, {"type": "Feature", "geometry": {"type": "Point", "coordinates": [79.4209406, 30.45157]}, "properties": {"name": "Tharetha", "population": 250, "place_class": "hamlet", "population_source": "class_default", "osm_id": "7833216665"}}, {"type": "Feature", "geometry": {"type": "Point", "coordinates": [79.4776904, 30.3784476]}, "properties": {"name": "Bhanali", "population": 250, "place_class": "hamlet", "population_source": "class_default", "osm_id": "7833263899"}}, {"type": "Feature", "geometry": {"type": "Point", "coordinates": [79.4285021, 30.3747243]}, "properties": {"name": "Garigaon", "population": 250, "place_class": "hamlet", "population_source": "class_default", "osm_id": "7833263901"}}, {"type": "Feature", "geometry": {"type": "Point", "coordinates": [79.4384617, 30.3722712]}, "properties": {"name": "Sainj", "population": 250, "place_class": "hamlet", "population_source": "class_default", "osm_id": "7833263902"}}, {"type": "Feature", "geometry": {"type": "Point", "coordinates": [79.3835022, 30.3257387]}, "properties": {"name": "Kurali", "population": 250, "place_class": "hamlet", "population_source": "class_default", "osm_id": "7833272961"}}, {"type": "Feature", "geometry": {"type": "Point", "coordinates": [79.3627377, 30.3308603]}, "properties": {"name": "Serao", "population": 250, "place_class": "hamlet", "population_source": "class_default", "osm_id": "7833272962"}}, {"type": "Feature", "geometry": {"type": "Point", "coordinates": [79.3630039, 30.3389433]}, "properties": {"name": "Jetha", "population": 250, "place_class": "hamlet", "population_source": "class_default", "osm_id": "7833272963"}}, {"type": "Feature", "geometry": {"type": "Point", "coordinates": [79.394968, 30.3227959]}, "properties": {"name": "Matai", "population": 250, "place_class": "hamlet", "population_source": "class_default", "osm_id": "7833272965"}}, {"type": "Feature", "geometry": {"type": "Point", "coordinates": [79.3923871, 30.315976]}, "properties": {"name": "Bhimtolla", "population": 250, "place_class": "hamlet", "population_source": "class_default", "osm_id": "7833272966"}}, {"type": "Feature", "geometry": {"type": "Point", "coordinates": [79.4252242, 30.3258314]}, "properties": {"name": "Bunansidar", "population": 250, "place_class": "hamlet", "population_source": "class_default", "osm_id": "7833272967"}}, {"type": "Feature", "geometry": {"type": "Point", "coordinates": [79.4152642, 30.3242867]}, "properties": {"name": "Sugal", "population": 250, "place_class": "hamlet", "population_source": "class_default", "osm_id": "7833272968"}}, {"type": "Feature", "geometry": {"type": "Point", "coordinates": [79.4842454, 30.3630641]}, "properties": {"name": "Simula", "population": 250, "place_class": "hamlet", "population_source": "class_default", "osm_id": "7833299786"}}, {"type": "Feature", "geometry": {"type": "Point", "coordinates": [79.4856123, 30.3735965]}, "properties": {"name": "Gauga", "population": 250, "place_class": "hamlet", "population_source": "class_default", "osm_id": "7833299787"}}, {"type": "Feature", "geometry": {"type": "Point", "coordinates": [79.2813738, 30.3451051]}, "properties": {"name": "Birikat", "population": 250, "place_class": "hamlet", "population_source": "class_default", "osm_id": "7833507458"}}, {"type": "Feature", "geometry": {"type": "Point", "coordinates": [79.2633115, 30.3458069]}, "properties": {"name": "Sengha", "population": 250, "place_class": "hamlet", "population_source": "class_default", "osm_id": "7833507459"}}, {"type": "Feature", "geometry": {"type": "Point", "coordinates": [79.2694796, 30.3428369]}, "properties": {"name": "Chak", "population": 250, "place_class": "hamlet", "population_source": "class_default", "osm_id": "7833507460"}}, {"type": "Feature", "geometry": {"type": "Point", "coordinates": [79.2896625, 30.360953]}, "properties": {"name": "Gorsal", "population": 250, "place_class": "hamlet", "population_source": "class_default", "osm_id": "7833507461"}}, {"type": "Feature", "geometry": {"type": "Point", "coordinates": [79.2681161, 30.3491884]}, "properties": {"name": "Gonjer", "population": 250, "place_class": "hamlet", "population_source": "class_default", "osm_id": "7833507462"}}, {"type": "Feature", "geometry": {"type": "Point", "coordinates": [79.3156742, 30.3636767]}, "properties": {"name": "Maithana", "population": 250, "place_class": "hamlet", "population_source": "class_default", "osm_id": "7833507463"}}, {"type": "Feature", "geometry": {"type": "Point", "coordinates": [79.3233916, 30.3730687]}, "properties": {"name": "Samdungra", "population": 250, "place_class": "hamlet", "population_source": "class_default", "osm_id": "7833507464"}}, {"type": "Feature", "geometry": {"type": "Point", "coordinates": [79.3253095, 30.359967]}, "properties": {"name": "Palaitha", "population": 250, "place_class": "hamlet", "population_source": "class_default", "osm_id": "7833507465"}}, {"type": "Feature", "geometry": {"type": "Point", "coordinates": [79.3504267, 30.384072]}, "properties": {"name": "Lasi", "population": 250, "place_class": "hamlet", "population_source": "class_default", "osm_id": "7833507467"}}, {"type": "Feature", "geometry": {"type": "Point", "coordinates": [79.3461526, 30.3799086]}, "properties": {"name": "Lashyara", "population": 250, "place_class": "hamlet", "population_source": "class_default", "osm_id": "7833507469"}}, {"type": "Feature", "geometry": {"type": "Point", "coordinates": [79.3407759, 30.362968]}, "properties": {"name": "Nathol Chak", "population": 250, "place_class": "hamlet", "population_source": "class_default", "osm_id": "7833507472"}}, {"type": "Feature", "geometry": {"type": "Point", "coordinates": [79.3376409, 30.3543112]}, "properties": {"name": "Bhainti", "population": 250, "place_class": "hamlet", "population_source": "class_default", "osm_id": "7833507474"}}, {"type": "Feature", "geometry": {"type": "Point", "coordinates": [79.3424631, 30.338125]}, "properties": {"name": "Matharpal", "population": 250, "place_class": "hamlet", "population_source": "class_default", "osm_id": "7833507476"}}, {"type": "Feature", "geometry": {"type": "Point", "coordinates": [79.3379755, 30.3381404]}, "properties": {"name": "Dharkot", "population": 250, "place_class": "hamlet", "population_source": "class_default", "osm_id": "7833507477"}}, {"type": "Feature", "geometry": {"type": "Point", "coordinates": [79.3553109, 30.341098]}, "properties": {"name": "Bhatgyala", "population": 250, "place_class": "hamlet", "population_source": "class_default", "osm_id": "7833507478"}}, {"type": "Feature", "geometry": {"type": "Point", "coordinates": [79.3547204, 30.3462341]}, "properties": {"name": "Mair", "population": 250, "place_class": "hamlet", "population_source": "class_default", "osm_id": "7833507479"}}, {"type": "Feature", "geometry": {"type": "Point", "coordinates": [79.3431184, 30.3252016]}, "properties": {"name": "Sankand", "population": 250, "place_class": "hamlet", "population_source": "class_default", "osm_id": "7833522413"}}, {"type": "Feature", "geometry": {"type": "Point", "coordinates": [79.347015, 30.3179945]}, "properties": {"name": "Bherni", "population": 250, "place_class": "hamlet", "population_source": "class_default", "osm_id": "7833522414"}}, {"type": "Feature", "geometry": {"type": "Point", "coordinates": [79.3527465, 30.3171064]}, "properties": {"name": "Paniger", "population": 250, "place_class": "hamlet", "population_source": "class_default", "osm_id": "7833522415"}}, {"type": "Feature", "geometry": {"type": "Point", "coordinates": [79.4368825, 30.4120957]}, "properties": {"name": "Kiruli", "population": 250, "place_class": "hamlet", "population_source": "class_default", "osm_id": "7833568791"}}, {"type": "Feature", "geometry": {"type": "Point", "coordinates": [79.4365109, 30.4267259]}, "properties": {"name": "Shalla", "population": 250, "place_class": "hamlet", "population_source": "class_default", "osm_id": "7833568792"}}, {"type": "Feature", "geometry": {"type": "Point", "coordinates": [79.4370102, 30.4227194]}, "properties": {"name": "Nargoli", "population": 250, "place_class": "hamlet", "population_source": "class_default", "osm_id": "7833568793"}}, {"type": "Feature", "geometry": {"type": "Point", "coordinates": [79.447924, 30.4174013]}, "properties": {"name": "Kamyar", "population": 250, "place_class": "hamlet", "population_source": "class_default", "osm_id": "7833568794"}}, {"type": "Feature", "geometry": {"type": "Point", "coordinates": [79.2951536, 30.3162285]}, "properties": {"name": "Uttaun", "population": 250, "place_class": "hamlet", "population_source": "class_default", "osm_id": "7833584650"}}, {"type": "Feature", "geometry": {"type": "Point", "coordinates": [79.2905343, 30.4307602]}, "properties": {"name": "Banadwara", "population": 250, "place_class": "hamlet", "population_source": "class_default", "osm_id": "7863055755"}}, {"type": "Feature", "geometry": {"type": "Point", "coordinates": [79.3006318, 30.4349258]}, "properties": {"name": "Dowalatar", "population": 250, "place_class": "hamlet", "population_source": "class_default", "osm_id": "7863055756"}}, {"type": "Feature", "geometry": {"type": "Point", "coordinates": [79.2760727, 30.44952]}, "properties": {"name": "Kalla", "population": 250, "place_class": "hamlet", "population_source": "class_default", "osm_id": "7863055758"}}, {"type": "Feature", "geometry": {"type": "Point", "coordinates": [79.2803622, 30.4453888]}, "properties": {"name": "Koteshwar", "population": 250, "place_class": "hamlet", "population_source": "class_default", "osm_id": "7863055759"}}, {"type": "Feature", "geometry": {"type": "Point", "coordinates": [79.2854782, 30.4434889]}, "properties": {"name": "Viragan", "population": 250, "place_class": "hamlet", "population_source": "class_default", "osm_id": "7863055760"}}, {"type": "Feature", "geometry": {"type": "Point", "coordinates": [79.2872051, 30.4478911]}, "properties": {"name": "Bhadakoti", "population": 250, "place_class": "hamlet", "population_source": "class_default", "osm_id": "7863055761"}}, {"type": "Feature", "geometry": {"type": "Point", "coordinates": [79.2823678, 30.4542721]}, "properties": {"name": "Kunkul Mandoli", "population": 250, "place_class": "hamlet", "population_source": "class_default", "osm_id": "7863055762"}}, {"type": "Feature", "geometry": {"type": "Point", "coordinates": [79.269541, 30.4631911]}, "properties": {"name": "Gaundi", "population": 250, "place_class": "hamlet", "population_source": "class_default", "osm_id": "7863055763"}}, {"type": "Feature", "geometry": {"type": "Point", "coordinates": [79.2753818, 30.3939664]}, "properties": {"name": "Jawari", "population": 250, "place_class": "hamlet", "population_source": "class_default", "osm_id": "7863100053"}}, {"type": "Feature", "geometry": {"type": "Point", "coordinates": [79.2697354, 30.380102]}, "properties": {"name": "Talla Rupa", "population": 250, "place_class": "hamlet", "population_source": "class_default", "osm_id": "7863100054"}}, {"type": "Feature", "geometry": {"type": "Point", "coordinates": [79.2734794, 30.3766104]}, "properties": {"name": "Tarakhansal", "population": 250, "place_class": "hamlet", "population_source": "class_default", "osm_id": "7863100055"}}, {"type": "Feature", "geometry": {"type": "Point", "coordinates": [79.2791571, 30.3836233]}, "properties": {"name": "Kalaundi", "population": 250, "place_class": "hamlet", "population_source": "class_default", "osm_id": "7863100056"}}, {"type": "Feature", "geometry": {"type": "Point", "coordinates": [79.2876617, 30.3804709]}, "properties": {"name": "Gandhnagar", "population": 250, "place_class": "hamlet", "population_source": "class_default", "osm_id": "7863100057"}}, {"type": "Feature", "geometry": {"type": "Point", "coordinates": [79.2834252, 30.3833989]}, "properties": {"name": "Narayan", "population": 250, "place_class": "hamlet", "population_source": "class_default", "osm_id": "7863100058"}}, {"type": "Feature", "geometry": {"type": "Point", "coordinates": [79.2940481, 30.3892165]}, "properties": {"name": "Kalchora", "population": 250, "place_class": "hamlet", "population_source": "class_default", "osm_id": "7863100060"}}, {"type": "Feature", "geometry": {"type": "Point", "coordinates": [79.31228, 30.3817748]}, "properties": {"name": "Pilang", "population": 250, "place_class": "hamlet", "population_source": "class_default", "osm_id": "7863100061"}}, {"type": "Feature", "geometry": {"type": "Point", "coordinates": [79.2962153, 30.3776552]}, "properties": {"name": "Math", "population": 250, "place_class": "hamlet", "population_source": "class_default", "osm_id": "7863100063"}}, {"type": "Feature", "geometry": {"type": "Point", "coordinates": [79.3046229, 30.3803007]}, "properties": {"name": "Kwiralu", "population": 250, "place_class": "hamlet", "population_source": "class_default", "osm_id": "7863100064"}}, {"type": "Feature", "geometry": {"type": "Point", "coordinates": [79.3056902, 30.3744905]}, "properties": {"name": "Tanduna", "population": 250, "place_class": "hamlet", "population_source": "class_default", "osm_id": "7863100065"}}, {"type": "Feature", "geometry": {"type": "Point", "coordinates": [79.3038933, 30.3708547]}, "properties": {"name": "Nagari", "population": 250, "place_class": "hamlet", "population_source": "class_default", "osm_id": "7863100066"}}, {"type": "Feature", "geometry": {"type": "Point", "coordinates": [79.3064365, 30.3627896]}, "properties": {"name": "Amkhet", "population": 250, "place_class": "hamlet", "population_source": "class_default", "osm_id": "7863100068"}}, {"type": "Feature", "geometry": {"type": "Point", "coordinates": [79.3013195, 30.3581503]}, "properties": {"name": "Baindu", "population": 250, "place_class": "hamlet", "population_source": "class_default", "osm_id": "7863100069"}}, {"type": "Feature", "geometry": {"type": "Point", "coordinates": [79.3158463, 30.3484024]}, "properties": {"name": "Pursati", "population": 250, "place_class": "hamlet", "population_source": "class_default", "osm_id": "7863100071"}}, {"type": "Feature", "geometry": {"type": "Point", "coordinates": [79.3024297, 30.344938]}, "properties": {"name": "Chhern", "population": 250, "place_class": "hamlet", "population_source": "class_default", "osm_id": "7863100072"}}, {"type": "Feature", "geometry": {"type": "Point", "coordinates": [79.3023809, 30.3472631]}, "properties": {"name": "Kanderi", "population": 250, "place_class": "hamlet", "population_source": "class_default", "osm_id": "7863100073"}}, {"type": "Feature", "geometry": {"type": "Point", "coordinates": [79.2969975, 30.345557]}, "properties": {"name": "Dawar", "population": 250, "place_class": "hamlet", "population_source": "class_default", "osm_id": "7863100074"}}, {"type": "Feature", "geometry": {"type": "Point", "coordinates": [79.3196373, 30.3189737]}, "properties": {"name": "Ramwori", "population": 250, "place_class": "hamlet", "population_source": "class_default", "osm_id": "7863100075"}}, {"type": "Feature", "geometry": {"type": "Point", "coordinates": [79.2977699, 30.3355043]}, "properties": {"name": "Dadar", "population": 250, "place_class": "hamlet", "population_source": "class_default", "osm_id": "7863100081"}}, {"type": "Feature", "geometry": {"type": "Point", "coordinates": [79.3067313, 30.3379609]}, "properties": {"name": "Kaphalkhet", "population": 250, "place_class": "hamlet", "population_source": "class_default", "osm_id": "7863100082"}}, {"type": "Feature", "geometry": {"type": "Point", "coordinates": [79.4294369, 30.4227109]}, "properties": {"name": "Retali", "population": 250, "place_class": "hamlet", "population_source": "class_default", "osm_id": "7863123837"}}, {"type": "Feature", "geometry": {"type": "Point", "coordinates": [79.430124, 30.4101747]}, "properties": {"name": "Luhan", "population": 250, "place_class": "hamlet", "population_source": "class_default", "osm_id": "7863123838"}}, {"type": "Feature", "geometry": {"type": "Point", "coordinates": [79.4232327, 30.4101198]}, "properties": {"name": "Digoli", "population": 250, "place_class": "hamlet", "population_source": "class_default", "osm_id": "7863123839"}}, {"type": "Feature", "geometry": {"type": "Point", "coordinates": [79.3602299, 30.430682]}, "properties": {"name": "Bhijrakot", "population": 250, "place_class": "hamlet", "population_source": "class_default", "osm_id": "7863123841"}}, {"type": "Feature", "geometry": {"type": "Point", "coordinates": [79.3573102, 30.4272852]}, "properties": {"name": "Malana", "population": 250, "place_class": "hamlet", "population_source": "class_default", "osm_id": "7863123842"}}, {"type": "Feature", "geometry": {"type": "Point", "coordinates": [79.3427546, 30.346049]}, "properties": {"name": "Mair", "population": 250, "place_class": "hamlet", "population_source": "class_default", "osm_id": "7863129802"}}, {"type": "Feature", "geometry": {"type": "Point", "coordinates": [79.3318907, 30.3264804]}, "properties": {"name": "Gawal", "population": 250, "place_class": "hamlet", "population_source": "class_default", "osm_id": "7863129803"}}, {"type": "Feature", "geometry": {"type": "Point", "coordinates": [79.3141418, 30.3238281]}, "properties": {"name": "Dharikund", "population": 250, "place_class": "hamlet", "population_source": "class_default", "osm_id": "7863129804"}}, {"type": "Feature", "geometry": {"type": "Point", "coordinates": [79.3222543, 30.3154821]}, "properties": {"name": "Mangroli", "population": 250, "place_class": "hamlet", "population_source": "class_default", "osm_id": "7863129805"}}, {"type": "Feature", "geometry": {"type": "Point", "coordinates": [79.3176313, 30.3215434]}, "properties": {"name": "Sem", "population": 250, "place_class": "hamlet", "population_source": "class_default", "osm_id": "7863129806"}}, {"type": "Feature", "geometry": {"type": "Point", "coordinates": [79.3261262, 30.3214671]}, "properties": {"name": "Munlall", "population": 250, "place_class": "hamlet", "population_source": "class_default", "osm_id": "7863129807"}}, {"type": "Feature", "geometry": {"type": "Point", "coordinates": [79.3284023, 30.3136148]}, "properties": {"name": "Medadwakti", "population": 250, "place_class": "hamlet", "population_source": "class_default", "osm_id": "7863129808"}}, {"type": "Feature", "geometry": {"type": "Point", "coordinates": [79.373189, 30.3144786]}, "properties": {"name": "Sema", "population": 250, "place_class": "hamlet", "population_source": "class_default", "osm_id": "7863129814"}}, {"type": "Feature", "geometry": {"type": "Point", "coordinates": [79.3798862, 30.3118793]}, "properties": {"name": "Chata", "population": 250, "place_class": "hamlet", "population_source": "class_default", "osm_id": "7863129816"}}, {"type": "Feature", "geometry": {"type": "Point", "coordinates": [79.3892331, 30.3194003]}, "properties": {"name": "Sankari", "population": 250, "place_class": "hamlet", "population_source": "class_default", "osm_id": "7863129817"}}, {"type": "Feature", "geometry": {"type": "Point", "coordinates": [79.4348673, 30.3279625]}, "properties": {"name": "Anthruthet", "population": 250, "place_class": "hamlet", "population_source": "class_default", "osm_id": "7863129819"}}, {"type": "Feature", "geometry": {"type": "Point", "coordinates": [79.431815, 30.3205576]}, "properties": {"name": "Damdhar", "population": 250, "place_class": "hamlet", "population_source": "class_default", "osm_id": "7863129820"}}, {"type": "Feature", "geometry": {"type": "Point", "coordinates": [79.3565601, 30.438395]}, "properties": {"name": "Sentuna", "population": 250, "place_class": "hamlet", "population_source": "class_default", "osm_id": "7863130772"}}, {"type": "Feature", "geometry": {"type": "Point", "coordinates": [79.3410565, 30.4219115]}, "properties": {"name": "Khadora", "population": 250, "place_class": "hamlet", "population_source": "class_default", "osm_id": "7863130774"}}, {"type": "Feature", "geometry": {"type": "Point", "coordinates": [79.3526401, 30.4184048]}, "properties": {"name": "Kaurau", "population": 250, "place_class": "hamlet", "population_source": "class_default", "osm_id": "7863130779"}}, {"type": "Feature", "geometry": {"type": "Point", "coordinates": [79.3529509, 30.4134947]}, "properties": {"name": "Nail", "population": 250, "place_class": "hamlet", "population_source": "class_default", "osm_id": "7863130780"}}, {"type": "Feature", "geometry": {"type": "Point", "coordinates": [79.387085, 30.4113865]}, "properties": {"name": "Durgapuri", "population": 250, "place_class": "hamlet", "population_source": "class_default", "osm_id": "7863130781"}}, {"type": "Feature", "geometry": {"type": "Point", "coordinates": [79.3820566, 30.4111787]}, "properties": {"name": "Rowala", "population": 250, "place_class": "hamlet", "population_source": "class_default", "osm_id": "7863130782"}}, {"type": "Feature", "geometry": {"type": "Point", "coordinates": [79.3834603, 30.4156638]}, "properties": {"name": "Kunj", "population": 250, "place_class": "hamlet", "population_source": "class_default", "osm_id": "7863130783"}}, {"type": "Feature", "geometry": {"type": "Point", "coordinates": [79.3860023, 30.4211902]}, "properties": {"name": "Maholta", "population": 250, "place_class": "hamlet", "population_source": "class_default", "osm_id": "7863130784"}}, {"type": "Feature", "geometry": {"type": "Point", "coordinates": [79.3626084, 30.3763663]}, "properties": {"name": "Kwarkun", "population": 250, "place_class": "hamlet", "population_source": "class_default", "osm_id": "7863159650"}}, {"type": "Feature", "geometry": {"type": "Point", "coordinates": [79.3868007, 30.4252508]}, "properties": {"name": "Kandara", "population": 250, "place_class": "hamlet", "population_source": "class_default", "osm_id": "7863167785"}}, {"type": "Feature", "geometry": {"type": "Point", "coordinates": [79.3887419, 30.4321471]}, "properties": {"name": "Kana", "population": 250, "place_class": "hamlet", "population_source": "class_default", "osm_id": "7863167786"}}, {"type": "Feature", "geometry": {"type": "Point", "coordinates": [79.3794058, 30.4279866]}, "properties": {"name": "Kunj", "population": 250, "place_class": "hamlet", "population_source": "class_default", "osm_id": "7863167787"}}, {"type": "Feature", "geometry": {"type": "Point", "coordinates": [79.3697216, 30.4255849]}, "properties": {"name": "Dungri", "population": 250, "place_class": "hamlet", "population_source": "class_default", "osm_id": "7863167788"}}, {"type": "Feature", "geometry": {"type": "Point", "coordinates": [79.3736748, 30.4362545]}, "properties": {"name": "Maikot", "population": 250, "place_class": "hamlet", "population_source": "class_default", "osm_id": "7863167789"}}, {"type": "Feature", "geometry": {"type": "Point", "coordinates": [79.3213368, 30.4397587]}, "properties": {"name": "Sagar", "population": 250, "place_class": "hamlet", "population_source": "class_default", "osm_id": "7863167798"}}]}