{"type": "FeatureCollection", "crs": {"type": "name", "properties": {"name": "urn:ogc:def:crs:OGC:1.3:CRS84"}}, "features": [{"type": "Feature", "geometry": {"type": "Polygon", "coordinates": [[[88.64886865999314, 27.605958321962987], [88.64886865999314, 27.604612346992578], [88.64734913353769, 27.604612346992578], [88.64734913353769, 27.603266372022166], [88.64582960708223, 27.603266372022166], [88.64582960708223, 27.604612346992578], [88.64279055417134, 27.604612346992578], [88.64279055417134, 27.603266372022166], [88.64431008062678, 27.603266372022166], [88.64431008062678, 27.601920397051757], [88.64734913353769, 27.601920397051757], [88.64734913353769, 27.597882472140526], [88.64886865999314, 27.597882472140526], [88.64886865999314, 27.596536497170117], [88.6503881864486, 27.596536497170117], [88.6503881864486, 27.595190522199704], [88.65190771290405, 27.595190522199704], [88.65190771290405, 27.593844547229295], [88.65494676581494, 27.593844547229295], [88.65494676581494, 27.583076747466013], [88.6564662922704, 27.583076747466013], [88.6564662922704, 27.580384797525195], [88.65494676581494, 27.580384797525195], [88.65494676581494, 27.577692847584373], [88.6534272393595, 27.577692847584373], [88.6534272393595, 27.576346872613964], [88.65190771290405, 27.576346872613964], [88.65190771290405, 27.570962972732325], [88.6534272393595, 27.570962972732325], [88.6534272393595, 27.55750322302822], [88.65494676581494, 27.55750322302822], [88.65494676581494, 27.55346529811699], [88.6534272393595, 27.55346529811699], [88.6534272393595, 27.550773348176172], [88.6503881864486, 27.550773348176172], [88.6503881864486, 27.54942737320576], [88.64886865999314, 27.54942737320576], [88.64886865999314, 27.550773348176172], [88.64127102771589, 27.550773348176172], [88.64127102771589, 27.54942737320576], [88.63975150126043, 27.54942737320576], [88.63975150126043, 27.54808139823535], [88.63519292189407, 27.54808139823535], [88.63519292189407, 27.54673542326494], [88.63063434252773, 27.54673542326494], [88.63063434252773, 27.54538944829453], [88.61847813088411, 27.54538944829453], [88.61847813088411, 27.54404347332412], [88.6154390779732, 27.54404347332412], [88.6154390779732, 27.54269749835371], [88.61999765733957, 27.54269749835371], [88.61999765733957, 27.54404347332412], [88.63215386898318, 27.54404347332412], [88.63215386898318, 27.54538944829453], [88.63671244834953, 27.54538944829453], [88.63671244834953, 27.54673542326494], [88.64127102771589, 27.54673542326494], [88.64127102771589, 27.54808139823535], [88.64431008062678, 27.54808139823535], [88.64431008062678, 27.54942737320576], [88.64734913353769, 27.54942737320576], [88.64734913353769, 27.54808139823535], [88.65190771290405, 27.54808139823535], [88.65190771290405, 27.54942737320576], [88.65494676581494, 27.54942737320576], [88.65494676581494, 27.55211932314658], [88.6564662922704, 27.55211932314658], [88.6564662922704, 27.558849197998633], [88.65494676581494, 27.558849197998633], [88.65494676581494, 27.576346872613964], [88.6564662922704, 27.576346872613964], [88.6564662922704, 27.579038822554786], [88.65798581872585, 27.579038822554786], [88.65798581872585, 27.584422722436425], [88.6564662922704, 27.584422722436425], [88.6564662922704, 27.589806622318065], [88.65798581872585, 27.589806622318065], [88.65798581872585, 27.591152597288474], [88.6564662922704, 27.591152597288474], [88.6564662922704, 27.595190522199704], [88.65494676581494, 27.595190522199704], [88.65494676581494, 27.596536497170117], [88.65190771290405, 27.596536497170117], [88.65190771290405, 27.599228447110935], [88.6503881864486, 27.599228447110935], [88.6503881864486, 27.601920397051757], [88.64886865999314, 27.601920397051757], [88.64886865999314, 27.603266372022166], [88.6503881864486, 27.603266372022166], [88.6503881864486, 27.605958321962987], [88.64886865999314, 27.605958321962987]]]}, "properties": {"area_km2": 2.2203, "min_depth_m": 0.05}}]}