{"type": "FeatureCollection", "features": [{"type": "Feature", "geometry": {"type": "Point", "coordinates": [76.9446486, 9.8540061]}, "properties": {"name": "Painavu", "population": 20000, "place_class": "town", "population_source": "class_default", "osm_id": "245584837"}}, {"type": "Feature", "geometry": {"type": "Point", "coordinates": [76.9554575, 10.0144274]}, "properties": {"name": "Adimali", "population": 20000, "place_class": "town", "population_source": "class_default", "osm_id": "560839888"}}, {"type": "Feature", "geometry": {"type": "Point", "coordinates": [76.7458747, 9.8380574]}, "properties": {"name": "Muttam", "population": 20000, "place_class": "town", "population_source": "class_default", "osm_id": "594886129"}}, {"type": "Feature", "geometry": {"type": "Point", "coordinates": [76.7742172, 10.0539414]}, "properties": {"name": "Neriamangalam", "population": 20000, "place_class": "town", "population_source": "class_default", "osm_id": "1195120425"}}, {"type": "Feature", "geometry": {"type": "Point", "coordinates": [76.9618039, 9.8581974]}, "properties": {"name": "Cheruthoni", "population": 20000, "place_class": "town", "population_source": "class_default", "osm_id": "1519553913"}}, {"type": "Feature", "geometry": {"type": "Point", "coordinates": [77.0350532, 9.8413698]}, "properties": {"name": "Thankamani", "population": 20000, "place_class": "town", "population_source": "class_default", "osm_id": "4012389902"}}, {"type": "Feature", "geometry": {"type": "Point", "coordinates": [77.0375219, 10.0235205]}, "properties": {"name": "Anachal", "population": 20000, "place_class": "town", "population_source": "class_default", "osm_id": "4012663604"}}, {"type": "Feature", "geometry": {"type": "Point", "coordinates": [76.7134225, 9.8976798]}, "properties": {"name": "Thodupuzha", "population": 20000, "place_class": "town", "population_source": "class_default", "osm_id": "4568072460"}}, {"type": "Feature", "geometry": {"type": "Point", "coordinates": [77.0083023, 9.9132401]}, "properties": {"name": "Murickassery", "population": 20000, "place_class": "town", "population_source": "class_default", "osm_id": "10860080975"}}, {"type": "Feature", "geometry": {"type": "Point", "coordinates": [76.6709797, 9.9656317]}, "properties": {"name": "Kalloorkad", "population": 10000, "place_class": "village", "population_source": "osm:population", "osm_id": "945277400"}}, {"type": "Feature", "geometry": {"type": "Point", "coordinates": [76.9478466, 10.0067449]}, "properties": {"name": "Koickakudy", "population": 8000, "place_class": "suburb", "population_source": "class_default", "osm_id": "7464527170"}}, {"type": "Feature", "geometry": {"type": "Point", "coordinates": [76.6874079, 9.809757]}, "properties": {"name": "Manathoor", "population": 2500, "place_class": "village", "population_source": "osm:population", "osm_id": "2914675550"}}, {"type": "Feature", "geometry": {"type": "Point", "coordinates": [76.9797914, 9.8497872]}, "properties": {"name": "Idukki", "population": 1500, "place_class": "village", "population_source": "class_default", "osm_id": "316417407"}}, {"type": "Feature", "geometry": {"type": "Point", "coordinates": [76.789224, 9.8252899]}, "properties": {"name": "Kudayathoor", "population": 1500, "place_class": "village", "population_source": "class_default", "osm_id": "594886147"}}, {"type": "Feature", "geometry": {"type": "Point", "coordinates": [76.78328, 10.04992]}, "properties": {"name": "Neriyamangalam", "population": 1500, "place_class": "village", "population_source": "class_default", "osm_id": "594984422"}}, {"type": "Feature", "geometry": {"type": "Point", "coordinates": [76.70002, 10.13334]}, "properties": {"name": "Thattekad", "population": 1500, "place_class": "village", "population_source": "class_default", "osm_id": "594984640"}}, {"type": "Feature", "geometry": {"type": "Point", "coordinates": [76.7338887, 10.1511635]}, "properties": {"name": "Kuttampuzha", "population": 1500, "place_class": "village", "population_source": "class_default", "osm_id": "594984670"}}, {"type": "Feature", "geometry": {"type": "Point", "coordinates": [76.6621033, 9.8001954]}, "properties": {"name": "Ramapuram", "population": 1500, "place_class": "village", "population_source": "class_default", "osm_id": "715774714"}}, {"type": "Feature", "geometry": {"type": "Point", "coordinates": [76.7208269, 9.8254483]}, "properties": {"name": "Thudanganaad", "population": 1500, "place_class": "village", "population_source": "class_default", "osm_id": "765692107"}}, {"type": "Feature", "geometry": {"type": "Point", "coordinates": [76.6683644, 9.8685295]}, "properties": {"name": "Purappuzha", "population": 1500, "place_class": "village", "population_source": "class_default", "osm_id": "800597162"}}, {"type": "Feature", "geometry": {"type": "Point", "coordinates": [76.677363, 9.8842204]}, "properties": {"name": "Nediyasala", "population": 1500, "place_class": "village", "population_source": "class_default", "osm_id": "801895880"}}, {"type": "Feature", "geometry": {"type": "Point", "coordinates": [76.7434621, 9.915959]}, "properties": {"name": "Kunnam", "population": 1500, "place_class": "village", "population_source": "class_default", "osm_id": "870027000"}}, {"type": "Feature", "geometry": {"type": "Point", "coordinates": [76.702617, 10.0331998]}, "properties": {"name": "Koovalloor", "population": 1500, "place_class": "village", "population_source": "class_default", "osm_id": "945285618"}}, {"type": "Feature", "geometry": {"type": "Point", "coordinates": [76.7103318, 10.0377157]}, "properties": {"name": "Pareekkanni", "population": 1500, "place_class": "village", "population_source": "class_default", "osm_id": "945286094"}}, {"type": "Feature", "geometry": {"type": "Point", "coordinates": [76.7276642, 9.8003429]}, "properties": {"name": "Neeloor", "population": 1500, "place_class": "village", "population_source": "class_default", "osm_id": "963640486"}}, {"type": "Feature", "geometry": {"type": "Point", "coordinates": [76.7503821, 10.0503586]}, "properties": {"name": "Thalakode", "population": 1500, "place_class": "village", "population_source": "class_default", "osm_id": "1195120395"}}, {"type": "Feature", "geometry": {"type": "Point", "coordinates": [76.6826184, 10.0584403]}, "properties": {"name": "Nellimattom", "population": 1500, "place_class": "village", "population_source": "class_default", "osm_id": "1195407753"}}, {"type": "Feature", "geometry": {"type": "Point", "coordinates": [76.736315, 9.8783498]}, "properties": {"name": "Kallanikkal", "population": 1500, "place_class": "village", "population_source": "class_default", "osm_id": "1413371622"}}, {"type": "Feature", "geometry": {"type": "Point", "coordinates": [76.7407699, 9.8263211]}, "properties": {"name": "Challavayal", "population": 1500, "place_class": "village", "population_source": "class_default", "osm_id": "1436611776"}}, {"type": "Feature", "geometry": {"type": "Point", "coordinates": [76.6975005, 9.8637155]}, "properties": {"name": "Plantation Kavala", "population": 1500, "place_class": "village", "population_source": "class_default", "osm_id": "1436637998"}}, {"type": "Feature", "geometry": {"type": "Point", "coordinates": [76.6994078, 10.0548588]}, "properties": {"name": "Kavalangad", "population": 1500, "place_class": "village", "population_source": "class_default", "osm_id": "1668640926"}}, {"type": "Feature", "geometry": {"type": "Point", "coordinates": [76.9683736, 9.8799723]}, "properties": {"name": "Thadiyambadu", "population": 1500, "place_class": "village", "population_source": "class_default", "osm_id": "1930133322"}}, {"type": "Feature", "geometry": {"type": "Point", "coordinates": [76.9721945, 9.892674]}, "properties": {"name": "Karimban", "population": 1500, "place_class": "village", "population_source": "class_default", "osm_id": "1930133395"}}, {"type": "Feature", "geometry": {"type": "Point", "coordinates": [76.8309417, 9.8686201]}, "properties": {"name": "Cheppukulam", "population": 1500, "place_class": "village", "population_source": "class_default", "osm_id": "1996937475"}}, {"type": "Feature", "geometry": {"type": "Point", "coordinates": [76.8193824, 9.9594442]}, "properties": {"name": "Thommankutthu", "population": 1500, "place_class": "village", "population_source": "class_default", "osm_id": "2080164342"}}, {"type": "Feature", "geometry": {"type": "Point", "coordinates": [76.7661968, 9.8825045]}, "properties": {"name": "Alakkodu", "population": 1500, "place_class": "village", "population_source": "class_default", "osm_id": "2235652574"}}, {"type": "Feature", "geometry": {"type": "Point", "coordinates": [76.7104039, 10.0068024]}, "properties": {"name": "Paingottoor", "population": 1500, "place_class": "village", "population_source": "class_default", "osm_id": "2258114588"}}, {"type": "Feature", "geometry": {"type": "Point", "coordinates": [76.8142565, 9.9060212]}, "properties": {"name": "Udumbannoor", "population": 1500, "place_class": "village", "population_source": "class_default", "osm_id": "2359749117"}}, {"type": "Feature", "geometry": {"type": "Point", "coordinates": [76.7091779, 9.9846385]}, "properties": {"name": "Kaloor", "population": 1500, "place_class": "village", "population_source": "class_default", "osm_id": "2897567339"}}, {"type": "Feature", "geometry": {"type": "Point", "coordinates": [76.7082236, 9.9358851]}, "properties": {"name": "Kumaramangalam", "population": 1500, "place_class": "village", "population_source": "class_default", "osm_id": "2897567340"}}, {"type": "Feature", "geometry": {"type": "Point", "coordinates": [76.7107553, 9.9653412]}, "properties": {"name": "PerumamKandam", "population": 1500, "place_class": "village", "population_source": "class_default", "osm_id": "2897567342"}}, {"type": "Feature", "geometry": {"type": "Point", "coordinates": [76.7097999, 9.9428549]}, "properties": {"name": "Thaimattom", "population": 1500, "place_class": "village", "population_source": "class_default", "osm_id": "2897567343"}}, {"type": "Feature", "geometry": {"type": "Point", "coordinates": [76.877539, 10.0281759]}, "properties": {"name": "Irumbu Palam", "population": 1500, "place_class": "village", "population_source": "class_default", "osm_id": "2905873494"}}, {"type": "Feature", "geometry": {"type": "Point", "coordinates": [76.9854033, 9.9883519]}, "properties": {"name": "Ayiram Acre", "population": 1500, "place_class": "village", "population_source": "class_default", "osm_id": "2905893441"}}, {"type": "Feature", "geometry": {"type": "Point", "coordinates": [76.9732649, 9.9980104]}, "properties": {"name": "Irunnoor Acre", "population": 1500, "place_class": "village", "population_source": "class_default", "osm_id": "2905893442"}}, {"type": "Feature", "geometry": {"type": "Point", "coordinates": [76.9750173, 9.9538011]}, "properties": {"name": "Panamkutty", "population": 1500, "place_class": "village", "population_source": "class_default", "osm_id": "2905893443"}}, {"type": "Feature", "geometry": {"type": "Point", "coordinates": [76.8404377, 9.8925709]}, "properties": {"name": "Cheenikuzhi Kurisupally", "population": 1500, "place_class": "village", "population_source": "class_default", "osm_id": "2909520769"}}, {"type": "Feature", "geometry": {"type": "Point", "coordinates": [76.6789241, 9.8388444]}, "properties": {"name": "Nellappara", "population": 1500, "place_class": "village", "population_source": "class_default", "osm_id": "2914697009"}}, {"type": "Feature", "geometry": {"type": "Point", "coordinates": [76.6812243, 9.921132]}, "properties": {"name": "Madakkathanam", "population": 1500, "place_class": "village", "population_source": "class_default", "osm_id": "3357397862"}}, {"type": "Feature", "geometry": {"type": "Point", "coordinates": [76.7419221, 9.9587192]}, "properties": {"name": "Kodikulam West", "population": 1500, "place_class": "village", "population_source": "class_default", "osm_id": "3874495523"}}, {"type": "Feature", "geometry": {"type": "Point", "coordinates": [76.7835988, 9.9966812]}, "properties": {"name": "Ambalapady", "population": 1500, "place_class": "village", "population_source": "class_default", "osm_id": "3874495526"}}, {"type": "Feature", "geometry": {"type": "Point", "coordinates": [76.6860858, 9.8520628]}, "properties": {"name": "Karimkunnum", "population": 1500, "place_class": "village", "population_source": "class_default", "osm_id": "3876059581"}}, {"type": "Feature", "geometry": {"type": "Point", "coordinates": [76.909105, 9.9673436]}, "properties": {"name": "Pazhayarikandom", "population": 1500, "place_class": "village", "population_source": "class_default", "osm_id": "3923067769"}}, {"type": "Feature", "geometry": {"type": "Point", "coordinates": [77.0231474, 9.8852768]}, "properties": {"name": "Rajamudi", "population": 1500, "place_class": "village", "population_source": "class_default", "osm_id": "4002191995"}}, {"type": "Feature", "geometry": {"type": "Point", "coordinates": [76.9875977, 9.8564465]}, "properties": {"name": "Mariyapuram", "population": 1500, "place_class": "village", "population_source": "class_default", "osm_id": "4012389901"}}, {"type": "Feature", "geometry": {"type": "Point", "coordinates": [76.9321479, 9.9542905]}, "properties": {"name": "Kanjikkuzhy", "population": 1500, "place_class": "village", "population_source": "class_default", "osm_id": "4214846473"}}, {"type": "Feature", "geometry": {"type": "Point", "coordinates": [76.8721167, 9.975621]}, "properties": {"name": "Venmony", "population": 1500, "place_class": "village", "population_source": "class_default", "osm_id": "4214847304"}}, {"type": "Feature", "geometry": {"type": "Point", "coordinates": [76.7818129, 9.9752006]}, "properties": {"name": "Kaliyar", "population": 1500, "place_class": "village", "population_source": "class_default", "osm_id": "4345651301"}}, {"type": "Feature", "geometry": {"type": "Point", "coordinates": [76.9645968, 9.9383874]}, "properties": {"name": "Keerithodu", "population": 1500, "place_class": "village", "population_source": "class_default", "osm_id": "4345656007"}}, {"type": "Feature", "geometry": {"type": "Point", "coordinates": [76.7906145, 9.990651]}, "properties": {"name": "Vannappuram", "population": 1500, "place_class": "village", "population_source": "class_default", "osm_id": "4353972972"}}, {"type": "Feature", "geometry": {"type": "Point", "coordinates": [76.9973051, 9.9808755]}, "properties": {"name": "Kallarkutty", "population": 1500, "place_class": "village", "population_source": "class_default", "osm_id": "4896668984"}}, {"type": "Feature", "geometry": {"type": "Point", "coordinates": [76.7592658, 9.9941163]}, "properties": {"name": "Njaarakkad", "population": 1500, "place_class": "village", "population_source": "class_default", "osm_id": "5884422408"}}, {"type": "Feature", "geometry": {"type": "Point", "coordinates": [77.0046936, 9.8567408]}, "properties": {"name": "Pandippara", "population": 1500, "place_class": "village", "population_source": "class_default", "osm_id": "6280524957"}}, {"type": "Feature", "geometry": {"type": "Point", "coordinates": [76.7012979, 9.8229964]}, "properties": {"name": "Mattathipara", "population": 1500, "place_class": "village", "population_source": "class_default", "osm_id": "6812459510"}}, {"type": "Feature", "geometry": {"type": "Point", "coordinates": [76.7421994, 10.0002887]}, "properties": {"name": "Kadavoor", "population": 1500, "place_class": "village", "population_source": "class_default", "osm_id": "7317776220"}}, {"type": "Feature", "geometry": {"type": "Point", "coordinates": [76.7398667, 9.9805373]}, "properties": {"name": "Parapuzha", "population": 1500, "place_class": "village", "population_source": "class_default", "osm_id": "7391480782"}}, {"type": "Feature", "geometry": {"type": "Point", "coordinates": [76.6908145, 10.0047337]}, "properties": {"name": "Ayamkara", "population": 1500, "place_class": "village", "population_source": "class_default", "osm_id": "7391503619"}}, {"type": "Feature", "geometry": {"type": "Point", "coordinates": [76.6813356, 10.0063555]}, "properties": {"name": "Pothanicad", "population": 1500, "place_class": "village", "population_source": "class_default", "osm_id": "7391503637"}}, {"type": "Feature", "geometry": {"type": "Point", "coordinates": [76.7069185, 9.9927995]}, "properties": {"name": "Kulappuram", "population": 1500, "place_class": "village", "population_source": "class_default", "osm_id": "7391503638"}}, {"type": "Feature", "geometry": {"type": "Point", "coordinates": [76.9948941, 9.9288109]}, "properties": {"name": "Mankuva", "population": 1500, "place_class": "village", "population_source": "class_default", "osm_id": "7396874991"}}, {"type": "Feature", "geometry": {"type": "Point", "coordinates": [77.0133638, 9.9242223]}, "properties": {"name": "Chinnar", "population": 1500, "place_class": "village", "population_source": "class_default", "osm_id": "7396913906"}}, {"type": "Feature", "geometry": {"type": "Point", "coordinates": [76.7663329, 9.9503435]}, "properties": {"name": "Kodikulam", "population": 1500, "place_class": "village", "population_source": "class_default", "osm_id": "7445174317"}}, {"type": "Feature", "geometry": {"type": "Point", "coordinates": [76.7772071, 9.8733852]}, "properties": {"name": "Kalayanthani", "population": 1500, "place_class": "village", "population_source": "class_default", "osm_id": "7462502678"}}, {"type": "Feature", "geometry": {"type": "Point", "coordinates": [77.0038708, 9.8856948]}, "properties": {"name": "Upputhode", "population": 1500, "place_class": "village", "population_source": "class_default", "osm_id": "7467446931"}}, {"type": "Feature", "geometry": {"type": "Point", "coordinates": [77.0238426, 10.0235061]}, "properties": {"name": "Thokkupara", "population": 1500, "place_class": "village", "population_source": "class_default", "osm_id": "7468045621"}}, {"type": "Feature", "geometry": {"type": "Point", "coordinates": [77.0307377, 9.9395534]}, "properties": {"name": "Parathodu", "population": 1500, "place_class": "village", "population_source": "class_default", "osm_id": "7469318415"}}, {"type": "Feature", "geometry": {"type": "Point", "coordinates": [77.0151447, 10.018184]}, "properties": {"name": "Ambazhachal", "population": 1500, "place_class": "village", "population_source": "class_default", "osm_id": "7473381357"}}, {"type": "Feature", "geometry": {"type": "Point", "coordinates": [76.7624234, 9.9082417]}, "properties": {"name": "Chalassery", "population": 1500, "place_class": "village", "population_source": "class_default", "osm_id": "7475739873"}}, {"type": "Feature", "geometry": {"type": "Point", "coordinates": [76.959695, 9.8747128]}, "properties": {"name": "Vazhathope", "population": 1500, "place_class": "village", "population_source": "class_default", "osm_id": "7498219198"}}, {"type": "Feature", "geometry": {"type": "Point", "coordinates": [76.939311, 9.8923919]}, "properties": {"name": "Maniyarankudy", "population": 1500, "place_class": "village", "population_source": "class_default", "osm_id": "7499989243"}}, {"type": "Feature", "geometry": {"type": "Point", "coordinates": [76.8097785, 9.8178675]}, "properties": {"name": "Kanjar", "population": 1500, "place_class": "village", "population_source": "class_default", "osm_id": "7529365784"}}, {"type": "Feature", "geometry": {"type": "Point", "coordinates": [76.9975223, 9.8399236]}, "properties": {"name": "Narakakkanam", "population": 1500, "place_class": "village", "population_source": "class_default", "osm_id": "7968980555"}}, {"type": "Feature", "geometry": {"type": "Point", "coordinates": [77.0259993, 9.8226898]}, "properties": {"name": "Calvary Mount", "population": 1500, "place_class": "village", "population_source": "class_default", "osm_id": "7968980556"}}, {"type": "Feature", "geometry": {"type": "Point", "coordinates": [76.6660389, 10.0298782]}, "properties": {"name": "Pallarimangalam", "population": 1500, "place_class": "village", "population_source": "class_default", "osm_id": "8399929045"}}, {"type": "Feature", "geometry": {"type": "Point", "coordinates": [76.745002, 9.89269]}, "properties": {"name": "Edavetty", "population": 1500, "place_class": "village", "population_source": "class_default", "osm_id": "8875516753"}}, {"type": "Feature", "geometry": {"type": "Point", "coordinates": [76.8503029, 9.843362]}, "properties": {"name": "Poomala", "population": 1500, "place_class": "village", "population_source": "class_default", "osm_id": "8922092653"}}, {"type": "Feature", "geometry": {"type": "Point", "coordinates": [76.834448, 10.0874418]}, "properties": {"name": "Elamblassery Colony", "population": 1500, "place_class": "village", "population_source": "class_default", "osm_id": "9154166089"}}, {"type": "Feature", "geometry": {"type": "Point", "coordinates": [76.8648441, 9.8243629]}, "properties": {"name": "Naliyani", "population": 1500, "place_class": "village", "population_source": "class_default", "osm_id": "9717497265"}}, {"type": "Feature", "geometry": {"type": "Point", "coordinates": [77.0277325, 9.976928]}, "properties": {"name": "Vellathooval", "population": 1500, "place_class": "village", "population_source": "class_default", "osm_id": "9909584556"}}, {"type": "Feature", "geometry": {"type": "Point", "coordinates": [77.0158096, 9.9425162]}, "properties": {"name": "Kambilikandam", "population": 1500, "place_class": "village", "population_source": "class_default", "osm_id": "10860080976"}}, {"type": "Feature", "geometry": {"type": "Point", "coordinates": [77.0275001, 9.9575414]}, "properties": {"name": "Konnathady", "population": 1500, "place_class": "village", "population_source": "class_default", "osm_id": "10860090107"}}, {"type": "Feature", "geometry": {"type": "Point", "coordinates": [76.9628876, 9.919292]}, "properties": {"name": "Chelachuvadu", "population": 1500, "place_class": "village", "population_source": "class_default", "osm_id": "10873880326"}}, {"type": "Feature", "geometry": {"type": "Point", "coordinates": [76.8567436, 9.8363482]}, "properties": {"name": "Koovakandam", "population": 1500, "place_class": "village", "population_source": "class_default", "osm_id": "12589488104"}}, {"type": "Feature", "geometry": {"type": "Point", "coordinates": [76.9275248, 10.1193352]}, "properties": {"name": "Mankulam", "population": 1500, "place_class": "village", "population_source": "class_default", "osm_id": "13808358512"}}, {"type": "Feature", "geometry": {"type": "Point", "coordinates": [76.782439, 9.8032404]}, "properties": {"name": "Ilaveezha Punchira", "population": 250, "place_class": "hamlet", "population_source": "class_default", "osm_id": "4081008460"}}, {"type": "Feature", "geometry": {"type": "Point", "coordinates": [76.8676045, 9.9204319]}, "properties": {"name": "Kaithappara", "population": 250, "place_class": "hamlet", "population_source": "class_default", "osm_id": "4214846468"}}, {"type": "Feature", "geometry": {"type": "Point", "coordinates": [76.9031289, 9.9563787]}, "properties": {"name": "Mylapuzha", "population": 250, "place_class": "hamlet", "population_source": "class_default", "osm_id": "4345653491"}}, {"type": "Feature", "geometry": {"type": "Point", "coordinates": [76.948152, 9.9485741]}, "properties": {"name": "Thallakkanam", "population": 250, "place_class": "hamlet", "population_source": "class_default", "osm_id": "4345655630"}}, {"type": "Feature", "geometry": {"type": "Point", "coordinates": [76.9001432, 9.9330699]}, "properties": {"name": "Makkuvally", "population": 250, "place_class": "hamlet", "population_source": "class_default", "osm_id": "4345662699"}}, {"type": "Feature", "geometry": {"type": "Point", "coordinates": [76.8689929, 9.9878951]}, "properties": {"name": "Pattayakkudy", "population": 250, "place_class": "hamlet", "population_source": "class_default", "osm_id": "4568068381"}}, {"type": "Feature", "geometry": {"type": "Point", "coordinates": [76.9074874, 9.969164]}, "properties": {"name": "pallicity,pazhayarikandom", "population": 250, "place_class": "hamlet", "population_source": "class_default", "osm_id": "4568070032"}}, {"type": "Feature", "geometry": {"type": "Point", "coordinates": [76.8760829, 9.9332436]}, "properties": {"name": "Manayathadom", "population": 250, "place_class": "hamlet", "population_source": "class_default", "osm_id": "4568071208"}}, {"type": "Feature", "geometry": {"type": "Point", "coordinates": [76.6618252, 10.1354471]}, "properties": {"name": "Bhoothathankettu", "population": 250, "place_class": "hamlet", "population_source": "class_default", "osm_id": "5831631333"}}, {"type": "Feature", "geometry": {"type": "Point", "coordinates": [76.9342914, 10.0770233]}, "properties": {"name": "Company Kudi Tribal Settlement", "population": 250, "place_class": "hamlet", "population_source": "class_default", "osm_id": "7325537032"}}, {"type": "Feature", "geometry": {"type": "Point", "coordinates": [77.0117325, 9.9529761]}, "properties": {"name": "Mukkudam", "population": 250, "place_class": "hamlet", "population_source": "class_default", "osm_id": "7470359083"}}, {"type": "Feature", "geometry": {"type": "Point", "coordinates": [77.010783, 9.9582597]}, "properties": {"name": "5th Mile", "population": 250, "place_class": "hamlet", "population_source": "class_default", "osm_id": "7470359497"}}, {"type": "Feature", "geometry": {"type": "Point", "coordinates": [76.9527104, 9.8683969]}, "properties": {"name": "Thannikandam", "population": 250, "place_class": "hamlet", "population_source": "class_default", "osm_id": "8320800478"}}, {"type": "Feature", "geometry": {"type": "Point", "coordinates": [76.8861939, 10.1196884]}, "properties": {"name": "kuruthikudi Colony", "population": 250, "place_class": "hamlet", "population_source": "class_default", "osm_id": "9168930200"}}, {"type": "Feature", "geometry": {"type": "Point", "coordinates": [76.9076802, 10.110569]}, "properties": {"name": "Moothasheri Colony", "population": 250, "place_class": "hamlet", "population_source": "class_default", "osm_id": "9168930201"}}, {"type": "Feature", "geometry": {"type": "Point", "coordinates": [76.876505, 10.1082727]}, "properties": {"name": "Kattukudi", "population": 250, "place_class": "hamlet", "population_source": "class_default", "osm_id": "9168930202"}}, {"type": "Feature", "geometry": {"type": "Point", "coordinates": [76.8456595, 10.0494431]}, "properties": {"name": "Ozhividuth Colony", "population": 250, "place_class": "hamlet", "population_source": "class_default", "osm_id": "9168930203"}}, {"type": "Feature", "geometry": {"type": "Point", "coordinates": [76.7627031, 10.1302034]}, "properties": {"name": "Panthapra Colony", "population": 250, "place_class": "hamlet", "population_source": "class_default", "osm_id": "9183499680"}}, {"type": "Feature", "geometry": {"type": "Point", "coordinates": [77.0216196, 9.908028]}, "properties": {"name": "Moongapara", "population": 250, "place_class": "hamlet", "population_source": "class_default", "osm_id": "9909485705"}}, {"type": "Feature", "geometry": {"type": "Point", "coordinates": [76.9673599, 9.8857574]}, "properties": {"name": "Ashoka Kavala", "population": 250, "place_class": "hamlet", "population_source": "class_default", "osm_id": "10860003593"}}, {"type": "Feature", "geometry": {"type": "Point", "coordinates": [76.970369, 9.8526371]}, "properties": {"name": "Alinchuvadu", "population": 250, "place_class": "hamlet", "population_source": "class_default", "osm_id": "10860003594"}}, {"type": "Feature", "geometry": {"type": "Point", "coordinates": [77.0252887, 9.8187226]}, "properties": {"name": "10th Mile", "population": 250, "place_class": "hamlet", "population_source": "class_default", "osm_id": "10860034533"}}, {"type": "Feature", "geometry": {"type": "Point", "coordinates": [77.0125596, 9.8282991]}, "properties": {"name": "Double Cutting", "population": 250, "place_class": "hamlet", "population_source": "class_default", "osm_id": "10860034534"}}, {"type": "Feature", "geometry": {"type": "Point", "coordinates": [77.0327825, 9.8274087]}, "properties": {"name": "Koottakkallu", "population": 250, "place_class": "hamlet", "population_source": "class_default", "osm_id": "10861769571"}}, {"type": "Feature", "geometry": {"type": "Point", "coordinates": [77.018246, 9.8440716]}, "properties": {"name": "Eettikavala", "population": 250, "place_class": "hamlet", "population_source": "class_default", "osm_id": "10861814055"}}, {"type": "Feature", "geometry": {"type": "Point", "coordinates": [76.9963718, 9.8526168]}, "properties": {"name": "Millumpady", "population": 250, "place_class": "hamlet", "population_source": "class_default", "osm_id": "10861894807"}}, {"type": "Feature", "geometry": {"type": "Point", "coordinates": [76.9152788, 10.1377183]}, "properties": {"name": "Perumbankuthu", "population": 250, "place_class": "hamlet", "population_source": "class_default", "osm_id": "12986233680"}}, {"type": "Feature", "geometry": {"type": "Point", "coordinates": [76.9504861, 10.0859275]}, "properties": {"name": "Viripara", "population": 250, "place_class": "hamlet", "population_source": "class_default", "osm_id": "12986233696"}}, {"type": "Feature", "geometry": {"type": "Point", "coordinates": [76.8830437, 10.1170214]}, "properties": {"name": "Kurathikudy", "population": 250, "place_class": "hamlet", "population_source": "class_default", "osm_id": "13011361635"}}, {"type": "Feature", "geometry": {"type": "Point", "coordinates": [76.8254367, 10.0623968]}, "properties": {"name": "Pazhampillichal", "population": 250, "place_class": "hamlet", "population_source": "class_default", "osm_id": "13011374141"}}, {"type": "Feature", "geometry": {"type": "Point", "coordinates": [76.8726782, 10.0575661]}, "properties": {"name": "Padikappu", "population": 250, "place_class": "hamlet", "population_source": "class_default", "osm_id": "13011405080"}}, {"type": "Feature", "geometry": {"type": "Point", "coordinates": [76.75904, 10.1285042]}, "properties": {"name": "Urulanthanni", "population": 250, "place_class": "hamlet", "population_source": "class_default", "osm_id": "13013339818"}}]}