{"type": "FeatureCollection", "features": [{"type": "Feature", "geometry": {"type": "Point", "coordinates": [83.9761511, 21.4705391]}, "properties": {"name": "Sambalpur", "population": 184000, "place_class": "city", "population_source": "osm:population", "osm_id": "806277894"}}, {"type": "Feature", "geometry": {"type": "Point", "coordinates": [83.8788557, 21.5020693]}, "properties": {"name": "Burla", "population": 20000, "place_class": "town", "population_source": "class_default", "osm_id": "7148148513"}}, {"type": "Feature", "geometry": {"type": "Point", "coordinates": [83.8978434, 21.5312865]}, "properties": {"name": "Hirakud Township", "population": 8000, "place_class": "suburb", "population_source": "class_default", "osm_id": "1054892738"}}, {"type": "Feature", "geometry": {"type": "Point", "coordinates": [83.9036966, 21.5256807]}, "properties": {"name": "Hirakud", "population": 1500, "place_class": "village", "population_source": "class_default", "osm_id": "1621507641"}}, {"type": "Feature", "geometry": {"type": "Point", "coordinates": [83.9888477, 21.451431]}, "properties": {"name": "Dhanupali", "population": 1500, "place_class": "village", "population_source": "class_default", "osm_id": "7148229974"}}, {"type": "Feature", "geometry": {"type": "Point", "coordinates": [83.8262629, 21.4539773]}, "properties": {"name": "Silāt", "population": 1500, "place_class": "village", "population_source": "class_default", "osm_id": "8400273604"}}, {"type": "Feature", "geometry": {"type": "Point", "coordinates": [83.8275343, 21.4580314]}, "properties": {"name": "Kurapāra", "population": 1500, "place_class": "village", "population_source": "class_default", "osm_id": "8400320167"}}, {"type": "Feature", "geometry": {"type": "Point", "coordinates": [83.8742557, 21.4310764]}, "properties": {"name": "Jogipāli", "population": 1500, "place_class": "village", "population_source": "class_default", "osm_id": "8400820467"}}, {"type": "Feature", "geometry": {"type": "Point", "coordinates": [83.8546783, 21.4401992]}, "properties": {"name": "Nilepāli", "population": 1500, "place_class": "village", "population_source": "class_default", "osm_id": "8400820468"}}, {"type": "Feature", "geometry": {"type": "Point", "coordinates": [83.8502955, 21.4504624]}, "properties": {"name": "Lahanda", "population": 1500, "place_class": "village", "population_source": "class_default", "osm_id": "8400834275"}}, {"type": "Feature", "geometry": {"type": "Point", "coordinates": [83.8439226, 21.4749253]}, "properties": {"name": "Nuabatimunda", "population": 1500, "place_class": "village", "population_source": "class_default", "osm_id": "8400946364"}}, {"type": "Feature", "geometry": {"type": "Point", "coordinates": [83.8350016, 21.4247395]}, "properties": {"name": "Kendupali", "population": 1500, "place_class": "village", "population_source": "class_default", "osm_id": "8405959500"}}, {"type": "Feature", "geometry": {"type": "Point", "coordinates": [83.8537502, 21.4275035]}, "properties": {"name": "Pipalipāli", "population": 250, "place_class": "hamlet", "population_source": "class_default", "osm_id": "8400820466"}}, {"type": "Feature", "geometry": {"type": "Point", "coordinates": [83.8527203, 21.4475066]}, "properties": {"name": "Jhānkarpāli", "population": 250, "place_class": "hamlet", "population_source": "class_default", "osm_id": "8400820469"}}, {"type": "Feature", "geometry": {"type": "Point", "coordinates": [83.8422221, 21.4717004]}, "properties": {"name": "Bahiāmunda", "population": 250, "place_class": "hamlet", "population_source": "class_default", "osm_id": "8400827306"}}, {"type": "Feature", "geometry": {"type": "Point", "coordinates": [83.8647352, 21.4572163]}, "properties": {"name": "Kūdapāra", "population": 250, "place_class": "hamlet", "population_source": "class_default", "osm_id": "8400834288"}}]}