{"type": "FeatureCollection", "features": [{"type": "Feature", "geometry": {"type": "Point", "coordinates": [73.7902364, 20.0112475]}, "properties": {"name": "Nashik", "population": 1486000, "place_class": "city", "population_source": "osm:population", "osm_id": "245686763"}}, {"type": "Feature", "geometry": {"type": "Point", "coordinates": [73.7376531, 20.0004922]}, "properties": {"name": "Satpur", "population": 8000, "place_class": "suburb", "population_source": "class_default", "osm_id": "660236323"}}, {"type": "Feature", "geometry": {"type": "Point", "coordinates": [73.7935717, 20.0066847]}, "properties": {"name": "Panchavati", "population": 8000, "place_class": "suburb", "population_source": "class_default", "osm_id": "2629584786"}}, {"type": "Feature", "geometry": {"type": "Point", "coordinates": [73.7502085, 19.9740999]}, "properties": {"name": "Kamathwade", "population": 8000, "place_class": "suburb", "population_source": "class_default", "osm_id": "7271067814"}}, {"type": "Feature", "geometry": {"type": "Point", "coordinates": [73.7280786, 19.9670162]}, "properties": {"name": "Chunchale", "population": 8000, "place_class": "suburb", "population_source": "class_default", "osm_id": "13446776792"}}, {"type": "Feature", "geometry": {"type": "Point", "coordinates": [73.7793088, 19.9833412]}, "properties": {"name": "Govind Nagar", "population": 8000, "place_class": "suburb", "population_source": "class_default", "osm_id": "13446879337"}}, {"type": "Feature", "geometry": {"type": "Point", "coordinates": [73.7764281, 20.0039291]}, "properties": {"name": "Pandit Colony", "population": 8000, "place_class": "suburb", "population_source": "class_default", "osm_id": "13447309669"}}, {"type": "Feature", "geometry": {"type": "Point", "coordinates": [73.7564563, 20.0054918]}, "properties": {"name": "Parijat Nagar", "population": 8000, "place_class": "suburb", "population_source": "class_default", "osm_id": "13447351783"}}, {"type": "Feature", "geometry": {"type": "Point", "coordinates": [73.769685, 20.0025076]}, "properties": {"name": "Canada Corner", "population": 8000, "place_class": "suburb", "population_source": "class_default", "osm_id": "13447614045"}}, {"type": "Feature", "geometry": {"type": "Point", "coordinates": [73.7868082, 20.0012474]}, "properties": {"name": "Shalimar", "population": 8000, "place_class": "suburb", "population_source": "class_default", "osm_id": "13447622459"}}, {"type": "Feature", "geometry": {"type": "Point", "coordinates": [73.8026547, 19.9932524]}, "properties": {"name": "Dwarka", "population": 8000, "place_class": "suburb", "population_source": "class_default", "osm_id": "13447746724"}}, {"type": "Feature", "geometry": {"type": "Point", "coordinates": [73.7812185, 19.9734698]}, "properties": {"name": "Indira Nagar", "population": 8000, "place_class": "suburb", "population_source": "class_default", "osm_id": "13448712160"}}, {"type": "Feature", "geometry": {"type": "Point", "coordinates": [73.7598681, 19.968186]}, "properties": {"name": "CIDCO", "population": 8000, "place_class": "suburb", "population_source": "class_default", "osm_id": "13448712162"}}, {"type": "Feature", "geometry": {"type": "Point", "coordinates": [73.7536025, 20.0165608]}, "properties": {"name": "Veer Savarkar Nagar", "population": 8000, "place_class": "suburb", "population_source": "class_default", "osm_id": "13450167973"}}, {"type": "Feature", "geometry": {"type": "Point", "coordinates": [73.7145281, 19.9895219]}, "properties": {"name": "Ashok Nagar", "population": 8000, "place_class": "suburb", "population_source": "class_default", "osm_id": "13476206229"}}, {"type": "Feature", "geometry": {"type": "Point", "coordinates": [73.7396121, 20.0134156]}, "properties": {"name": "Anandwali", "population": 8000, "place_class": "suburb", "population_source": "class_default", "osm_id": "13476206263"}}, {"type": "Feature", "geometry": {"type": "Point", "coordinates": [73.8000583, 19.9705052]}, "properties": {"name": "Wadala", "population": 8000, "place_class": "suburb", "population_source": "class_default", "osm_id": "13476206274"}}, {"type": "Feature", "geometry": {"type": "Point", "coordinates": [73.8049507, 20.0463365]}, "properties": {"name": "Mhasrul", "population": 8000, "place_class": "suburb", "population_source": "class_default", "osm_id": "13476212114"}}, {"type": "Feature", "geometry": {"type": "Point", "coordinates": [73.7752103, 20.0462156]}, "properties": {"name": "Makhamalabad", "population": 8000, "place_class": "suburb", "population_source": "class_default", "osm_id": "13476212115"}}, {"type": "Feature", "geometry": {"type": "Point", "coordinates": [73.7283152, 19.9699266]}, "properties": {"name": "Sanjeev Nagar", "population": 8000, "place_class": "suburb", "population_source": "class_default", "osm_id": "13541184953"}}, {"type": "Feature", "geometry": {"type": "Point", "coordinates": [73.6888702, 19.9677846]}, "properties": {"name": "Belgaon Dhaga", "population": 1500, "place_class": "village", "population_source": "class_default", "osm_id": "3382890295"}}, {"type": "Feature", "geometry": {"type": "Point", "coordinates": [73.7166847, 20.029986]}, "properties": {"name": "Gangapur", "population": 1500, "place_class": "village", "population_source": "class_default", "osm_id": "4050236379"}}, {"type": "Feature", "geometry": {"type": "Point", "coordinates": [73.661174, 19.9663436]}, "properties": {"name": "Mahiravni", "population": 1500, "place_class": "village", "population_source": "class_default", "osm_id": "11400091815"}}, {"type": "Feature", "geometry": {"type": "Point", "coordinates": [73.6856889, 20.0729827]}, "properties": {"name": "Dugaon", "population": 1500, "place_class": "village", "population_source": "class_default", "osm_id": "13447690150"}}, {"type": "Feature", "geometry": {"type": "Point", "coordinates": [73.6612272, 20.073668]}, "properties": {"name": "Girnare", "population": 1500, "place_class": "village", "population_source": "class_default", "osm_id": "13447690151"}}]}