{"type": "FeatureCollection", "features": [{"type": "Feature", "geometry": {"type": "Point", "coordinates": [75.9867934, 31.8969901]}, "properties": {"name": "Kotla", "population": 1500, "place_class": "village", "population_source": "class_default", "osm_id": "3066821492"}}, {"type": "Feature", "geometry": {"type": "Point", "coordinates": [75.9978819, 31.7790275]}, "properties": {"name": "Daulatpur", "population": 1500, "place_class": "village", "population_source": "class_default", "osm_id": "4859551053"}}, {"type": "Feature", "geometry": {"type": "Point", "coordinates": [75.9209239, 31.8552246]}, "properties": {"name": "Lehra", "population": 1500, "place_class": "village", "population_source": "class_default", "osm_id": "6003320674"}}, {"type": "Feature", "geometry": {"type": "Point", "coordinates": [75.9144974, 31.840178]}, "properties": {"name": "Dharmpur", "population": 1500, "place_class": "village", "population_source": "class_default", "osm_id": "6003320691"}}, {"type": "Feature", "geometry": {"type": "Point", "coordinates": [75.9287774, 31.8682916]}, "properties": {"name": "Batwarah", "population": 1500, "place_class": "village", "population_source": "class_default", "osm_id": "6003320844"}}, {"type": "Feature", "geometry": {"type": "Point", "coordinates": [75.9387445, 31.8659408]}, "properties": {"name": "Amroh", "population": 1500, "place_class": "village", "population_source": "class_default", "osm_id": "6003320845"}}, {"type": "Feature", "geometry": {"type": "Point", "coordinates": [75.9432292, 31.8573297]}, "properties": {"name": "Nangal Khanauran", "population": 1500, "place_class": "village", "population_source": "class_default", "osm_id": "6003320889"}}, {"type": "Feature", "geometry": {"type": "Point", "coordinates": [75.8907008, 31.5844398]}, "properties": {"name": "Baghpur", "population": 1500, "place_class": "village", "population_source": "class_default", "osm_id": "6006650607"}}, {"type": "Feature", "geometry": {"type": "Point", "coordinates": [75.9670687, 31.5946938]}, "properties": {"name": "Chohal", "population": 1500, "place_class": "village", "population_source": "class_default", "osm_id": "6006650641"}}, {"type": "Feature", "geometry": {"type": "Point", "coordinates": [75.8935546, 31.8925709]}, "properties": {"name": "Baiwala", "population": 1500, "place_class": "village", "population_source": "class_default", "osm_id": "6009964185"}}, {"type": "Feature", "geometry": {"type": "Point", "coordinates": [75.896312, 31.8866132]}, "properties": {"name": "Dugral", "population": 1500, "place_class": "village", "population_source": "class_default", "osm_id": "6009964186"}}, {"type": "Feature", "geometry": {"type": "Point", "coordinates": [75.9256983, 31.8738769]}, "properties": {"name": "Chak Bartahgli", "population": 1500, "place_class": "village", "population_source": "class_default", "osm_id": "6009964187"}}, {"type": "Feature", "geometry": {"type": "Point", "coordinates": [75.9215784, 31.878651]}, "properties": {"name": "Bhol Kalota", "population": 1500, "place_class": "village", "population_source": "class_default", "osm_id": "6009964188"}}, {"type": "Feature", "geometry": {"type": "Point", "coordinates": [75.8949279, 31.8597719]}, "properties": {"name": "Sukhchainpur", "population": 1500, "place_class": "village", "population_source": "class_default", "osm_id": "6009964189"}}, {"type": "Feature", "geometry": {"type": "Point", "coordinates": [75.9124803, 31.8696857]}, "properties": {"name": "Palohar", "population": 1500, "place_class": "village", "population_source": "class_default", "osm_id": "6009964190"}}, {"type": "Feature", "geometry": {"type": "Point", "coordinates": [75.9081244, 31.8720546]}, "properties": {"name": "Hararbara", "population": 1500, "place_class": "village", "population_source": "class_default", "osm_id": "6009964191"}}, {"type": "Feature", "geometry": {"type": "Point", "coordinates": [75.9074163, 31.8745511]}, "properties": {"name": "Baringli", "population": 1500, "place_class": "village", "population_source": "class_default", "osm_id": "6009964192"}}, {"type": "Feature", "geometry": {"type": "Point", "coordinates": [75.8866024, 31.8714897]}, "properties": {"name": "Bering", "population": 1500, "place_class": "village", "population_source": "class_default", "osm_id": "6009964398"}}, {"type": "Feature", "geometry": {"type": "Point", "coordinates": [75.9031033, 31.8504311]}, "properties": {"name": "Bhol Badmarian", "population": 1500, "place_class": "village", "population_source": "class_default", "osm_id": "6009964400"}}]}