{"type": "FeatureCollection", "features": [{"type": "Feature", "geometry": {"type": "Point", "coordinates": [79.1585757, 14.1935867]}, "properties": {"name": "Rajampeta", "population": 10000, "place_class": "town", "population_source": "osm:population", "osm_id": "3320527151"}}, {"type": "Feature", "geometry": {"type": "Point", "coordinates": [79.0264042, 14.3955933]}, "properties": {"name": "Vontimitta", "population": 16067, "place_class": "village", "population_source": "osm:population", "osm_id": "3323622780"}}, {"type": "Feature", "geometry": {"type": "Point", "coordinates": [79.1079557, 14.2704112]}, "properties": {"name": "Nandaluru", "population": 5481, "place_class": "village", "population_source": "osm:population", "osm_id": "245626858"}}, {"type": "Feature", "geometry": {"type": "Point", "coordinates": [79.2633321, 14.3045278]}, "properties": {"name": "Penagaluru", "population": 4615, "place_class": "village", "population_source": "osm:population", "osm_id": "5999640050"}}, {"type": "Feature", "geometry": {"type": "Point", "coordinates": [79.0310039, 14.4409153]}, "properties": {"name": "Tappetavaripalle", "population": 142, "place_class": "village", "population_source": "worldpop2020", "osm_id": "5461484059"}}, {"type": "Feature", "geometry": {"type": "Point", "coordinates": [79.0196222, 14.4422239]}, "properties": {"name": "Narasannapalle", "population": 402, "place_class": "village", "population_source": "worldpop2020", "osm_id": "5461484062"}}, {"type": "Feature", "geometry": {"type": "Point", "coordinates": [79.030887, 14.4112733]}, "properties": {"name": "Kottapalle", "population": 562, "place_class": "village", "population_source": "worldpop2020", "osm_id": "5461484063"}}, {"type": "Feature", "geometry": {"type": "Point", "coordinates": [79.0287021, 14.4150941]}, "properties": {"name": "Mukundapalle", "population": 257, "place_class": "village", "population_source": "worldpop2020", "osm_id": "5461484064"}}, {"type": "Feature", "geometry": {"type": "Point", "coordinates": [79.0196216, 14.4274647]}, "properties": {"name": "Brahmanapalle", "population": 1500, "place_class": "village", "population_source": "class_default", "osm_id": "5461484065"}}, {"type": "Feature", "geometry": {"type": "Point", "coordinates": [79.030222, 14.4321898]}, "properties": {"name": "Pennaperuru", "population": 139, "place_class": "village", "population_source": "worldpop2020", "osm_id": "5461484066"}}, {"type": "Feature", "geometry": {"type": "Point", "coordinates": [79.0261512, 14.4304319]}, "properties": {"name": "Gangaperuru", "population": 627, "place_class": "village", "population_source": "worldpop2020", "osm_id": "5461484067"}}, {"type": "Feature", "geometry": {"type": "Point", "coordinates": [79.0554407, 14.4045239]}, "properties": {"name": "Rachapalli", "population": 1500, "place_class": "village", "population_source": "class_default", "osm_id": "5461484069"}}, {"type": "Feature", "geometry": {"type": "Point", "coordinates": [79.0535516, 14.4160236]}, "properties": {"name": "Pichchiguntlapalle", "population": 1500, "place_class": "village", "population_source": "class_default", "osm_id": "5461484070"}}, {"type": "Feature", "geometry": {"type": "Point", "coordinates": [79.0490424, 14.4201338]}, "properties": {"name": "Ibrahimpeta", "population": 234, "place_class": "village", "population_source": "worldpop2020", "osm_id": "5461484071"}}, {"type": "Feature", "geometry": {"type": "Point", "coordinates": [79.0638579, 14.4054824]}, "properties": {"name": "Sitapuram", "population": 1500, "place_class": "village", "population_source": "class_default", "osm_id": "5461484073"}}, {"type": "Feature", "geometry": {"type": "Point", "coordinates": [79.0500973, 14.3971895]}, "properties": {"name": "Salabad", "population": 644, "place_class": "village", "population_source": "worldpop2020", "osm_id": "5461484074"}}, {"type": "Feature", "geometry": {"type": "Point", "coordinates": [79.0498612, 14.4220888]}, "properties": {"name": "Venkatayapalle", "population": 1500, "place_class": "village", "population_source": "class_default", "osm_id": "5461484075"}}, {"type": "Feature", "geometry": {"type": "Point", "coordinates": [79.0034601, 14.3884916]}, "properties": {"name": "Naravakatipalle", "population": 1500, "place_class": "village", "population_source": "class_default", "osm_id": "5461484077"}}, {"type": "Feature", "geometry": {"type": "Point", "coordinates": [78.9832126, 14.4124068]}, "properties": {"name": "Madhavaram 1", "population": 1844, "place_class": "village", "population_source": "worldpop2020", "osm_id": "5461484078"}}, {"type": "Feature", "geometry": {"type": "Point", "coordinates": [79.0083708, 14.406648]}, "properties": {"name": "Kotta Madhavaram", "population": 2069, "place_class": "village", "population_source": "worldpop2020", "osm_id": "5461484079"}}, {"type": "Feature", "geometry": {"type": "Point", "coordinates": [79.0124479, 14.418972]}, "properties": {"name": "Mohidinsahibpalle", "population": 1500, "place_class": "village", "population_source": "class_default", "osm_id": "5461484083"}}, {"type": "Feature", "geometry": {"type": "Point", "coordinates": [78.9732853, 14.4306567]}, "properties": {"name": "Nekanapuram", "population": 1500, "place_class": "village", "population_source": "class_default", "osm_id": "5461484087"}}, {"type": "Feature", "geometry": {"type": "Point", "coordinates": [78.954602, 14.4149475]}, "properties": {"name": "Bhakarapeta", "population": 11954, "place_class": "village", "population_source": "worldpop2020", "osm_id": "5461484090"}}, {"type": "Feature", "geometry": {"type": "Point", "coordinates": [79.1284166, 14.2759843]}, "properties": {"name": "Yeddulavaripalle", "population": 2248, "place_class": "village", "population_source": "worldpop2020", "osm_id": "5462004049"}}, {"type": "Feature", "geometry": {"type": "Point", "coordinates": [79.0858567, 14.2047189]}, "properties": {"name": "Muppalavandlapalle", "population": 1436, "place_class": "village", "population_source": "worldpop2020", "osm_id": "5462004291"}}, {"type": "Feature", "geometry": {"type": "Point", "coordinates": [79.0817868, 14.2093774]}, "properties": {"name": "Peddavuru", "population": 111, "place_class": "village", "population_source": "worldpop2020", "osm_id": "5462004292"}}, {"type": "Feature", "geometry": {"type": "Point", "coordinates": [79.0815074, 14.2146892]}, "properties": {"name": "Gangarajunarayanarajupallepalle", "population": 443, "place_class": "village", "population_source": "worldpop2020", "osm_id": "5462004293"}}, {"type": "Feature", "geometry": {"type": "Point", "coordinates": [79.0829949, 14.2065218]}, "properties": {"name": "Lachchayyagaripalle", "population": 445, "place_class": "village", "population_source": "worldpop2020", "osm_id": "5462004294"}}, {"type": "Feature", "geometry": {"type": "Point", "coordinates": [79.0808473, 14.2177487]}, "properties": {"name": "Narayanarajupalle", "population": 641, "place_class": "village", "population_source": "worldpop2020", "osm_id": "5462004295"}}, {"type": "Feature", "geometry": {"type": "Point", "coordinates": [79.0722843, 14.2468604]}, "properties": {"name": "Mandapalle", "population": 991, "place_class": "village", "population_source": "worldpop2020", "osm_id": "5462004296"}}, {"type": "Feature", "geometry": {"type": "Point", "coordinates": [79.07769, 14.2382911]}, "properties": {"name": "Eguvapalle", "population": 918, "place_class": "village", "population_source": "worldpop2020", "osm_id": "5462004297"}}, {"type": "Feature", "geometry": {"type": "Point", "coordinates": [79.0795006, 14.226227]}, "properties": {"name": "Badangadda", "population": 530, "place_class": "village", "population_source": "worldpop2020", "osm_id": "5462004298"}}, {"type": "Feature", "geometry": {"type": "Point", "coordinates": [79.0851299, 14.227292]}, "properties": {"name": "Baireddipalle", "population": 589, "place_class": "village", "population_source": "worldpop2020", "osm_id": "5462004299"}}, {"type": "Feature", "geometry": {"type": "Point", "coordinates": [79.0761081, 14.2585208]}, "properties": {"name": "Patur", "population": 949, "place_class": "village", "population_source": "worldpop2020", "osm_id": "5462004300"}}, {"type": "Feature", "geometry": {"type": "Point", "coordinates": [79.0741846, 14.2626692]}, "properties": {"name": "Rachapalle", "population": 1068, "place_class": "village", "population_source": "worldpop2020", "osm_id": "5462004301"}}, {"type": "Feature", "geometry": {"type": "Point", "coordinates": [79.0974367, 14.2598451]}, "properties": {"name": "Kummarapalle", "population": 650, "place_class": "village", "population_source": "worldpop2020", "osm_id": "5462004303"}}, {"type": "Feature", "geometry": {"type": "Point", "coordinates": [79.0992575, 14.2767288]}, "properties": {"name": "Narayanarajupalle", "population": 4105, "place_class": "village", "population_source": "worldpop2020", "osm_id": "5462004304"}}, {"type": "Feature", "geometry": {"type": "Point", "coordinates": [79.1041017, 14.2617786]}, "properties": {"name": "Gollapalle", "population": 1249, "place_class": "village", "population_source": "worldpop2020", "osm_id": "5462004305"}}, {"type": "Feature", "geometry": {"type": "Point", "coordinates": [79.0926814, 14.2666591]}, "properties": {"name": "Diguvapalle", "population": 510, "place_class": "village", "population_source": "worldpop2020", "osm_id": "5462004307"}}, {"type": "Feature", "geometry": {"type": "Point", "coordinates": [79.1132048, 14.2373188]}, "properties": {"name": "Konarajupalle", "population": 937, "place_class": "village", "population_source": "worldpop2020", "osm_id": "5462004309"}}, {"type": "Feature", "geometry": {"type": "Point", "coordinates": [79.1139917, 14.2521689]}, "properties": {"name": "Gundlur", "population": 3387, "place_class": "village", "population_source": "worldpop2020", "osm_id": "5462004314"}}, {"type": "Feature", "geometry": {"type": "Point", "coordinates": [79.1123465, 14.2430908]}, "properties": {"name": "Kummarapalle", "population": 512, "place_class": "village", "population_source": "worldpop2020", "osm_id": "5462004316"}}, {"type": "Feature", "geometry": {"type": "Point", "coordinates": [79.1052576, 14.2467282]}, "properties": {"name": "Kummarapalle", "population": 380, "place_class": "village", "population_source": "worldpop2020", "osm_id": "5462004317"}}, {"type": "Feature", "geometry": {"type": "Point", "coordinates": [79.0590146, 14.2470624]}, "properties": {"name": "Adavivaripalle", "population": 319, "place_class": "village", "population_source": "worldpop2020", "osm_id": "5462004962"}}, {"type": "Feature", "geometry": {"type": "Point", "coordinates": [79.0575335, 14.2601485]}, "properties": {"name": "Ganeswaram", "population": 28, "place_class": "village", "population_source": "worldpop2020", "osm_id": "5462004963"}}, {"type": "Feature", "geometry": {"type": "Point", "coordinates": [79.0483653, 14.255951]}, "properties": {"name": "Ramachandrapuram", "population": 1500, "place_class": "village", "population_source": "class_default", "osm_id": "5462004964"}}, {"type": "Feature", "geometry": {"type": "Point", "coordinates": [79.0444644, 14.2472661]}, "properties": {"name": "Pulapathuru", "population": 998, "place_class": "village", "population_source": "worldpop2020", "osm_id": "5462004966"}}, {"type": "Feature", "geometry": {"type": "Point", "coordinates": [79.043258, 14.2539265]}, "properties": {"name": "Togurupeta", "population": 138, "place_class": "village", "population_source": "worldpop2020", "osm_id": "5462004968"}}, {"type": "Feature", "geometry": {"type": "Point", "coordinates": [79.0438544, 14.2559752]}, "properties": {"name": "Salipeta", "population": 1500, "place_class": "village", "population_source": "class_default", "osm_id": "5462004969"}}, {"type": "Feature", "geometry": {"type": "Point", "coordinates": [79.0103035, 14.2609039]}, "properties": {"name": "Baggidipalle", "population": 485, "place_class": "village", "population_source": "worldpop2020", "osm_id": "5462004970"}}, {"type": "Feature", "geometry": {"type": "Point", "coordinates": [79.0194116, 14.2638813]}, "properties": {"name": "Chintalakonda", "population": 1500, "place_class": "village", "population_source": "class_default", "osm_id": "5462004971"}}, {"type": "Feature", "geometry": {"type": "Point", "coordinates": [79.172535, 14.3217814]}, "properties": {"name": "Yerracheruvupalle", "population": 226, "place_class": "village", "population_source": "worldpop2020", "osm_id": "5462004972"}}, {"type": "Feature", "geometry": {"type": "Point", "coordinates": [79.1645642, 14.3392674]}, "properties": {"name": "Chintalagunta", "population": 1500, "place_class": "village", "population_source": "class_default", "osm_id": "5462004973"}}, {"type": "Feature", "geometry": {"type": "Point", "coordinates": [79.1392303, 14.3155761]}, "properties": {"name": "Guntigaripalle", "population": 1500, "place_class": "village", "population_source": "class_default", "osm_id": "5462004978"}}, {"type": "Feature", "geometry": {"type": "Point", "coordinates": [79.0705682, 14.307193]}, "properties": {"name": "Marakundupalle", "population": 1500, "place_class": "village", "population_source": "class_default", "osm_id": "5462004980"}}, {"type": "Feature", "geometry": {"type": "Point", "coordinates": [79.0260802, 14.3086707]}, "properties": {"name": "Balajivaripalle", "population": 1500, "place_class": "village", "population_source": "class_default", "osm_id": "5462004985"}}, {"type": "Feature", "geometry": {"type": "Point", "coordinates": [79.1135685, 14.3260531]}, "properties": {"name": "Konarajupalle", "population": 462, "place_class": "village", "population_source": "worldpop2020", "osm_id": "5462004986"}}, {"type": "Feature", "geometry": {"type": "Point", "coordinates": [79.0171224, 14.3073822]}, "properties": {"name": "Patrapalle", "population": 1500, "place_class": "village", "population_source": "class_default", "osm_id": "5462004987"}}, {"type": "Feature", "geometry": {"type": "Point", "coordinates": [79.0634411, 14.3059933]}, "properties": {"name": "Boyapalle", "population": 1500, "place_class": "village", "population_source": "class_default", "osm_id": "5462004989"}}, {"type": "Feature", "geometry": {"type": "Point", "coordinates": [79.0868048, 14.322776]}, "properties": {"name": "Mantapampalle", "population": 169, "place_class": "village", "population_source": "worldpop2020", "osm_id": "5462004990"}}, {"type": "Feature", "geometry": {"type": "Point", "coordinates": [79.0285106, 14.3038556]}, "properties": {"name": "Manchalapalle", "population": 1500, "place_class": "village", "population_source": "class_default", "osm_id": "5462004991"}}, {"type": "Feature", "geometry": {"type": "Point", "coordinates": [79.0400253, 14.3868075]}, "properties": {"name": "Malakatipalle", "population": 1245, "place_class": "village", "population_source": "worldpop2020", "osm_id": "5462004996"}}, {"type": "Feature", "geometry": {"type": "Point", "coordinates": [79.0409072, 14.357534]}, "properties": {"name": "Nadimpalle", "population": 738, "place_class": "village", "population_source": "worldpop2020", "osm_id": "5462004997"}}, {"type": "Feature", "geometry": {"type": "Point", "coordinates": [79.2178245, 14.1727166]}, "properties": {"name": "Yellugaripalle", "population": 214, "place_class": "village", "population_source": "worldpop2020", "osm_id": "5763065430"}}, {"type": "Feature", "geometry": {"type": "Point", "coordinates": [79.2249156, 14.168754]}, "properties": {"name": "Gollapalle", "population": 1230, "place_class": "village", "population_source": "worldpop2020", "osm_id": "5763065431"}}, {"type": "Feature", "geometry": {"type": "Point", "coordinates": [79.212515, 14.1669312]}, "properties": {"name": "Venganagaripalle", "population": 3768, "place_class": "village", "population_source": "worldpop2020", "osm_id": "5763065434"}}, {"type": "Feature", "geometry": {"type": "Point", "coordinates": [79.1388717, 14.2023063]}, "properties": {"name": "Mulakkayalapalle", "population": 1494, "place_class": "village", "population_source": "worldpop2020", "osm_id": "5763073175"}}, {"type": "Feature", "geometry": {"type": "Point", "coordinates": [79.149461, 14.2046765]}, "properties": {"name": "Mannur", "population": 8678, "place_class": "village", "population_source": "worldpop2020", "osm_id": "5763073176"}}, {"type": "Feature", "geometry": {"type": "Point", "coordinates": [79.1829196, 14.1764139]}, "properties": {"name": "Utukur", "population": 6575, "place_class": "village", "population_source": "worldpop2020", "osm_id": "5763073179"}}, {"type": "Feature", "geometry": {"type": "Point", "coordinates": [79.125172, 14.1954959]}, "properties": {"name": "Chinndkarampalle", "population": 374, "place_class": "village", "population_source": "worldpop2020", "osm_id": "5763073181"}}, {"type": "Feature", "geometry": {"type": "Point", "coordinates": [79.1419927, 14.1825455]}, "properties": {"name": "Kuchivaripalle", "population": 3615, "place_class": "village", "population_source": "worldpop2020", "osm_id": "5763073184"}}, {"type": "Feature", "geometry": {"type": "Point", "coordinates": [79.1593439, 14.1750473]}, "properties": {"name": "Sunnapurallapalle", "population": 1713, "place_class": "village", "population_source": "worldpop2020", "osm_id": "5763073187"}}, {"type": "Feature", "geometry": {"type": "Point", "coordinates": [79.1711171, 14.1811546]}, "properties": {"name": "Bonagiripalle", "population": 1653, "place_class": "village", "population_source": "worldpop2020", "osm_id": "5763073188"}}, {"type": "Feature", "geometry": {"type": "Point", "coordinates": [79.1626871, 14.1784739]}, "properties": {"name": "Galivaripalle", "population": 1231, "place_class": "village", "population_source": "worldpop2020", "osm_id": "5763073190"}}, {"type": "Feature", "geometry": {"type": "Point", "coordinates": [78.9575159, 14.228976]}, "properties": {"name": "Vepulamitta", "population": 1500, "place_class": "village", "population_source": "class_default", "osm_id": "5925819754"}}, {"type": "Feature", "geometry": {"type": "Point", "coordinates": [79.302752, 14.3947481]}, "properties": {"name": "Pamapalle", "population": 1500, "place_class": "village", "population_source": "class_default", "osm_id": "5941188812"}}, {"type": "Feature", "geometry": {"type": "Point", "coordinates": [79.0835324, 14.2447796]}, "properties": {"name": "Agraharam", "population": 1500, "place_class": "village", "population_source": "class_default", "osm_id": "5999639362"}}, {"type": "Feature", "geometry": {"type": "Point", "coordinates": [79.0932052, 14.244935]}, "properties": {"name": "Agraharam", "population": 59, "place_class": "village", "population_source": "worldpop2020", "osm_id": "5999639363"}}, {"type": "Feature", "geometry": {"type": "Point", "coordinates": [79.0818065, 14.2293154]}, "properties": {"name": "Malavada", "population": 314, "place_class": "village", "population_source": "worldpop2020", "osm_id": "5999639364"}}, {"type": "Feature", "geometry": {"type": "Point", "coordinates": [79.0958042, 14.2234157]}, "properties": {"name": "Kottapalle", "population": 652, "place_class": "village", "population_source": "worldpop2020", "osm_id": "5999639365"}}, {"type": "Feature", "geometry": {"type": "Point", "coordinates": [79.1022521, 14.221273]}, "properties": {"name": "Medavaripalle", "population": 509, "place_class": "village", "population_source": "worldpop2020", "osm_id": "5999639366"}}, {"type": "Feature", "geometry": {"type": "Point", "coordinates": [79.1180487, 14.1965734]}, "properties": {"name": "Lingarajupalle", "population": 338, "place_class": "village", "population_source": "worldpop2020", "osm_id": "5999639368"}}, {"type": "Feature", "geometry": {"type": "Point", "coordinates": [79.1353047, 14.2217574]}, "properties": {"name": "Boyanapalli", "population": 4887, "place_class": "village", "population_source": "worldpop2020", "osm_id": "5999639371"}}, {"type": "Feature", "geometry": {"type": "Point", "coordinates": [79.1186399, 14.2266403]}, "properties": {"name": "Hastavaram", "population": 804, "place_class": "village", "population_source": "worldpop2020", "osm_id": "5999639373"}}, {"type": "Feature", "geometry": {"type": "Point", "coordinates": [79.1291125, 14.2281705]}, "properties": {"name": "Yerrapalle", "population": 2516, "place_class": "village", "population_source": "worldpop2020", "osm_id": "5999639375"}}, {"type": "Feature", "geometry": {"type": "Point", "coordinates": [79.1426501, 14.2189072]}, "properties": {"name": "Yellareddipalle", "population": 3989, "place_class": "village", "population_source": "worldpop2020", "osm_id": "5999639376"}}, {"type": "Feature", "geometry": {"type": "Point", "coordinates": [79.1205923, 14.2092356]}, "properties": {"name": "Cherlopalle", "population": 1384, "place_class": "village", "population_source": "worldpop2020", "osm_id": "5999639378"}}, {"type": "Feature", "geometry": {"type": "Point", "coordinates": [79.1497608, 14.235458]}, "properties": {"name": "Tallapaka", "population": 1593, "place_class": "village", "population_source": "worldpop2020", "osm_id": "5999639379"}}, {"type": "Feature", "geometry": {"type": "Point", "coordinates": [79.1424359, 14.2484475]}, "properties": {"name": "Madanagopalapuram", "population": 242, "place_class": "village", "population_source": "worldpop2020", "osm_id": "5999639380"}}, {"type": "Feature", "geometry": {"type": "Point", "coordinates": [79.137537, 14.250114]}, "properties": {"name": "Isukapalle", "population": 606, "place_class": "village", "population_source": "worldpop2020", "osm_id": "5999639382"}}, {"type": "Feature", "geometry": {"type": "Point", "coordinates": [79.1455386, 14.2705294]}, "properties": {"name": "Adapur", "population": 1500, "place_class": "village", "population_source": "class_default", "osm_id": "5999639886"}}, {"type": "Feature", "geometry": {"type": "Point", "coordinates": [79.1924824, 14.2919061]}, "properties": {"name": "Lebaka", "population": 21, "place_class": "village", "population_source": "worldpop2020", "osm_id": "5999639888"}}, {"type": "Feature", "geometry": {"type": "Point", "coordinates": [79.1765554, 14.2812578]}, "properties": {"name": "Nallathimmayapalle", "population": 1500, "place_class": "village", "population_source": "class_default", "osm_id": "5999639889"}}, {"type": "Feature", "geometry": {"type": "Point", "coordinates": [79.1656206, 14.2734779]}, "properties": {"name": "Ellamrajupalle", "population": 473, "place_class": "village", "population_source": "worldpop2020", "osm_id": "5999639890"}}, {"type": "Feature", "geometry": {"type": "Point", "coordinates": [79.1797344, 14.3048685]}, "properties": {"name": "Chennayagaripalle", "population": 821, "place_class": "village", "population_source": "worldpop2020", "osm_id": "5999639891"}}, {"type": "Feature", "geometry": {"type": "Point", "coordinates": [79.2289121, 14.3488398]}, "properties": {"name": "Pothapi", "population": 873, "place_class": "village", "population_source": "worldpop2020", "osm_id": "5999639893"}}, {"type": "Feature", "geometry": {"type": "Point", "coordinates": [79.218896, 14.3288053]}, "properties": {"name": "Chintakayalapalle", "population": 792, "place_class": "village", "population_source": "worldpop2020", "osm_id": "5999639897"}}, {"type": "Feature", "geometry": {"type": "Point", "coordinates": [79.2242979, 14.3107166]}, "properties": {"name": "Gattumidipalle", "population": 1500, "place_class": "village", "population_source": "class_default", "osm_id": "5999639898"}}, {"type": "Feature", "geometry": {"type": "Point", "coordinates": [79.2279134, 14.3325188]}, "properties": {"name": "Nookinenipalle", "population": 1500, "place_class": "village", "population_source": "class_default", "osm_id": "5999639899"}}, {"type": "Feature", "geometry": {"type": "Point", "coordinates": [79.2137404, 14.3381758]}, "properties": {"name": "Jangalapalle", "population": 24, "place_class": "village", "population_source": "worldpop2020", "osm_id": "5999639900"}}, {"type": "Feature", "geometry": {"type": "Point", "coordinates": [79.2253891, 14.3360635]}, "properties": {"name": "Kumpinipuram", "population": 209, "place_class": "village", "population_source": "worldpop2020", "osm_id": "5999639901"}}, {"type": "Feature", "geometry": {"type": "Point", "coordinates": [79.1965254, 14.2660778]}, "properties": {"name": "Narayana Nellore", "population": 2664, "place_class": "village", "population_source": "worldpop2020", "osm_id": "5999639902"}}, {"type": "Feature", "geometry": {"type": "Point", "coordinates": [79.1790689, 14.2454519]}, "properties": {"name": "Mandaramu", "population": 1500, "place_class": "village", "population_source": "class_default", "osm_id": "5999639904"}}, {"type": "Feature", "geometry": {"type": "Point", "coordinates": [79.1847305, 14.2470089]}, "properties": {"name": "Kottapalle", "population": 1500, "place_class": "village", "population_source": "class_default", "osm_id": "5999639905"}}, {"type": "Feature", "geometry": {"type": "Point", "coordinates": [79.1843225, 14.2250551]}, "properties": {"name": "Seshannagaripalle", "population": 763, "place_class": "village", "population_source": "worldpop2020", "osm_id": "5999639908"}}, {"type": "Feature", "geometry": {"type": "Point", "coordinates": [79.1677787, 14.2304177]}, "properties": {"name": "Appayyarajupeta", "population": 1420, "place_class": "village", "population_source": "worldpop2020", "osm_id": "5999639912"}}, {"type": "Feature", "geometry": {"type": "Point", "coordinates": [79.1933875, 14.2054945]}, "properties": {"name": "Annmalaguduvaripalle", "population": 15, "place_class": "village", "population_source": "worldpop2020", "osm_id": "5999639914"}}, {"type": "Feature", "geometry": {"type": "Point", "coordinates": [79.1857804, 14.2114319]}, "properties": {"name": "Chinna Yellugaripalle", "population": 240, "place_class": "village", "population_source": "worldpop2020", "osm_id": "5999639915"}}, {"type": "Feature", "geometry": {"type": "Point", "coordinates": [79.1939553, 14.2115112]}, "properties": {"name": "Sitarampuram", "population": 677, "place_class": "village", "population_source": "worldpop2020", "osm_id": "5999639916"}}, {"type": "Feature", "geometry": {"type": "Point", "coordinates": [79.1987778, 14.1996231]}, "properties": {"name": "Kuppavaripalle", "population": 1500, "place_class": "village", "population_source": "class_default", "osm_id": "5999639917"}}, {"type": "Feature", "geometry": {"type": "Point", "coordinates": [79.2455535, 14.2155648]}, "properties": {"name": "Govindampalle", "population": 843, "place_class": "village", "population_source": "worldpop2020", "osm_id": "5999640004"}}, {"type": "Feature", "geometry": {"type": "Point", "coordinates": [79.2328225, 14.2386887]}, "properties": {"name": "Anantapalle", "population": 231, "place_class": "village", "population_source": "worldpop2020", "osm_id": "5999640005"}}, {"type": "Feature", "geometry": {"type": "Point", "coordinates": [79.2207034, 14.2581933]}, "properties": {"name": "Nallapureddipalle", "population": 1500, "place_class": "village", "population_source": "class_default", "osm_id": "5999640007"}}, {"type": "Feature", "geometry": {"type": "Point", "coordinates": [79.2407466, 14.2530754]}, "properties": {"name": "Pondalur", "population": 684, "place_class": "village", "population_source": "worldpop2020", "osm_id": "5999640012"}}, {"type": "Feature", "geometry": {"type": "Point", "coordinates": [79.2429381, 14.24587]}, "properties": {"name": "Chakrampeta", "population": 687, "place_class": "village", "population_source": "worldpop2020", "osm_id": "5999640013"}}, {"type": "Feature", "geometry": {"type": "Point", "coordinates": [79.2656225, 14.2454551]}, "properties": {"name": "Mugavaripalle", "population": 1500, "place_class": "village", "population_source": "class_default", "osm_id": "5999640016"}}, {"type": "Feature", "geometry": {"type": "Point", "coordinates": [79.2751005, 14.2219755]}, "properties": {"name": "Timmayyagaripalle", "population": 1827, "place_class": "village", "population_source": "worldpop2020", "osm_id": "5999640022"}}, {"type": "Feature", "geometry": {"type": "Point", "coordinates": [79.2894839, 14.2337287]}, "properties": {"name": "Kattavaripalle", "population": 593, "place_class": "village", "population_source": "worldpop2020", "osm_id": "5999640025"}}, {"type": "Feature", "geometry": {"type": "Point", "coordinates": [79.289438, 14.2296305]}, "properties": {"name": "Apparajupet", "population": 953, "place_class": "village", "population_source": "worldpop2020", "osm_id": "5999640028"}}, {"type": "Feature", "geometry": {"type": "Point", "coordinates": [79.2589385, 14.2811258]}, "properties": {"name": "Singanamala", "population": 1382, "place_class": "village", "population_source": "worldpop2020", "osm_id": "5999640029"}}, {"type": "Feature", "geometry": {"type": "Point", "coordinates": [79.2613075, 14.2598647]}, "properties": {"name": "Naiduvaripalle", "population": 2567, "place_class": "village", "population_source": "worldpop2020", "osm_id": "5999640032"}}, {"type": "Feature", "geometry": {"type": "Point", "coordinates": [79.2617418, 14.2695011]}, "properties": {"name": "Itimarpuram", "population": 16, "place_class": "village", "population_source": "worldpop2020", "osm_id": "5999640033"}}, {"type": "Feature", "geometry": {"type": "Point", "coordinates": [79.2028972, 14.2965957]}, "properties": {"name": "Rachapalle", "population": 38, "place_class": "village", "population_source": "worldpop2020", "osm_id": "5999640037"}}, {"type": "Feature", "geometry": {"type": "Point", "coordinates": [79.2110986, 14.2648262]}, "properties": {"name": "Bestapalle", "population": 1345, "place_class": "village", "population_source": "worldpop2020", "osm_id": "5999640041"}}, {"type": "Feature", "geometry": {"type": "Point", "coordinates": [79.2433754, 14.2823137]}, "properties": {"name": "Srirampuram", "population": 834, "place_class": "village", "population_source": "worldpop2020", "osm_id": "5999640042"}}, {"type": "Feature", "geometry": {"type": "Point", "coordinates": [79.2239961, 14.2836875]}, "properties": {"name": "Obili", "population": 2408, "place_class": "village", "population_source": "worldpop2020", "osm_id": "5999640043"}}, {"type": "Feature", "geometry": {"type": "Point", "coordinates": [79.2316985, 14.2781042]}, "properties": {"name": "Attigaripalle", "population": 63, "place_class": "village", "population_source": "worldpop2020", "osm_id": "5999640045"}}, {"type": "Feature", "geometry": {"type": "Point", "coordinates": [79.2441151, 14.3007605]}, "properties": {"name": "Siddavaram", "population": 1991, "place_class": "village", "population_source": "worldpop2020", "osm_id": "5999640046"}}, {"type": "Feature", "geometry": {"type": "Point", "coordinates": [79.2707692, 14.2990778]}, "properties": {"name": "Indluru", "population": 1659, "place_class": "village", "population_source": "worldpop2020", "osm_id": "5999640056"}}, {"type": "Feature", "geometry": {"type": "Point", "coordinates": [79.2475882, 14.3316249]}, "properties": {"name": "Pallampadu", "population": 770, "place_class": "village", "population_source": "worldpop2020", "osm_id": "5999640058"}}, {"type": "Feature", "geometry": {"type": "Point", "coordinates": [79.2583072, 14.3361252]}, "properties": {"name": "Narasingarajupuram", "population": 1500, "place_class": "village", "population_source": "class_default", "osm_id": "5999640059"}}, {"type": "Feature", "geometry": {"type": "Point", "coordinates": [79.2714811, 14.3357296]}, "properties": {"name": "Siriyavaram", "population": 1619, "place_class": "village", "population_source": "worldpop2020", "osm_id": "5999640060"}}, {"type": "Feature", "geometry": {"type": "Point", "coordinates": [79.2787464, 14.3275684]}, "properties": {"name": "Tiranapalle", "population": 1118, "place_class": "village", "population_source": "worldpop2020", "osm_id": "5999640061"}}, {"type": "Feature", "geometry": {"type": "Point", "coordinates": [79.2894508, 14.3212124]}, "properties": {"name": "Reddivaripalle", "population": 1614, "place_class": "village", "population_source": "worldpop2020", "osm_id": "5999640062"}}, {"type": "Feature", "geometry": {"type": "Point", "coordinates": [79.2925266, 14.3161002]}, "properties": {"name": "Konduru Chennarayasamudram", "population": 638, "place_class": "village", "population_source": "worldpop2020", "osm_id": "5999640063"}}, {"type": "Feature", "geometry": {"type": "Point", "coordinates": [79.2958672, 14.3023053]}, "properties": {"name": "Upparapalle", "population": 134, "place_class": "village", "population_source": "worldpop2020", "osm_id": "5999640064"}}, {"type": "Feature", "geometry": {"type": "Point", "coordinates": [79.2922462, 14.3081259]}, "properties": {"name": "Kondur", "population": 1090, "place_class": "village", "population_source": "worldpop2020", "osm_id": "5999640065"}}, {"type": "Feature", "geometry": {"type": "Point", "coordinates": [79.2943878, 14.2931256]}, "properties": {"name": "Velagacherla", "population": 1837, "place_class": "village", "population_source": "worldpop2020", "osm_id": "5999640067"}}, {"type": "Feature", "geometry": {"type": "Point", "coordinates": [79.2220696, 14.2952889]}, "properties": {"name": "Tanguturu", "population": 2870, "place_class": "village", "population_source": "worldpop2020", "osm_id": "11285587627"}}, {"type": "Feature", "geometry": {"type": "Point", "coordinates": [79.1962367, 14.3593346]}, "properties": {"name": "Kommuru", "population": 1500, "place_class": "village", "population_source": "class_default", "osm_id": "11285587698"}}, {"type": "Feature", "geometry": {"type": "Point", "coordinates": [79.2391589, 14.3688415]}, "properties": {"name": "Chukkayapalli", "population": 817, "place_class": "village", "population_source": "worldpop2020", "osm_id": "11302096002"}}, {"type": "Feature", "geometry": {"type": "Point", "coordinates": [79.2482054, 14.3596318]}, "properties": {"name": "Chapalavaripalle", "population": 1500, "place_class": "village", "population_source": "class_default", "osm_id": "11302096003"}}, {"type": "Feature", "geometry": {"type": "Point", "coordinates": [79.126488, 14.1748959]}, "properties": {"name": "Brahmanapalle", "population": 682, "place_class": "village", "population_source": "worldpop2020", "osm_id": "11707644892"}}, {"type": "Feature", "geometry": {"type": "Point", "coordinates": [79.1289291, 14.1710339]}, "properties": {"name": "Katarupalle", "population": 1230, "place_class": "village", "population_source": "worldpop2020", "osm_id": "11707644893"}}, {"type": "Feature", "geometry": {"type": "Point", "coordinates": [79.1945357, 14.3621103]}, "properties": {"name": "Konapuram", "population": 595, "place_class": "village", "population_source": "worldpop2020", "osm_id": "13534472130"}}, {"type": "Feature", "geometry": {"type": "Point", "coordinates": [79.1883591, 14.3690913]}, "properties": {"name": "Venkata Rajampeta", "population": 581, "place_class": "village", "population_source": "worldpop2020", "osm_id": "13534472141"}}, {"type": "Feature", "geometry": {"type": "Point", "coordinates": [79.0555079, 14.4140513]}, "properties": {"name": "Rachagudipalle", "population": 250, "place_class": "hamlet", "population_source": "class_default", "osm_id": "5461484072"}}, {"type": "Feature", "geometry": {"type": "Point", "coordinates": [79.000549, 14.405397]}, "properties": {"name": "Malleswarapuram", "population": 563, "place_class": "hamlet", "population_source": "worldpop2020", "osm_id": "5461484076"}}, {"type": "Feature", "geometry": {"type": "Point", "coordinates": [78.9976212, 14.4103731]}, "properties": {"name": "Sainagar", "population": 720, "place_class": "hamlet", "population_source": "worldpop2020", "osm_id": "5461484081"}}, {"type": "Feature", "geometry": {"type": "Point", "coordinates": [79.0160375, 14.3930987]}, "properties": {"name": "Vontimitta Rs", "population": 854, "place_class": "hamlet", "population_source": "worldpop2020", "osm_id": "5461484084"}}, {"type": "Feature", "geometry": {"type": "Point", "coordinates": [79.023676, 14.4023889]}, "properties": {"name": "Chenchugaripalle", "population": 805, "place_class": "hamlet", "population_source": "worldpop2020", "osm_id": "5461484085"}}, {"type": "Feature", "geometry": {"type": "Point", "coordinates": [79.0020296, 14.4210535]}, "properties": {"name": "Shakarajupalle", "population": 331, "place_class": "hamlet", "population_source": "worldpop2020", "osm_id": "5461484086"}}, {"type": "Feature", "geometry": {"type": "Point", "coordinates": [78.9561378, 14.430592]}, "properties": {"name": "XIth Betalian", "population": 755, "place_class": "hamlet", "population_source": "worldpop2020", "osm_id": "5461484088"}}, {"type": "Feature", "geometry": {"type": "Point", "coordinates": [78.965644, 14.4080332]}, "properties": {"name": "Mittapalle", "population": 678, "place_class": "hamlet", "population_source": "worldpop2020", "osm_id": "5461484089"}}, {"type": "Feature", "geometry": {"type": "Point", "coordinates": [78.9701304, 14.4219677]}, "properties": {"name": "Attulavaripalle", "population": 250, "place_class": "hamlet", "population_source": "class_default", "osm_id": "5461484091"}}, {"type": "Feature", "geometry": {"type": "Point", "coordinates": [78.9613956, 14.4173011]}, "properties": {"name": "Parayyagaripalle", "population": 250, "place_class": "hamlet", "population_source": "class_default", "osm_id": "5461484092"}}, {"type": "Feature", "geometry": {"type": "Point", "coordinates": [78.9694263, 14.4246135]}, "properties": {"name": "Palakondrayanipalle", "population": 250, "place_class": "hamlet", "population_source": "class_default", "osm_id": "5461484093"}}, {"type": "Feature", "geometry": {"type": "Point", "coordinates": [78.9587073, 14.4043951]}, "properties": {"name": "Peddapalle", "population": 250, "place_class": "hamlet", "population_source": "class_default", "osm_id": "5461484094"}}, {"type": "Feature", "geometry": {"type": "Point", "coordinates": [78.9640056, 14.422484]}, "properties": {"name": "Kommanavaripalle", "population": 250, "place_class": "hamlet", "population_source": "class_default", "osm_id": "5461484095"}}, {"type": "Feature", "geometry": {"type": "Point", "coordinates": [78.960779, 14.4083142]}, "properties": {"name": "Diguva Malawada", "population": 250, "place_class": "hamlet", "population_source": "class_default", "osm_id": "5461484096"}}, {"type": "Feature", "geometry": {"type": "Point", "coordinates": [78.9610322, 14.4108276]}, "properties": {"name": "Srirampalle", "population": 250, "place_class": "hamlet", "population_source": "class_default", "osm_id": "5461484097"}}, {"type": "Feature", "geometry": {"type": "Point", "coordinates": [78.9676742, 14.4217517]}, "properties": {"name": "Akuropalli", "population": 250, "place_class": "hamlet", "population_source": "class_default", "osm_id": "5461484099"}}, {"type": "Feature", "geometry": {"type": "Point", "coordinates": [78.9662353, 14.4175999]}, "properties": {"name": "Boguduvaripalle", "population": 250, "place_class": "hamlet", "population_source": "class_default", "osm_id": "5461484100"}}, {"type": "Feature", "geometry": {"type": "Point", "coordinates": [78.969356, 14.4176372]}, "properties": {"name": "Vaddavaripalle", "population": 250, "place_class": "hamlet", "population_source": "class_default", "osm_id": "5461484101"}}, {"type": "Feature", "geometry": {"type": "Point", "coordinates": [78.95788, 14.4091535]}, "properties": {"name": "New Malawada", "population": 513, "place_class": "hamlet", "population_source": "worldpop2020", "osm_id": "5461484102"}}, {"type": "Feature", "geometry": {"type": "Point", "coordinates": [79.1098818, 14.2631587]}, "properties": {"name": "Turakapalle", "population": 6069, "place_class": "hamlet", "population_source": "worldpop2020", "osm_id": "5462004302"}}, {"type": "Feature", "geometry": {"type": "Point", "coordinates": [79.1009661, 14.2703689]}, "properties": {"name": "Nagireddipalle", "population": 2707, "place_class": "hamlet", "population_source": "worldpop2020", "osm_id": "5462004306"}}, {"type": "Feature", "geometry": {"type": "Point", "coordinates": [79.10073, 14.2612927]}, "properties": {"name": "Rachapalle", "population": 660, "place_class": "hamlet", "population_source": "worldpop2020", "osm_id": "5462004308"}}, {"type": "Feature", "geometry": {"type": "Point", "coordinates": [79.115272, 14.2445833]}, "properties": {"name": "Choppavaripalle", "population": 496, "place_class": "hamlet", "population_source": "worldpop2020", "osm_id": "5462004310"}}, {"type": "Feature", "geometry": {"type": "Point", "coordinates": [79.1112973, 14.2468658]}, "properties": {"name": "Annagaripalle", "population": 618, "place_class": "hamlet", "population_source": "worldpop2020", "osm_id": "5462004311"}}, {"type": "Feature", "geometry": {"type": "Point", "coordinates": [79.0329807, 14.257849]}, "properties": {"name": "Nutipalle", "population": 241, "place_class": "hamlet", "population_source": "worldpop2020", "osm_id": "5462004967"}}, {"type": "Feature", "geometry": {"type": "Point", "coordinates": [79.0604929, 14.3040606]}, "properties": {"name": "Katikavaripalle", "population": 250, "place_class": "hamlet", "population_source": "class_default", "osm_id": "5462004975"}}, {"type": "Feature", "geometry": {"type": "Point", "coordinates": [79.0476514, 14.3082242]}, "properties": {"name": "Dasaripalle", "population": 250, "place_class": "hamlet", "population_source": "class_default", "osm_id": "5462004976"}}, {"type": "Feature", "geometry": {"type": "Point", "coordinates": [79.0781632, 14.3209695]}, "properties": {"name": "Ramachandrapuram", "population": 1517, "place_class": "hamlet", "population_source": "worldpop2020", "osm_id": "5462004977"}}, {"type": "Feature", "geometry": {"type": "Point", "coordinates": [79.0709506, 14.312803]}, "properties": {"name": "Vengampalle", "population": 250, "place_class": "hamlet", "population_source": "class_default", "osm_id": "5462004979"}}, {"type": "Feature", "geometry": {"type": "Point", "coordinates": [79.0852432, 14.3262052]}, "properties": {"name": "Marayigaripalle", "population": 21, "place_class": "hamlet", "population_source": "worldpop2020", "osm_id": "5462004982"}}, {"type": "Feature", "geometry": {"type": "Point", "coordinates": [79.0192055, 14.3097817]}, "properties": {"name": "Kamalipalle", "population": 250, "place_class": "hamlet", "population_source": "class_default", "osm_id": "5462004988"}}, {"type": "Feature", "geometry": {"type": "Point", "coordinates": [79.0413446, 14.3052719]}, "properties": {"name": "Chenuvaripalle", "population": 250, "place_class": "hamlet", "population_source": "class_default", "osm_id": "5462004992"}}, {"type": "Feature", "geometry": {"type": "Point", "coordinates": [79.0211875, 14.3047465]}, "properties": {"name": "Balijapalle", "population": 250, "place_class": "hamlet", "population_source": "class_default", "osm_id": "5462004993"}}, {"type": "Feature", "geometry": {"type": "Point", "coordinates": [79.087146, 14.3165718]}, "properties": {"name": "Achchammaapeta", "population": 126, "place_class": "hamlet", "population_source": "worldpop2020", "osm_id": "5462004994"}}, {"type": "Feature", "geometry": {"type": "Point", "coordinates": [79.031472, 14.3611733]}, "properties": {"name": "Cherlapalle", "population": 120, "place_class": "hamlet", "population_source": "worldpop2020", "osm_id": "5462004995"}}, {"type": "Feature", "geometry": {"type": "Point", "coordinates": [79.0443307, 14.3504442]}, "properties": {"name": "Polu Buchchayyagaripalle", "population": 250, "place_class": "hamlet", "population_source": "class_default", "osm_id": "5462004998"}}, {"type": "Feature", "geometry": {"type": "Point", "coordinates": [79.2238724, 14.1724831]}, "properties": {"name": "Ramasamudram", "population": 605, "place_class": "hamlet", "population_source": "worldpop2020", "osm_id": "5763065432"}}, {"type": "Feature", "geometry": {"type": "Point", "coordinates": [79.1646259, 14.1870655]}, "properties": {"name": "Basinagaripalle", "population": 3163, "place_class": "hamlet", "population_source": "worldpop2020", "osm_id": "5763073177"}}, {"type": "Feature", "geometry": {"type": "Point", "coordinates": [79.1673927, 14.1964705]}, "properties": {"name": "Ramanagar", "population": 5903, "place_class": "hamlet", "population_source": "worldpop2020", "osm_id": "5763073178"}}, {"type": "Feature", "geometry": {"type": "Point", "coordinates": [79.1479393, 14.1952286]}, "properties": {"name": "Narapareddipalle", "population": 2742, "place_class": "hamlet", "population_source": "worldpop2020", "osm_id": "5763073180"}}, {"type": "Feature", "geometry": {"type": "Point", "coordinates": [79.13069, 14.1945612]}, "properties": {"name": "Subbarajugaripalle", "population": 24, "place_class": "hamlet", "population_source": "worldpop2020", "osm_id": "5763073182"}}, {"type": "Feature", "geometry": {"type": "Point", "coordinates": [79.145753, 14.192832]}, "properties": {"name": "Upparapalle", "population": 1203, "place_class": "hamlet", "population_source": "worldpop2020", "osm_id": "5763073183"}}, {"type": "Feature", "geometry": {"type": "Point", "coordinates": [79.1538792, 14.1871596]}, "properties": {"name": "Balijapalle", "population": 2693, "place_class": "hamlet", "population_source": "worldpop2020", "osm_id": "5763073185"}}, {"type": "Feature", "geometry": {"type": "Point", "coordinates": [79.1510772, 14.184617]}, "properties": {"name": "Tummala Agraharam", "population": 4148, "place_class": "hamlet", "population_source": "worldpop2020", "osm_id": "5763073186"}}, {"type": "Feature", "geometry": {"type": "Point", "coordinates": [79.1593731, 14.1862834]}, "properties": {"name": "Eguva Basinagarpalle", "population": 2584, "place_class": "hamlet", "population_source": "worldpop2020", "osm_id": "5763073189"}}, {"type": "Feature", "geometry": {"type": "Point", "coordinates": [78.9433745, 14.2090491]}, "properties": {"name": "Perayyagaripalle(rachapalle)", "population": 3200, "place_class": "hamlet", "population_source": "worldpop2020", "osm_id": "5925819748"}}, {"type": "Feature", "geometry": {"type": "Point", "coordinates": [78.9506309, 14.2172367]}, "properties": {"name": "Errapapireddigaripalle", "population": 250, "place_class": "hamlet", "population_source": "class_default", "osm_id": "5925819753"}}, {"type": "Feature", "geometry": {"type": "Point", "coordinates": [78.9457189, 14.2163883]}, "properties": {"name": "Venkatrajugaripalle", "population": 250, "place_class": "hamlet", "population_source": "class_default", "osm_id": "5925819755"}}, {"type": "Feature", "geometry": {"type": "Point", "coordinates": [78.9571112, 14.2233281]}, "properties": {"name": "Jallavandlapalle", "population": 250, "place_class": "hamlet", "population_source": "class_default", "osm_id": "5925819757"}}, {"type": "Feature", "geometry": {"type": "Point", "coordinates": [79.1174859, 14.194681]}, "properties": {"name": "Hostivaripalle", "population": 371, "place_class": "hamlet", "population_source": "worldpop2020", "osm_id": "5999639367"}}, {"type": "Feature", "geometry": {"type": "Point", "coordinates": [79.1240113, 14.2005236]}, "properties": {"name": "Mittapalle", "population": 546, "place_class": "hamlet", "population_source": "worldpop2020", "osm_id": "5999639369"}}, {"type": "Feature", "geometry": {"type": "Point", "coordinates": [79.1277785, 14.2029013]}, "properties": {"name": "Dommarajupalle", "population": 506, "place_class": "hamlet", "population_source": "worldpop2020", "osm_id": "5999639370"}}, {"type": "Feature", "geometry": {"type": "Point", "coordinates": [79.1432323, 14.2343084]}, "properties": {"name": "Agraharam", "population": 441, "place_class": "hamlet", "population_source": "worldpop2020", "osm_id": "5999639372"}}, {"type": "Feature", "geometry": {"type": "Point", "coordinates": [79.11646, 14.2164239]}, "properties": {"name": "Chinna Vengannagaripalle", "population": 526, "place_class": "hamlet", "population_source": "worldpop2020", "osm_id": "5999639374"}}, {"type": "Feature", "geometry": {"type": "Point", "coordinates": [79.1211491, 14.2290453]}, "properties": {"name": "Prakash Colony", "population": 588, "place_class": "hamlet", "population_source": "worldpop2020", "osm_id": "5999639377"}}, {"type": "Feature", "geometry": {"type": "Point", "coordinates": [79.1454145, 14.2478729]}, "properties": {"name": "Homadrivaripalle", "population": 250, "place_class": "hamlet", "population_source": "class_default", "osm_id": "5999639381"}}, {"type": "Feature", "geometry": {"type": "Point", "coordinates": [79.1490154, 14.272091]}, "properties": {"name": "Rachapalle", "population": 169, "place_class": "hamlet", "population_source": "worldpop2020", "osm_id": "5999639383"}}, {"type": "Feature", "geometry": {"type": "Point", "coordinates": [79.1433707, 14.2682104]}, "properties": {"name": "Agraharam", "population": 250, "place_class": "hamlet", "population_source": "class_default", "osm_id": "5999639384"}}, {"type": "Feature", "geometry": {"type": "Point", "coordinates": [79.1580982, 14.2678832]}, "properties": {"name": "Marripalle", "population": 760, "place_class": "hamlet", "population_source": "worldpop2020", "osm_id": "5999639885"}}, {"type": "Feature", "geometry": {"type": "Point", "coordinates": [79.1841476, 14.2812801]}, "properties": {"name": "Lebaka Mangamambapuram", "population": 250, "place_class": "hamlet", "population_source": "class_default", "osm_id": "5999639887"}}, {"type": "Feature", "geometry": {"type": "Point", "coordinates": [79.1870031, 14.3092101]}, "properties": {"name": "Idugapalle", "population": 248, "place_class": "hamlet", "population_source": "worldpop2020", "osm_id": "5999639892"}}, {"type": "Feature", "geometry": {"type": "Point", "coordinates": [79.2289364, 14.3260378]}, "properties": {"name": "Kunda Nellore", "population": 250, "place_class": "hamlet", "population_source": "class_default", "osm_id": "5999639895"}}, {"type": "Feature", "geometry": {"type": "Point", "coordinates": [79.2299012, 14.3242327]}, "properties": {"name": "Komarunipalle", "population": 250, "place_class": "hamlet", "population_source": "class_default", "osm_id": "5999639896"}}, {"type": "Feature", "geometry": {"type": "Point", "coordinates": [79.1954577, 14.2595564]}, "properties": {"name": "Isukapalle", "population": 1465, "place_class": "hamlet", "population_source": "worldpop2020", "osm_id": "5999639903"}}, {"type": "Feature", "geometry": {"type": "Point", "coordinates": [79.1853129, 14.2336383]}, "properties": {"name": "Induluruvaripalle", "population": 530, "place_class": "hamlet", "population_source": "worldpop2020", "osm_id": "5999639906"}}, {"type": "Feature", "geometry": {"type": "Point", "coordinates": [79.1837429, 14.236765]}, "properties": {"name": "Gollapalle", "population": 52, "place_class": "hamlet", "population_source": "worldpop2020", "osm_id": "5999639907"}}, {"type": "Feature", "geometry": {"type": "Point", "coordinates": [79.1683223, 14.245262]}, "properties": {"name": "Attirala", "population": 250, "place_class": "hamlet", "population_source": "class_default", "osm_id": "5999639909"}}, {"type": "Feature", "geometry": {"type": "Point", "coordinates": [79.1679904, 14.2370238]}, "properties": {"name": "Kammapalle", "population": 1060, "place_class": "hamlet", "population_source": "worldpop2020", "osm_id": "5999639910"}}, {"type": "Feature", "geometry": {"type": "Point", "coordinates": [79.177419, 14.2426034]}, "properties": {"name": "Rajupalem", "population": 250, "place_class": "hamlet", "population_source": "class_default", "osm_id": "5999639911"}}, {"type": "Feature", "geometry": {"type": "Point", "coordinates": [79.1852188, 14.198739]}, "properties": {"name": "Konalopalle", "population": 250, "place_class": "hamlet", "population_source": "class_default", "osm_id": "5999639913"}}, {"type": "Feature", "geometry": {"type": "Point", "coordinates": [79.2996015, 14.1988934]}, "properties": {"name": "Potunayudupalle", "population": 250, "place_class": "hamlet", "population_source": "class_default", "osm_id": "5999639998"}}, {"type": "Feature", "geometry": {"type": "Point", "coordinates": [79.2971639, 14.2010163]}, "properties": {"name": "Nakkalapalle", "population": 250, "place_class": "hamlet", "population_source": "class_default", "osm_id": "5999639999"}}, {"type": "Feature", "geometry": {"type": "Point", "coordinates": [79.2929081, 14.205714]}, "properties": {"name": "Maratipalle", "population": 250, "place_class": "hamlet", "population_source": "class_default", "osm_id": "5999640000"}}, {"type": "Feature", "geometry": {"type": "Point", "coordinates": [79.236082, 14.2364219]}, "properties": {"name": "Yepatavoddepalleyarpalle", "population": 250, "place_class": "hamlet", "population_source": "class_default", "osm_id": "5999640006"}}, {"type": "Feature", "geometry": {"type": "Point", "coordinates": [79.2105065, 14.2694009]}, "properties": {"name": "Komantharajupuram", "population": 350, "place_class": "hamlet", "population_source": "worldpop2020", "osm_id": "5999640008"}}, {"type": "Feature", "geometry": {"type": "Point", "coordinates": [79.2319247, 14.2651362]}, "properties": {"name": "Vodetivaripalle", "population": 250, "place_class": "hamlet", "population_source": "class_default", "osm_id": "5999640009"}}, {"type": "Feature", "geometry": {"type": "Point", "coordinates": [79.2294022, 14.2602893]}, "properties": {"name": "Varadayapalle", "population": 250, "place_class": "hamlet", "population_source": "class_default", "osm_id": "5999640010"}}, {"type": "Feature", "geometry": {"type": "Point", "coordinates": [79.2291523, 14.2529161]}, "properties": {"name": "Butttireddipalle", "population": 250, "place_class": "hamlet", "population_source": "class_default", "osm_id": "5999640011"}}, {"type": "Feature", "geometry": {"type": "Point", "coordinates": [79.2543924, 14.2333277]}, "properties": {"name": "Muddanapalle", "population": 250, "place_class": "hamlet", "population_source": "class_default", "osm_id": "5999640014"}}, {"type": "Feature", "geometry": {"type": "Point", "coordinates": [79.2444724, 14.2409761]}, "properties": {"name": "Kakarlavaripalle", "population": 924, "place_class": "hamlet", "population_source": "worldpop2020", "osm_id": "5999640015"}}, {"type": "Feature", "geometry": {"type": "Point", "coordinates": [79.2444602, 14.2319874]}, "properties": {"name": "Rajapalem", "population": 11, "place_class": "hamlet", "population_source": "worldpop2020", "osm_id": "5999640017"}}, {"type": "Feature", "geometry": {"type": "Point", "coordinates": [79.2396236, 14.2323544]}, "properties": {"name": "Peramvanipalle", "population": 250, "place_class": "hamlet", "population_source": "class_default", "osm_id": "5999640018"}}, {"type": "Feature", "geometry": {"type": "Point", "coordinates": [79.240329, 14.2471622]}, "properties": {"name": "Gudlavaripalle", "population": 1155, "place_class": "hamlet", "population_source": "worldpop2020", "osm_id": "5999640019"}}, {"type": "Feature", "geometry": {"type": "Point", "coordinates": [79.2409187, 14.2384942]}, "properties": {"name": "Voddepalle", "population": 212, "place_class": "hamlet", "population_source": "worldpop2020", "osm_id": "5999640020"}}, {"type": "Feature", "geometry": {"type": "Point", "coordinates": [79.2649506, 14.2286954]}, "properties": {"name": "Kademvaripalle", "population": 250, "place_class": "hamlet", "population_source": "class_default", "osm_id": "5999640021"}}, {"type": "Feature", "geometry": {"type": "Point", "coordinates": [79.2896984, 14.2158624]}, "properties": {"name": "Maratipalle", "population": 502, "place_class": "hamlet", "population_source": "worldpop2020", "osm_id": "5999640023"}}, {"type": "Feature", "geometry": {"type": "Point", "coordinates": [79.3010884, 14.2268146]}, "properties": {"name": "Idigepalle", "population": 225, "place_class": "hamlet", "population_source": "worldpop2020", "osm_id": "5999640026"}}, {"type": "Feature", "geometry": {"type": "Point", "coordinates": [79.2880947, 14.2829816]}, "properties": {"name": "Gattuvaripalle", "population": 876, "place_class": "hamlet", "population_source": "worldpop2020", "osm_id": "5999640030"}}, {"type": "Feature", "geometry": {"type": "Point", "coordinates": [79.2805388, 14.2785905]}, "properties": {"name": "Turpupalle", "population": 123, "place_class": "hamlet", "population_source": "worldpop2020", "osm_id": "5999640031"}}, {"type": "Feature", "geometry": {"type": "Point", "coordinates": [79.2130217, 14.2999139]}, "properties": {"name": "Seshugaripalle", "population": 274, "place_class": "hamlet", "population_source": "worldpop2020", "osm_id": "5999640034"}}, {"type": "Feature", "geometry": {"type": "Point", "coordinates": [79.2107672, 14.3008945]}, "properties": {"name": "Agraharam", "population": 250, "place_class": "hamlet", "population_source": "class_default", "osm_id": "5999640035"}}, {"type": "Feature", "geometry": {"type": "Point", "coordinates": [79.2003211, 14.2946608]}, "properties": {"name": "Maratipalle", "population": 162, "place_class": "hamlet", "population_source": "worldpop2020", "osm_id": "5999640036"}}, {"type": "Feature", "geometry": {"type": "Point", "coordinates": [79.2167512, 14.2767799]}, "properties": {"name": "Diguva Rachavaripalle", "population": 23, "place_class": "hamlet", "population_source": "worldpop2020", "osm_id": "5999640038"}}, {"type": "Feature", "geometry": {"type": "Point", "coordinates": [79.2088096, 14.2719722]}, "properties": {"name": "Jattivaripalle", "population": 250, "place_class": "hamlet", "population_source": "class_default", "osm_id": "5999640039"}}, {"type": "Feature", "geometry": {"type": "Point", "coordinates": [79.2145123, 14.2761401]}, "properties": {"name": "Rachavaripalle", "population": 250, "place_class": "hamlet", "population_source": "class_default", "osm_id": "5999640040"}}, {"type": "Feature", "geometry": {"type": "Point", "coordinates": [79.2500172, 14.3110872]}, "properties": {"name": "Diguvapalle", "population": 1485, "place_class": "hamlet", "population_source": "worldpop2020", "osm_id": "5999640047"}}, {"type": "Feature", "geometry": {"type": "Point", "coordinates": [79.2443132, 14.2966906]}, "properties": {"name": "Tirumala Rajupeta", "population": 85, "place_class": "hamlet", "population_source": "worldpop2020", "osm_id": "5999640048"}}, {"type": "Feature", "geometry": {"type": "Point", "coordinates": [79.2533745, 14.2908854]}, "properties": {"name": "Singareddipalle", "population": 54, "place_class": "hamlet", "population_source": "worldpop2020", "osm_id": "5999640049"}}, {"type": "Feature", "geometry": {"type": "Point", "coordinates": [79.270326, 14.3016265]}, "properties": {"name": "Kottapalle", "population": 1261, "place_class": "hamlet", "population_source": "worldpop2020", "osm_id": "5999640051"}}, {"type": "Feature", "geometry": {"type": "Point", "coordinates": [79.2684902, 14.3052757]}, "properties": {"name": "Nagiraddipalle", "population": 1305, "place_class": "hamlet", "population_source": "worldpop2020", "osm_id": "5999640052"}}, {"type": "Feature", "geometry": {"type": "Point", "coordinates": [79.2603823, 14.2920083]}, "properties": {"name": "Kambhalakunta", "population": 1415, "place_class": "hamlet", "population_source": "worldpop2020", "osm_id": "5999640053"}}, {"type": "Feature", "geometry": {"type": "Point", "coordinates": [79.2668106, 14.2929677]}, "properties": {"name": "Abbanapalle", "population": 1627, "place_class": "hamlet", "population_source": "worldpop2020", "osm_id": "5999640054"}}, {"type": "Feature", "geometry": {"type": "Point", "coordinates": [79.2558489, 14.323368]}, "properties": {"name": "Kotichinnayagaripalle", "population": 250, "place_class": "hamlet", "population_source": "class_default", "osm_id": "5999640057"}}, {"type": "Feature", "geometry": {"type": "Point", "coordinates": [79.2705812, 14.2953837]}, "properties": {"name": "Satupalle", "population": 1603, "place_class": "hamlet", "population_source": "worldpop2020", "osm_id": "7125599278"}}, {"type": "Feature", "geometry": {"type": "Point", "coordinates": [79.2211167, 14.2496486]}, "properties": {"name": "Nadimpalli", "population": 707, "place_class": "hamlet", "population_source": "worldpop2020", "osm_id": "7125955901"}}, {"type": "Feature", "geometry": {"type": "Point", "coordinates": [79.2105924, 14.3246781]}, "properties": {"name": "M.M Puram", "population": 170, "place_class": "hamlet", "population_source": "worldpop2020", "osm_id": "11285587696"}}, {"type": "Feature", "geometry": {"type": "Point", "coordinates": [79.0139192, 14.4069625]}, "properties": {"name": "Kondamachupalli", "population": 2384, "place_class": "hamlet", "population_source": "worldpop2020", "osm_id": "11708399544"}}, {"type": "Feature", "geometry": {"type": "Point", "coordinates": [79.0069795, 14.40863]}, "properties": {"name": "Mukunda Ashramam", "population": 1561, "place_class": "hamlet", "population_source": "worldpop2020", "osm_id": "13534517622"}}, {"type": "Feature", "geometry": {"type": "Point", "coordinates": [78.9881877, 14.4131681]}, "properties": {"name": "Bangaripeta", "population": 979, "place_class": "hamlet", "population_source": "worldpop2020", "osm_id": "13534517623"}}, {"type": "Feature", "geometry": {"type": "Point", "coordinates": [78.9868943, 14.4121839]}, "properties": {"name": "Sarswathinagar", "population": 1248, "place_class": "hamlet", "population_source": "worldpop2020", "osm_id": "13534517624"}}, {"type": "Feature", "geometry": {"type": "Point", "coordinates": [78.9790843, 14.4155358]}, "properties": {"name": "Ramakrishnapuram", "population": 702, "place_class": "hamlet", "population_source": "worldpop2020", "osm_id": "13534517625"}}, {"type": "Feature", "geometry": {"type": "Point", "coordinates": [78.9811167, 14.4171257]}, "properties": {"name": "Venkateswarapuram", "population": 742, "place_class": "hamlet", "population_source": "worldpop2020", "osm_id": "13534517626"}}, {"type": "Feature", "geometry": {"type": "Point", "coordinates": [78.9795502, 14.4132078]}, "properties": {"name": "Parvathipuram", "population": 1190, "place_class": "hamlet", "population_source": "worldpop2020", "osm_id": "13534517628"}}, {"type": "Feature", "geometry": {"type": "Point", "coordinates": [78.9746385, 14.4110136]}, "properties": {"name": "Mahbubnagar Colony", "population": 1554, "place_class": "hamlet", "population_source": "worldpop2020", "osm_id": "13534517629"}}, {"type": "Feature", "geometry": {"type": "Point", "coordinates": [78.9681262, 14.4104103]}, "properties": {"name": "Chanindeswaripeta", "population": 1642, "place_class": "hamlet", "population_source": "worldpop2020", "osm_id": "13534517630"}}]}