{"type": "FeatureCollection", "features": [{"type": "Feature", "geometry": {"type": "Point", "coordinates": [94.3160033, 27.4348123]}, "properties": {"name": "Gogamukh", "population": 20000, "place_class": "town", "population_source": "class_default", "osm_id": "2913304438"}}, {"type": "Feature", "geometry": {"type": "Point", "coordinates": [94.3006056, 27.5529109]}, "properties": {"name": "Durpai", "population": 250, "place_class": "hamlet", "population_source": "class_default", "osm_id": "9706140668"}}]}