{"type": "FeatureCollection", "features": [{"type": "Feature", "geometry": {"type": "Point", "coordinates": [83.0382342, 24.2188171]}, "properties": {"name": "Renukoot", "population": 20000, "place_class": "town", "population_source": "class_default", "osm_id": "708354349"}}, {"type": "Feature", "geometry": {"type": "Point", "coordinates": [82.9932634, 24.4676117]}, "properties": {"name": "Obra", "population": 20000, "place_class": "town", "population_source": "class_default", "osm_id": "908383933"}}, {"type": "Feature", "geometry": {"type": "Point", "coordinates": [83.0456083, 24.4514325]}, "properties": {"name": "Dalla", "population": 20000, "place_class": "town", "population_source": "class_default", "osm_id": "3791453610"}}, {"type": "Feature", "geometry": {"type": "Point", "coordinates": [83.0234741, 24.5178532]}, "properties": {"name": "Chopan", "population": 14300, "place_class": "town", "population_source": "osm:population", "osm_id": "1261187826"}}, {"type": "Feature", "geometry": {"type": "Point", "coordinates": [83.017925, 24.2036015]}, "properties": {"name": "Pipri", "population": 1500, "place_class": "village", "population_source": "class_default", "osm_id": "245720335"}}, {"type": "Feature", "geometry": {"type": "Point", "coordinates": [83.0545222, 24.2356099]}, "properties": {"name": "Beejpur Mod", "population": 1500, "place_class": "village", "population_source": "class_default", "osm_id": "2920357317"}}, {"type": "Feature", "geometry": {"type": "Point", "coordinates": [82.9602681, 24.2088075]}, "properties": {"name": "Makara", "population": 1500, "place_class": "village", "population_source": "class_default", "osm_id": "3789443303"}}, {"type": "Feature", "geometry": {"type": "Point", "coordinates": [82.9429054, 24.2064326]}, "properties": {"name": "Sendur", "population": 1500, "place_class": "village", "population_source": "class_default", "osm_id": "4506417043"}}, {"type": "Feature", "geometry": {"type": "Point", "coordinates": [82.9727338, 24.2068714]}, "properties": {"name": "Labhari", "population": 1500, "place_class": "village", "population_source": "class_default", "osm_id": "4506417044"}}, {"type": "Feature", "geometry": {"type": "Point", "coordinates": [83.055034, 24.4449298]}, "properties": {"name": "Majlispur", "population": 1500, "place_class": "village", "population_source": "class_default", "osm_id": "4843882819"}}, {"type": "Feature", "geometry": {"type": "Point", "coordinates": [83.0468238, 24.4244556]}, "properties": {"name": "Tilgudwa", "population": 250, "place_class": "hamlet", "population_source": "class_default", "osm_id": "3791453622"}}]}