{"type": "FeatureCollection", "features": [{"type": "Feature", "geometry": {"type": "Point", "coordinates": [75.1455138, 33.7368773]}, "properties": {"name": "Anantnag", "population": 150198, "place_class": "city", "population_source": "osm:population", "osm_id": "774462073"}}, {"type": "Feature", "geometry": {"type": "Point", "coordinates": [75.1061554, 33.7935169]}, "properties": {"name": "Bijbehara", "population": 22789, "place_class": "town", "population_source": "osm:population", "osm_id": "342119164"}}, {"type": "Feature", "geometry": {"type": "Point", "coordinates": [74.91303, 34.01092]}, "properties": {"name": "Pampore", "population": 21680, "place_class": "town", "population_source": "osm:population", "osm_id": "342119234"}}, {"type": "Feature", "geometry": {"type": "Point", "coordinates": [74.9275781, 33.9479845]}, "properties": {"name": "Kakapora", "population": 20000, "place_class": "town", "population_source": "class_default", "osm_id": "245774328"}}, {"type": "Feature", "geometry": {"type": "Point", "coordinates": [74.9003129, 33.8756947]}, "properties": {"name": "Pulwama", "population": 18440, "place_class": "town", "population_source": "osm:population", "osm_id": "4535533229"}}, {"type": "Feature", "geometry": {"type": "Point", "coordinates": [75.1140382, 33.926549]}, "properties": {"name": "Tral", "population": 17844, "place_class": "town", "population_source": "osm:population", "osm_id": "245774323"}}, {"type": "Feature", "geometry": {"type": "Point", "coordinates": [75.01465, 33.91891]}, "properties": {"name": "Awantipora", "population": 12647, "place_class": "town", "population_source": "osm:population", "osm_id": "342119228"}}, {"type": "Feature", "geometry": {"type": "Point", "coordinates": [75.0168893, 33.7224393]}, "properties": {"name": "Yaripora", "population": 12123, "place_class": "town", "population_source": "osm:population", "osm_id": "7794804856"}}, {"type": "Feature", "geometry": {"type": "Point", "coordinates": [74.9995393, 34.0198524]}, "properties": {"name": "Khrew", "population": 9851, "place_class": "town", "population_source": "osm:population", "osm_id": "1859090792"}}, {"type": "Feature", "geometry": {"type": "Point", "coordinates": [75.0385761, 33.7534791]}, "properties": {"name": "Frisal", "population": 5132, "place_class": "town", "population_source": "osm:population", "osm_id": "4192164445"}}, {"type": "Feature", "geometry": {"type": "Point", "coordinates": [75.01667, 33.832154]}, "properties": {"name": "Chakoora", "population": 15000, "place_class": "suburb", "population_source": "osm:population", "osm_id": "3236691113"}}, {"type": "Feature", "geometry": {"type": "Point", "coordinates": [74.870635, 34.0404157]}, "properties": {"name": "Lasjan", "population": 8000, "place_class": "suburb", "population_source": "class_default", "osm_id": "3074537847"}}, {"type": "Feature", "geometry": {"type": "Point", "coordinates": [75.0024443, 33.8136633]}, "properties": {"name": "Litter", "population": 8000, "place_class": "suburb", "population_source": "class_default", "osm_id": "3236690483"}}, {"type": "Feature", "geometry": {"type": "Point", "coordinates": [75.1491789, 33.7314746]}, "properties": {"name": "Lal Chowk", "population": 8000, "place_class": "suburb", "population_source": "class_default", "osm_id": "9141682211"}}, {"type": "Feature", "geometry": {"type": "Point", "coordinates": [74.9251037, 33.9900012]}, "properties": {"name": "Galandhar", "population": 1500, "place_class": "village", "population_source": "class_default", "osm_id": "273657291"}}, {"type": "Feature", "geometry": {"type": "Point", "coordinates": [75.1205357, 33.7486825]}, "properties": {"name": "Khanabal", "population": 1500, "place_class": "village", "population_source": "class_default", "osm_id": "342119173"}}, {"type": "Feature", "geometry": {"type": "Point", "coordinates": [75.0265957, 33.8486905]}, "properties": {"name": "Panzgom", "population": 1500, "place_class": "village", "population_source": "class_default", "osm_id": "1077030228"}}, {"type": "Feature", "geometry": {"type": "Point", "coordinates": [74.903223, 33.9754338]}, "properties": {"name": "Marval", "population": 1500, "place_class": "village", "population_source": "class_default", "osm_id": "1796926951"}}, {"type": "Feature", "geometry": {"type": "Point", "coordinates": [74.9781805, 33.7033167]}, "properties": {"name": "Hanjan", "population": 1500, "place_class": "village", "population_source": "class_default", "osm_id": "2026778612"}}, {"type": "Feature", "geometry": {"type": "Point", "coordinates": [74.8520372, 33.9591021]}, "properties": {"name": "Nowgam", "population": 1500, "place_class": "village", "population_source": "class_default", "osm_id": "3074537848"}}, {"type": "Feature", "geometry": {"type": "Point", "coordinates": [74.8556599, 33.7716613]}, "properties": {"name": "Poterwal", "population": 1500, "place_class": "village", "population_source": "class_default", "osm_id": "4133836651"}}, {"type": "Feature", "geometry": {"type": "Point", "coordinates": [74.8777452, 33.7865672]}, "properties": {"name": "Tukroo", "population": 1500, "place_class": "village", "population_source": "class_default", "osm_id": "4133836653"}}, {"type": "Feature", "geometry": {"type": "Point", "coordinates": [74.8568038, 33.7169481]}, "properties": {"name": "Gano Pora", "population": 1500, "place_class": "village", "population_source": "class_default", "osm_id": "4133860378"}}, {"type": "Feature", "geometry": {"type": "Point", "coordinates": [74.8578901, 33.7334182]}, "properties": {"name": "Pinjura", "population": 1500, "place_class": "village", "population_source": "class_default", "osm_id": "4133860379"}}, {"type": "Feature", "geometry": {"type": "Point", "coordinates": [74.8414133, 33.7077781]}, "properties": {"name": "Memender", "population": 1500, "place_class": "village", "population_source": "class_default", "osm_id": "4133889394"}}, {"type": "Feature", "geometry": {"type": "Point", "coordinates": [74.9826861, 33.9942384]}, "properties": {"name": "Gundbal", "population": 1500, "place_class": "village", "population_source": "class_default", "osm_id": "4133964648"}}, {"type": "Feature", "geometry": {"type": "Point", "coordinates": [74.9954749, 33.9960708]}, "properties": {"name": "Ladhu", "population": 1500, "place_class": "village", "population_source": "class_default", "osm_id": "4133964653"}}, {"type": "Feature", "geometry": {"type": "Point", "coordinates": [74.9673868, 33.9972182]}, "properties": {"name": "Dassu", "population": 1500, "place_class": "village", "population_source": "class_default", "osm_id": "4133964654"}}, {"type": "Feature", "geometry": {"type": "Point", "coordinates": [74.9667216, 34.0254548]}, "properties": {"name": "Wuyan", "population": 1500, "place_class": "village", "population_source": "class_default", "osm_id": "4133964683"}}, {"type": "Feature", "geometry": {"type": "Point", "coordinates": [74.8442618, 33.695128]}, "properties": {"name": "Said Pora", "population": 1500, "place_class": "village", "population_source": "class_default", "osm_id": "4133976406"}}, {"type": "Feature", "geometry": {"type": "Point", "coordinates": [74.982371, 34.0108942]}, "properties": {"name": "Androosa", "population": 1500, "place_class": "village", "population_source": "class_default", "osm_id": "4133990980"}}, {"type": "Feature", "geometry": {"type": "Point", "coordinates": [74.9642124, 34.0194537]}, "properties": {"name": "Munpora", "population": 1500, "place_class": "village", "population_source": "class_default", "osm_id": "4133990988"}}, {"type": "Feature", "geometry": {"type": "Point", "coordinates": [74.9493771, 34.0098447]}, "properties": {"name": "La Pora", "population": 1500, "place_class": "village", "population_source": "class_default", "osm_id": "4133995399"}}, {"type": "Feature", "geometry": {"type": "Point", "coordinates": [74.8963847, 34.0261473]}, "properties": {"name": "Rakh Shalina", "population": 1500, "place_class": "village", "population_source": "class_default", "osm_id": "4133995400"}}, {"type": "Feature", "geometry": {"type": "Point", "coordinates": [75.0946755, 33.7176028]}, "properties": {"name": "Khrewan Lasi Pora", "population": 1500, "place_class": "village", "population_source": "class_default", "osm_id": "4192154361"}}, {"type": "Feature", "geometry": {"type": "Point", "coordinates": [75.086356, 33.7227584]}, "properties": {"name": "Quimoh", "population": 1500, "place_class": "village", "population_source": "class_default", "osm_id": "4192161585"}}, {"type": "Feature", "geometry": {"type": "Point", "coordinates": [75.038371, 33.7721659]}, "properties": {"name": "Shere Pora", "population": 1500, "place_class": "village", "population_source": "class_default", "osm_id": "4192164907"}}, {"type": "Feature", "geometry": {"type": "Point", "coordinates": [74.9893245, 33.7628285]}, "properties": {"name": "Haider Gund", "population": 1500, "place_class": "village", "population_source": "class_default", "osm_id": "4192176190"}}, {"type": "Feature", "geometry": {"type": "Point", "coordinates": [74.9386005, 33.7785282]}, "properties": {"name": "Mala Dair", "population": 1500, "place_class": "village", "population_source": "class_default", "osm_id": "4192176191"}}, {"type": "Feature", "geometry": {"type": "Point", "coordinates": [74.9884238, 33.7758974]}, "properties": {"name": "Reshi Pora", "population": 1500, "place_class": "village", "population_source": "class_default", "osm_id": "4192176192"}}, {"type": "Feature", "geometry": {"type": "Point", "coordinates": [74.9167735, 33.7943109]}, "properties": {"name": "Nowpora", "population": 1500, "place_class": "village", "population_source": "class_default", "osm_id": "4192178162"}}, {"type": "Feature", "geometry": {"type": "Point", "coordinates": [74.905962, 33.771722]}, "properties": {"name": "Danger Pora", "population": 1500, "place_class": "village", "population_source": "class_default", "osm_id": "4192181554"}}, {"type": "Feature", "geometry": {"type": "Point", "coordinates": [74.8948052, 33.7313496]}, "properties": {"name": "Kotah Pora", "population": 1500, "place_class": "village", "population_source": "class_default", "osm_id": "4192187690"}}, {"type": "Feature", "geometry": {"type": "Point", "coordinates": [74.9078805, 33.732806]}, "properties": {"name": "Sangren", "population": 1500, "place_class": "village", "population_source": "class_default", "osm_id": "4192192795"}}, {"type": "Feature", "geometry": {"type": "Point", "coordinates": [74.9005885, 33.6769725]}, "properties": {"name": "Dangam", "population": 1500, "place_class": "village", "population_source": "class_default", "osm_id": "4192196776"}}, {"type": "Feature", "geometry": {"type": "Point", "coordinates": [75.0464468, 33.6762183]}, "properties": {"name": "Srandoo", "population": 1500, "place_class": "village", "population_source": "class_default", "osm_id": "4192205139"}}, {"type": "Feature", "geometry": {"type": "Point", "coordinates": [75.0760376, 33.8826371]}, "properties": {"name": "Bathi Pora", "population": 1500, "place_class": "village", "population_source": "class_default", "osm_id": "4192216145"}}, {"type": "Feature", "geometry": {"type": "Point", "coordinates": [75.0621974, 33.9294388]}, "properties": {"name": "Midora", "population": 1500, "place_class": "village", "population_source": "class_default", "osm_id": "4192216146"}}, {"type": "Feature", "geometry": {"type": "Point", "coordinates": [75.0486516, 33.862092]}, "properties": {"name": "Kaichak Kot", "population": 1500, "place_class": "village", "population_source": "class_default", "osm_id": "4192233121"}}, {"type": "Feature", "geometry": {"type": "Point", "coordinates": [74.9458902, 33.7591849]}, "properties": {"name": "Hoshang Pora", "population": 1500, "place_class": "village", "population_source": "class_default", "osm_id": "4192243609"}}, {"type": "Feature", "geometry": {"type": "Point", "coordinates": [75.0838187, 33.926056]}, "properties": {"name": "Gulab Bagh", "population": 1500, "place_class": "village", "population_source": "class_default", "osm_id": "4192246612"}}, {"type": "Feature", "geometry": {"type": "Point", "coordinates": [75.1027336, 33.9125056]}, "properties": {"name": "Amirabad (Drumbal)", "population": 1500, "place_class": "village", "population_source": "class_default", "osm_id": "4192248150"}}, {"type": "Feature", "geometry": {"type": "Point", "coordinates": [75.0361397, 33.8683582]}, "properties": {"name": "Reshi Pora Olar", "population": 1500, "place_class": "village", "population_source": "class_default", "osm_id": "4192248151"}}, {"type": "Feature", "geometry": {"type": "Point", "coordinates": [75.0726281, 33.8287732]}, "properties": {"name": "Sangam", "population": 1500, "place_class": "village", "population_source": "class_default", "osm_id": "6705216342"}}, {"type": "Feature", "geometry": {"type": "Point", "coordinates": [75.0237689, 33.9138597]}, "properties": {"name": "Buhoo", "population": 1500, "place_class": "village", "population_source": "class_default", "osm_id": "7169942753"}}, {"type": "Feature", "geometry": {"type": "Point", "coordinates": [75.1524001, 33.9351899]}, "properties": {"name": "Mandoora", "population": 1500, "place_class": "village", "population_source": "class_default", "osm_id": "7179228362"}}, {"type": "Feature", "geometry": {"type": "Point", "coordinates": [75.1321561, 33.9132915]}, "properties": {"name": "Pinglish", "population": 1500, "place_class": "village", "population_source": "class_default", "osm_id": "7179274434"}}, {"type": "Feature", "geometry": {"type": "Point", "coordinates": [75.0880365, 33.8929527]}, "properties": {"name": "Lariyar", "population": 1500, "place_class": "village", "population_source": "class_default", "osm_id": "7179274435"}}, {"type": "Feature", "geometry": {"type": "Point", "coordinates": [75.0903768, 33.8875258]}, "properties": {"name": "Buchoo", "population": 1500, "place_class": "village", "population_source": "class_default", "osm_id": "7179276383"}}, {"type": "Feature", "geometry": {"type": "Point", "coordinates": [75.071979, 33.8889658]}, "properties": {"name": "Amlar", "population": 1500, "place_class": "village", "population_source": "class_default", "osm_id": "7179277864"}}, {"type": "Feature", "geometry": {"type": "Point", "coordinates": [75.0845636, 33.831164]}, "properties": {"name": "Marhama", "population": 1500, "place_class": "village", "population_source": "class_default", "osm_id": "7179282162"}}, {"type": "Feature", "geometry": {"type": "Point", "coordinates": [75.149064, 33.9392877]}, "properties": {"name": "Chewa Ular", "population": 1500, "place_class": "village", "population_source": "class_default", "osm_id": "7179305163"}}, {"type": "Feature", "geometry": {"type": "Point", "coordinates": [75.0293237, 33.8839914]}, "properties": {"name": "Chersoo", "population": 1500, "place_class": "village", "population_source": "class_default", "osm_id": "7179306075"}}, {"type": "Feature", "geometry": {"type": "Point", "coordinates": [75.0764164, 33.8515041]}, "properties": {"name": "Astanpora", "population": 1500, "place_class": "village", "population_source": "class_default", "osm_id": "7179307279"}}, {"type": "Feature", "geometry": {"type": "Point", "coordinates": [75.0400991, 33.9027935]}, "properties": {"name": "Noorpora (Geru)", "population": 1500, "place_class": "village", "population_source": "class_default", "osm_id": "7179308111"}}, {"type": "Feature", "geometry": {"type": "Point", "coordinates": [75.0985, 33.9439361]}, "properties": {"name": "Gamraj", "population": 1500, "place_class": "village", "population_source": "class_default", "osm_id": "7179308963"}}, {"type": "Feature", "geometry": {"type": "Point", "coordinates": [75.0684053, 33.8993268]}, "properties": {"name": "Chandrigam", "population": 1500, "place_class": "village", "population_source": "class_default", "osm_id": "7179309532"}}, {"type": "Feature", "geometry": {"type": "Point", "coordinates": [75.0516773, 33.8931923]}, "properties": {"name": "Donigund", "population": 1500, "place_class": "village", "population_source": "class_default", "osm_id": "7179309897"}}, {"type": "Feature", "geometry": {"type": "Point", "coordinates": [75.0634318, 33.885382]}, "properties": {"name": "Poshwan", "population": 1500, "place_class": "village", "population_source": "class_default", "osm_id": "7179310001"}}, {"type": "Feature", "geometry": {"type": "Point", "coordinates": [75.0694814, 33.8766318]}, "properties": {"name": "Hari Parigam", "population": 1500, "place_class": "village", "population_source": "class_default", "osm_id": "7179310002"}}, {"type": "Feature", "geometry": {"type": "Point", "coordinates": [75.0899091, 33.9233039]}, "properties": {"name": "Sher Abad (Bulli)", "population": 1500, "place_class": "village", "population_source": "class_default", "osm_id": "7179310003"}}, {"type": "Feature", "geometry": {"type": "Point", "coordinates": [75.0872107, 33.9038967]}, "properties": {"name": "Dadsara", "population": 1500, "place_class": "village", "population_source": "class_default", "osm_id": "7179313634"}}, {"type": "Feature", "geometry": {"type": "Point", "coordinates": [75.070012, 33.8515525]}, "properties": {"name": "Punchpora", "population": 1500, "place_class": "village", "population_source": "class_default", "osm_id": "7179317744"}}, {"type": "Feature", "geometry": {"type": "Point", "coordinates": [75.0571896, 33.8919338]}, "properties": {"name": "Bargam", "population": 1500, "place_class": "village", "population_source": "class_default", "osm_id": "7179323800"}}, {"type": "Feature", "geometry": {"type": "Point", "coordinates": [75.1160784, 33.9044885]}, "properties": {"name": "Rathsun", "population": 1500, "place_class": "village", "population_source": "class_default", "osm_id": "7179325009"}}, {"type": "Feature", "geometry": {"type": "Point", "coordinates": [75.0826179, 33.9187732]}, "properties": {"name": "Nowdal", "population": 1500, "place_class": "village", "population_source": "class_default", "osm_id": "7179325010"}}, {"type": "Feature", "geometry": {"type": "Point", "coordinates": [75.0692989, 33.8925888]}, "properties": {"name": "Nowpora", "population": 1500, "place_class": "village", "population_source": "class_default", "osm_id": "7179327015"}}, {"type": "Feature", "geometry": {"type": "Point", "coordinates": [75.1000982, 33.934816]}, "properties": {"name": "Arigam", "population": 1500, "place_class": "village", "population_source": "class_default", "osm_id": "7179329780"}}, {"type": "Feature", "geometry": {"type": "Point", "coordinates": [75.1113046, 33.9449498]}, "properties": {"name": "Diwer", "population": 1500, "place_class": "village", "population_source": "class_default", "osm_id": "7211760632"}}, {"type": "Feature", "geometry": {"type": "Point", "coordinates": [75.1054227, 33.9664394]}, "properties": {"name": "Ponzu", "population": 1500, "place_class": "village", "population_source": "class_default", "osm_id": "7211812119"}}, {"type": "Feature", "geometry": {"type": "Point", "coordinates": [75.1537392, 33.9513776]}, "properties": {"name": "Shahpora (Chaan Kitaar)", "population": 1500, "place_class": "village", "population_source": "class_default", "osm_id": "7211816144"}}, {"type": "Feature", "geometry": {"type": "Point", "coordinates": [75.1245889, 33.9517596]}, "properties": {"name": "Chatrugam", "population": 1500, "place_class": "village", "population_source": "class_default", "osm_id": "7211818088"}}, {"type": "Feature", "geometry": {"type": "Point", "coordinates": [75.1099508, 33.9515636]}, "properties": {"name": "Monghama", "population": 1500, "place_class": "village", "population_source": "class_default", "osm_id": "7211819009"}}, {"type": "Feature", "geometry": {"type": "Point", "coordinates": [75.1054036, 33.9483025]}, "properties": {"name": "Dhobiwan", "population": 1500, "place_class": "village", "population_source": "class_default", "osm_id": "7211819010"}}, {"type": "Feature", "geometry": {"type": "Point", "coordinates": [75.095203, 33.968693]}, "properties": {"name": "Lurgam", "population": 1500, "place_class": "village", "population_source": "class_default", "osm_id": "7211820713"}}, {"type": "Feature", "geometry": {"type": "Point", "coordinates": [75.0072241, 34.0319098]}, "properties": {"name": "Owan", "population": 1500, "place_class": "village", "population_source": "class_default", "osm_id": "7939479245"}}, {"type": "Feature", "geometry": {"type": "Point", "coordinates": [75.00952, 34.0097854]}, "properties": {"name": "Shar", "population": 1500, "place_class": "village", "population_source": "class_default", "osm_id": "7939479247"}}, {"type": "Feature", "geometry": {"type": "Point", "coordinates": [75.0794077, 34.0009803]}, "properties": {"name": "Pathyungam", "population": 1500, "place_class": "village", "population_source": "class_default", "osm_id": "7939479250"}}, {"type": "Feature", "geometry": {"type": "Point", "coordinates": [75.0732708, 34.0087715]}, "properties": {"name": "Dharamkund", "population": 1500, "place_class": "village", "population_source": "class_default", "osm_id": "7939479251"}}, {"type": "Feature", "geometry": {"type": "Point", "coordinates": [75.0962198, 34.0262814]}, "properties": {"name": "Lam", "population": 1500, "place_class": "village", "population_source": "class_default", "osm_id": "7939479254"}}, {"type": "Feature", "geometry": {"type": "Point", "coordinates": [75.0791502, 34.0201369]}, "properties": {"name": "Darganaigud", "population": 1500, "place_class": "village", "population_source": "class_default", "osm_id": "7939479255"}}, {"type": "Feature", "geometry": {"type": "Point", "coordinates": [75.0733137, 34.0269839]}, "properties": {"name": "Khanagund", "population": 1500, "place_class": "village", "population_source": "class_default", "osm_id": "7939479256"}}, {"type": "Feature", "geometry": {"type": "Point", "coordinates": [75.0908875, 34.0461346]}, "properties": {"name": "Guturu", "population": 1500, "place_class": "village", "population_source": "class_default", "osm_id": "7939479258"}}, {"type": "Feature", "geometry": {"type": "Point", "coordinates": [75.0742471, 34.0399026]}, "properties": {"name": "Sotur", "population": 1500, "place_class": "village", "population_source": "class_default", "osm_id": "7939479259"}}, {"type": "Feature", "geometry": {"type": "Point", "coordinates": [74.8980689, 33.7044204]}, "properties": {"name": "Heranagshar", "population": 1500, "place_class": "village", "population_source": "class_default", "osm_id": "8899423893"}}, {"type": "Feature", "geometry": {"type": "Point", "coordinates": [74.8955476, 33.7159424]}, "properties": {"name": "Manzimpor", "population": 1500, "place_class": "village", "population_source": "class_default", "osm_id": "8899423895"}}, {"type": "Feature", "geometry": {"type": "Point", "coordinates": [74.8940027, 33.7118639]}, "properties": {"name": "Tachul", "population": 1500, "place_class": "village", "population_source": "class_default", "osm_id": "8899423896"}}, {"type": "Feature", "geometry": {"type": "Point", "coordinates": [74.8846686, 33.7066785]}, "properties": {"name": "Kumdalan", "population": 1500, "place_class": "village", "population_source": "class_default", "osm_id": "8899423897"}}, {"type": "Feature", "geometry": {"type": "Point", "coordinates": [74.8869538, 33.7182894]}, "properties": {"name": "Kutupur", "population": 1500, "place_class": "village", "population_source": "class_default", "osm_id": "8899423898"}}, {"type": "Feature", "geometry": {"type": "Point", "coordinates": [74.8807955, 33.7232689]}, "properties": {"name": "Naidgom", "population": 1500, "place_class": "village", "population_source": "class_default", "osm_id": "8899423899"}}, {"type": "Feature", "geometry": {"type": "Point", "coordinates": [74.8997426, 33.6861124]}, "properties": {"name": "Ratnipora", "population": 1500, "place_class": "village", "population_source": "class_default", "osm_id": "8899423903"}}, {"type": "Feature", "geometry": {"type": "Point", "coordinates": [74.8923826, 33.68971]}, "properties": {"name": "Gadapur", "population": 1500, "place_class": "village", "population_source": "class_default", "osm_id": "8899423904"}}, {"type": "Feature", "geometry": {"type": "Point", "coordinates": [74.8824906, 33.6810415]}, "properties": {"name": "Kachdora", "population": 1500, "place_class": "village", "population_source": "class_default", "osm_id": "8899423905"}}, {"type": "Feature", "geometry": {"type": "Point", "coordinates": [74.8821151, 33.6887191]}, "properties": {"name": "Hanzpur", "population": 1500, "place_class": "village", "population_source": "class_default", "osm_id": "8899423906"}}, {"type": "Feature", "geometry": {"type": "Point", "coordinates": [74.8644984, 33.6852553]}, "properties": {"name": "Vihil", "population": 1500, "place_class": "village", "population_source": "class_default", "osm_id": "8899423909"}}, {"type": "Feature", "geometry": {"type": "Point", "coordinates": [74.856205, 33.6853]}, "properties": {"name": "Shunishpur", "population": 1500, "place_class": "village", "population_source": "class_default", "osm_id": "8899423910"}}, {"type": "Feature", "geometry": {"type": "Point", "coordinates": [74.8728347, 33.6960658]}, "properties": {"name": "Aivind", "population": 1500, "place_class": "village", "population_source": "class_default", "osm_id": "8899423913"}}, {"type": "Feature", "geometry": {"type": "Point", "coordinates": [74.8717832, 33.6993506]}, "properties": {"name": "Rawalpur", "population": 1500, "place_class": "village", "population_source": "class_default", "osm_id": "8899423914"}}, {"type": "Feature", "geometry": {"type": "Point", "coordinates": [74.8680067, 33.7039741]}, "properties": {"name": "Dashpur", "population": 1500, "place_class": "village", "population_source": "class_default", "osm_id": "8899423915"}}, {"type": "Feature", "geometry": {"type": "Point", "coordinates": [74.8673415, 33.7089723]}, "properties": {"name": "Sharafpur", "population": 1500, "place_class": "village", "population_source": "class_default", "osm_id": "8899423916"}}, {"type": "Feature", "geometry": {"type": "Point", "coordinates": [74.8614836, 33.7073658]}, "properties": {"name": "Shallut", "population": 1500, "place_class": "village", "population_source": "class_default", "osm_id": "8899427317"}}, {"type": "Feature", "geometry": {"type": "Point", "coordinates": [74.861741, 33.7134168]}, "properties": {"name": "Arishpur", "population": 1500, "place_class": "village", "population_source": "class_default", "osm_id": "8899427318"}}, {"type": "Feature", "geometry": {"type": "Point", "coordinates": [74.8489952, 33.7210737]}, "properties": {"name": "Habarpur", "population": 1500, "place_class": "village", "population_source": "class_default", "osm_id": "8899427320"}}, {"type": "Feature", "geometry": {"type": "Point", "coordinates": [74.8735428, 33.7335838]}, "properties": {"name": "Kilur", "population": 1500, "place_class": "village", "population_source": "class_default", "osm_id": "8899427321"}}, {"type": "Feature", "geometry": {"type": "Point", "coordinates": [74.8733711, 33.7412032]}, "properties": {"name": "Krowur", "population": 1500, "place_class": "village", "population_source": "class_default", "osm_id": "8899427322"}}, {"type": "Feature", "geometry": {"type": "Point", "coordinates": [74.8848188, 33.7378843]}, "properties": {"name": "Malikgund", "population": 1500, "place_class": "village", "population_source": "class_default", "osm_id": "8899427323"}}, {"type": "Feature", "geometry": {"type": "Point", "coordinates": [74.8489845, 33.7398471]}, "properties": {"name": "Pinzur", "population": 1500, "place_class": "village", "population_source": "class_default", "osm_id": "8899427325"}}, {"type": "Feature", "geometry": {"type": "Point", "coordinates": [74.8426115, 33.6803898]}, "properties": {"name": "Amashipur", "population": 1500, "place_class": "village", "population_source": "class_default", "osm_id": "8899427356"}}, {"type": "Feature", "geometry": {"type": "Point", "coordinates": [74.9228096, 33.6809969]}, "properties": {"name": "Partappur", "population": 1500, "place_class": "village", "population_source": "class_default", "osm_id": "8901012439"}}, {"type": "Feature", "geometry": {"type": "Point", "coordinates": [74.9255025, 33.6866971]}, "properties": {"name": "Mantarbug", "population": 1500, "place_class": "village", "population_source": "class_default", "osm_id": "8901012440"}}, {"type": "Feature", "geometry": {"type": "Point", "coordinates": [74.9123812, 33.6832556]}, "properties": {"name": "Tekpur", "population": 1500, "place_class": "village", "population_source": "class_default", "osm_id": "8901012441"}}, {"type": "Feature", "geometry": {"type": "Point", "coordinates": [74.9127352, 33.7038001]}, "properties": {"name": "Hajpur", "population": 1500, "place_class": "village", "population_source": "class_default", "osm_id": "8901012442"}}, {"type": "Feature", "geometry": {"type": "Point", "coordinates": [74.9164206, 33.7074728]}, "properties": {"name": "Tsudigom", "population": 1500, "place_class": "village", "population_source": "class_default", "osm_id": "8901012443"}}, {"type": "Feature", "geometry": {"type": "Point", "coordinates": [74.9055094, 33.7103288]}, "properties": {"name": "Kanahom", "population": 1500, "place_class": "village", "population_source": "class_default", "osm_id": "8901012445"}}, {"type": "Feature", "geometry": {"type": "Point", "coordinates": [74.9180755, 33.7178164]}, "properties": {"name": "Kharawor", "population": 1500, "place_class": "village", "population_source": "class_default", "osm_id": "8901012446"}}, {"type": "Feature", "geometry": {"type": "Point", "coordinates": [74.9192476, 33.7333964]}, "properties": {"name": "Chakisangran", "population": 1500, "place_class": "village", "population_source": "class_default", "osm_id": "8901012447"}}, {"type": "Feature", "geometry": {"type": "Point", "coordinates": [74.9138725, 33.7242326]}, "properties": {"name": "Tularan", "population": 1500, "place_class": "village", "population_source": "class_default", "osm_id": "8901012448"}}, {"type": "Feature", "geometry": {"type": "Point", "coordinates": [74.910568, 33.7443168]}, "properties": {"name": "Yimansabun", "population": 1500, "place_class": "village", "population_source": "class_default", "osm_id": "8901012449"}}, {"type": "Feature", "geometry": {"type": "Point", "coordinates": [74.89573, 33.7355556]}, "properties": {"name": "Basakuchan", "population": 1500, "place_class": "village", "population_source": "class_default", "osm_id": "8901012451"}}, {"type": "Feature", "geometry": {"type": "Point", "coordinates": [74.8870289, 33.7464311]}, "properties": {"name": "Lasdanau", "population": 1500, "place_class": "village", "population_source": "class_default", "osm_id": "8901012452"}}, {"type": "Feature", "geometry": {"type": "Point", "coordinates": [74.8970711, 33.7494954]}, "properties": {"name": "Kunts", "population": 1500, "place_class": "village", "population_source": "class_default", "osm_id": "8901012455"}}, {"type": "Feature", "geometry": {"type": "Point", "coordinates": [74.9629784, 33.73883]}, "properties": {"name": "Munad", "population": 1500, "place_class": "village", "population_source": "class_default", "osm_id": "8915737230"}}, {"type": "Feature", "geometry": {"type": "Point", "coordinates": [74.9554896, 33.7460519]}, "properties": {"name": "Darshalyun", "population": 1500, "place_class": "village", "population_source": "class_default", "osm_id": "8915737231"}}, {"type": "Feature", "geometry": {"type": "Point", "coordinates": [74.9496746, 33.7479031]}, "properties": {"name": "Drawain", "population": 1500, "place_class": "village", "population_source": "class_default", "osm_id": "8915737233"}}, {"type": "Feature", "geometry": {"type": "Point", "coordinates": [74.9344075, 33.7472161]}, "properties": {"name": "Handeo", "population": 1500, "place_class": "village", "population_source": "class_default", "osm_id": "8915737234"}}, {"type": "Feature", "geometry": {"type": "Point", "coordinates": [74.9242151, 33.7398292]}, "properties": {"name": "Wuyan", "population": 1500, "place_class": "village", "population_source": "class_default", "osm_id": "8915737236"}}, {"type": "Feature", "geometry": {"type": "Point", "coordinates": [74.9224877, 33.7455568]}, "properties": {"name": "Hilau", "population": 1500, "place_class": "village", "population_source": "class_default", "osm_id": "8915737237"}}, {"type": "Feature", "geometry": {"type": "Point", "coordinates": [74.9185073, 33.7491698]}, "properties": {"name": "Chhitarwachh", "population": 1500, "place_class": "village", "population_source": "class_default", "osm_id": "8915737238"}}, {"type": "Feature", "geometry": {"type": "Point", "coordinates": [74.9784493, 33.6819611]}, "properties": {"name": "Taizpur", "population": 1500, "place_class": "village", "population_source": "class_default", "osm_id": "8921022840"}}, {"type": "Feature", "geometry": {"type": "Point", "coordinates": [74.9753165, 33.6797648]}, "properties": {"name": "Mohandpur", "population": 1500, "place_class": "village", "population_source": "class_default", "osm_id": "8921022841"}}, {"type": "Feature", "geometry": {"type": "Point", "coordinates": [74.9873543, 33.679372]}, "properties": {"name": "Pethakhondapur", "population": 1500, "place_class": "village", "population_source": "class_default", "osm_id": "8921022843"}}, {"type": "Feature", "geometry": {"type": "Point", "coordinates": [74.9616265, 33.6787649]}, "properties": {"name": "Ara", "population": 1500, "place_class": "village", "population_source": "class_default", "osm_id": "8921022844"}}, {"type": "Feature", "geometry": {"type": "Point", "coordinates": [74.9504363, 33.678997]}, "properties": {"name": "awhatoo", "population": 1500, "place_class": "village", "population_source": "class_default", "osm_id": "8921022854"}}, {"type": "Feature", "geometry": {"type": "Point", "coordinates": [74.9958515, 33.6875675]}, "properties": {"name": "Katarus", "population": 1500, "place_class": "village", "population_source": "class_default", "osm_id": "8921022857"}}, {"type": "Feature", "geometry": {"type": "Point", "coordinates": [74.981432, 33.6890583]}, "properties": {"name": "Khihjuigpur", "population": 1500, "place_class": "village", "population_source": "class_default", "osm_id": "8921022858"}}, {"type": "Feature", "geometry": {"type": "Point", "coordinates": [74.9808955, 33.6958694]}, "properties": {"name": "Shiganpur", "population": 1500, "place_class": "village", "population_source": "class_default", "osm_id": "8921022878"}}, {"type": "Feature", "geometry": {"type": "Point", "coordinates": [74.9930835, 33.6995291]}, "properties": {"name": "Kadir", "population": 1500, "place_class": "village", "population_source": "class_default", "osm_id": "8921022879"}}, {"type": "Feature", "geometry": {"type": "Point", "coordinates": [74.9994671, 33.7024836]}, "properties": {"name": "Tirigom", "population": 1500, "place_class": "village", "population_source": "class_default", "osm_id": "8921022880"}}, {"type": "Feature", "geometry": {"type": "Point", "coordinates": [74.9467564, 33.6934146]}, "properties": {"name": "Chaktsulyand", "population": 1500, "place_class": "village", "population_source": "class_default", "osm_id": "8921022882"}}, {"type": "Feature", "geometry": {"type": "Point", "coordinates": [74.952902, 33.7010711]}, "properties": {"name": "Rishpur", "population": 1500, "place_class": "village", "population_source": "class_default", "osm_id": "8921022883"}}, {"type": "Feature", "geometry": {"type": "Point", "coordinates": [74.9716473, 33.7065]}, "properties": {"name": "Wehabagh", "population": 1500, "place_class": "village", "population_source": "class_default", "osm_id": "8921022885"}}, {"type": "Feature", "geometry": {"type": "Point", "coordinates": [74.9394822, 33.7056878]}, "properties": {"name": "Harum", "population": 1500, "place_class": "village", "population_source": "class_default", "osm_id": "8921022888"}}, {"type": "Feature", "geometry": {"type": "Point", "coordinates": [74.9494922, 33.7176023]}, "properties": {"name": "Olur", "population": 1500, "place_class": "village", "population_source": "class_default", "osm_id": "8921022891"}}, {"type": "Feature", "geometry": {"type": "Point", "coordinates": [74.9427545, 33.7226799]}, "properties": {"name": "Driar", "population": 1500, "place_class": "village", "population_source": "class_default", "osm_id": "8921022892"}}, {"type": "Feature", "geometry": {"type": "Point", "coordinates": [74.9245369, 33.6973333]}, "properties": {"name": "Gaihend", "population": 1500, "place_class": "village", "population_source": "class_default", "osm_id": "8921022896"}}, {"type": "Feature", "geometry": {"type": "Point", "coordinates": [74.9197304, 33.7041259]}, "properties": {"name": "Lundur", "population": 1500, "place_class": "village", "population_source": "class_default", "osm_id": "8921022897"}}, {"type": "Feature", "geometry": {"type": "Point", "coordinates": [74.9259961, 33.7147108]}, "properties": {"name": "Niladur", "population": 1500, "place_class": "village", "population_source": "class_default", "osm_id": "8921022898"}}, {"type": "Feature", "geometry": {"type": "Point", "coordinates": [74.9987376, 33.7104359]}, "properties": {"name": "Nunumai", "population": 1500, "place_class": "village", "population_source": "class_default", "osm_id": "8921022899"}}, {"type": "Feature", "geometry": {"type": "Point", "coordinates": [74.9850583, 33.7096595]}, "properties": {"name": "Zaban", "population": 1500, "place_class": "village", "population_source": "class_default", "osm_id": "8921022900"}}, {"type": "Feature", "geometry": {"type": "Point", "coordinates": [74.9987161, 33.7193647]}, "properties": {"name": "Dasyend", "population": 1500, "place_class": "village", "population_source": "class_default", "osm_id": "8921022902"}}, {"type": "Feature", "geometry": {"type": "Point", "coordinates": [74.9812227, 33.7200028]}, "properties": {"name": "Hardohangir", "population": 1500, "place_class": "village", "population_source": "class_default", "osm_id": "8921022904"}}, {"type": "Feature", "geometry": {"type": "Point", "coordinates": [74.9749625, 33.7221802]}, "properties": {"name": "Tongdun", "population": 1500, "place_class": "village", "population_source": "class_default", "osm_id": "8921022905"}}, {"type": "Feature", "geometry": {"type": "Point", "coordinates": [74.9684286, 33.7217251]}, "properties": {"name": "Tantrepur", "population": 1500, "place_class": "village", "population_source": "class_default", "osm_id": "8921022906"}}, {"type": "Feature", "geometry": {"type": "Point", "coordinates": [74.965328, 33.7239024]}, "properties": {"name": "Sursun", "population": 1500, "place_class": "village", "population_source": "class_default", "osm_id": "8921022907"}}, {"type": "Feature", "geometry": {"type": "Point", "coordinates": [74.9602532, 33.7256246]}, "properties": {"name": "Bodinarg", "population": 1500, "place_class": "village", "population_source": "class_default", "osm_id": "8921022909"}}, {"type": "Feature", "geometry": {"type": "Point", "coordinates": [74.9952936, 33.7310141]}, "properties": {"name": "Yemarach", "population": 1500, "place_class": "village", "population_source": "class_default", "osm_id": "8921022910"}}, {"type": "Feature", "geometry": {"type": "Point", "coordinates": [74.9970424, 33.7426396]}, "properties": {"name": "Hangalbuob", "population": 1500, "place_class": "village", "population_source": "class_default", "osm_id": "8921022912"}}, {"type": "Feature", "geometry": {"type": "Point", "coordinates": [74.9922788, 33.7425414]}, "properties": {"name": "Hatpur", "population": 1500, "place_class": "village", "population_source": "class_default", "osm_id": "8921022913"}}, {"type": "Feature", "geometry": {"type": "Point", "coordinates": [74.9775106, 33.7339853]}, "properties": {"name": "Manchhu", "population": 1500, "place_class": "village", "population_source": "class_default", "osm_id": "8921022914"}}, {"type": "Feature", "geometry": {"type": "Point", "coordinates": [74.9534833, 33.7319956]}, "properties": {"name": "Narawain", "population": 1500, "place_class": "village", "population_source": "class_default", "osm_id": "8921022916"}}, {"type": "Feature", "geometry": {"type": "Point", "coordinates": [74.9378085, 33.7333875]}, "properties": {"name": "Manihel", "population": 1500, "place_class": "village", "population_source": "class_default", "osm_id": "8921022918"}}, {"type": "Feature", "geometry": {"type": "Point", "coordinates": [74.9350834, 33.735975]}, "properties": {"name": "Tsoitpur", "population": 1500, "place_class": "village", "population_source": "class_default", "osm_id": "8921022919"}}, {"type": "Feature", "geometry": {"type": "Point", "coordinates": [75.0221554, 33.8812011]}, "properties": {"name": "Tokun", "population": 1500, "place_class": "village", "population_source": "class_default", "osm_id": "9700171296"}}, {"type": "Feature", "geometry": {"type": "Point", "coordinates": [75.0121185, 33.7446233]}, "properties": {"name": "Nadimarg", "population": 1500, "place_class": "village", "population_source": "class_default", "osm_id": "9759100651"}}, {"type": "Feature", "geometry": {"type": "Point", "coordinates": [75.1585532, 33.7004215]}, "properties": {"name": "Bon Dialgam", "population": 1500, "place_class": "village", "population_source": "class_default", "osm_id": "9851575693"}}, {"type": "Feature", "geometry": {"type": "Point", "coordinates": [74.8389969, 33.9869995]}, "properties": {"name": "Chattergam", "population": 1500, "place_class": "village", "population_source": "class_default", "osm_id": "9965422669"}}, {"type": "Feature", "geometry": {"type": "Point", "coordinates": [75.0883867, 33.9767444]}, "properties": {"name": "Lurow Jagir", "population": 1500, "place_class": "village", "population_source": "class_default", "osm_id": "11015208980"}}, {"type": "Feature", "geometry": {"type": "Point", "coordinates": [75.0636792, 33.8194457]}, "properties": {"name": "Naina", "population": 1500, "place_class": "village", "population_source": "class_default", "osm_id": "11660061495"}}, {"type": "Feature", "geometry": {"type": "Point", "coordinates": [75.0793222, 33.9552194]}, "properties": {"name": "Gulshanpora (Khul)", "population": 1500, "place_class": "village", "population_source": "class_default", "osm_id": "12632843183"}}, {"type": "Feature", "geometry": {"type": "Point", "coordinates": [75.0798057, 33.9717754]}, "properties": {"name": "Seer Jagir", "population": 1500, "place_class": "village", "population_source": "class_default", "osm_id": "12632851505"}}, {"type": "Feature", "geometry": {"type": "Point", "coordinates": [75.1642534, 33.7604486]}, "properties": {"name": "Aung", "population": 1500, "place_class": "village", "population_source": "class_default", "osm_id": "13146706079"}}, {"type": "Feature", "geometry": {"type": "Point", "coordinates": [75.1519016, 33.7664104]}, "properties": {"name": "Nobugh", "population": 1500, "place_class": "village", "population_source": "class_default", "osm_id": "13146707684"}}, {"type": "Feature", "geometry": {"type": "Point", "coordinates": [75.1417312, 33.7709166]}, "properties": {"name": "Veeri", "population": 1500, "place_class": "village", "population_source": "class_default", "osm_id": "13146720892"}}, {"type": "Feature", "geometry": {"type": "Point", "coordinates": [75.136475, 33.7485871]}, "properties": {"name": "Seepan", "population": 1500, "place_class": "village", "population_source": "class_default", "osm_id": "13146720893"}}, {"type": "Feature", "geometry": {"type": "Point", "coordinates": [75.1258551, 33.763506]}, "properties": {"name": "Uranhall", "population": 1500, "place_class": "village", "population_source": "class_default", "osm_id": "13146732852"}}, {"type": "Feature", "geometry": {"type": "Point", "coordinates": [75.1325535, 33.7549556]}, "properties": {"name": "Adder", "population": 1500, "place_class": "village", "population_source": "class_default", "osm_id": "13146736758"}}, {"type": "Feature", "geometry": {"type": "Point", "coordinates": [75.1303244, 33.7628388]}, "properties": {"name": "Guree", "population": 1500, "place_class": "village", "population_source": "class_default", "osm_id": "13146744102"}}, {"type": "Feature", "geometry": {"type": "Point", "coordinates": [75.1202276, 33.7500041]}, "properties": {"name": "Batengoo", "population": 1500, "place_class": "village", "population_source": "class_default", "osm_id": "13146750210"}}, {"type": "Feature", "geometry": {"type": "Point", "coordinates": [75.1350163, 33.7415441]}, "properties": {"name": "Batpora Khanabal", "population": 1500, "place_class": "village", "population_source": "class_default", "osm_id": "13146750721"}}, {"type": "Feature", "geometry": {"type": "Point", "coordinates": [75.1354837, 33.7439354]}, "properties": {"name": "Mirgund Khanabal", "population": 1500, "place_class": "village", "population_source": "class_default", "osm_id": "13146750808"}}, {"type": "Feature", "geometry": {"type": "Point", "coordinates": [75.1424696, 33.7930583]}, "properties": {"name": "Thajiwara", "population": 1500, "place_class": "village", "population_source": "class_default", "osm_id": "13148815879"}}, {"type": "Feature", "geometry": {"type": "Point", "coordinates": [75.1633868, 33.794652]}, "properties": {"name": "Kanalwan", "population": 1500, "place_class": "village", "population_source": "class_default", "osm_id": "13148816806"}}, {"type": "Feature", "geometry": {"type": "Point", "coordinates": [75.156081, 33.7981492]}, "properties": {"name": "Aswara", "population": 1500, "place_class": "village", "population_source": "class_default", "osm_id": "13148825414"}}, {"type": "Feature", "geometry": {"type": "Point", "coordinates": [75.1631096, 33.7345569]}, "properties": {"name": "Sarnal Payeen", "population": 1500, "place_class": "village", "population_source": "class_default", "osm_id": "13149074687"}}, {"type": "Feature", "geometry": {"type": "Point", "coordinates": [75.1576047, 33.7362298]}, "properties": {"name": "Laizbal", "population": 1500, "place_class": "village", "population_source": "class_default", "osm_id": "13149083767"}}, {"type": "Feature", "geometry": {"type": "Point", "coordinates": [75.1662114, 33.7353333]}, "properties": {"name": "Sarnal Bala", "population": 1500, "place_class": "village", "population_source": "class_default", "osm_id": "13149084522"}}, {"type": "Feature", "geometry": {"type": "Point", "coordinates": [75.1577251, 33.7331544]}, "properties": {"name": "Kadipora", "population": 1500, "place_class": "village", "population_source": "class_default", "osm_id": "13149087839"}}, {"type": "Feature", "geometry": {"type": "Point", "coordinates": [75.1614111, 33.7361046]}, "properties": {"name": "Gulshanabad", "population": 1500, "place_class": "village", "population_source": "class_default", "osm_id": "13149089988"}}, {"type": "Feature", "geometry": {"type": "Point", "coordinates": [75.1542619, 33.7372917]}, "properties": {"name": "Sadik Abad", "population": 1500, "place_class": "village", "population_source": "class_default", "osm_id": "13149090147"}}, {"type": "Feature", "geometry": {"type": "Point", "coordinates": [75.1571529, 33.7387992]}, "properties": {"name": "S.K. Colony", "population": 1500, "place_class": "village", "population_source": "class_default", "osm_id": "13149092446"}}, {"type": "Feature", "geometry": {"type": "Point", "coordinates": [75.1521633, 33.7319189]}, "properties": {"name": "Kral Teng", "population": 1500, "place_class": "village", "population_source": "class_default", "osm_id": "13149092680"}}, {"type": "Feature", "geometry": {"type": "Point", "coordinates": [75.1545631, 33.7353483]}, "properties": {"name": "Bakshi Abad", "population": 1500, "place_class": "village", "population_source": "class_default", "osm_id": "13149093897"}}, {"type": "Feature", "geometry": {"type": "Point", "coordinates": [75.1526043, 33.7329136]}, "properties": {"name": "Mattan Chowk", "population": 1500, "place_class": "village", "population_source": "class_default", "osm_id": "13149098555"}}, {"type": "Feature", "geometry": {"type": "Point", "coordinates": [75.1514361, 33.7313703]}, "properties": {"name": "Reshi Bazar", "population": 1500, "place_class": "village", "population_source": "class_default", "osm_id": "13149098556"}}, {"type": "Feature", "geometry": {"type": "Point", "coordinates": [75.1508917, 33.7325898]}, "properties": {"name": "Dangarpora", "population": 1500, "place_class": "village", "population_source": "class_default", "osm_id": "13149098994"}}, {"type": "Feature", "geometry": {"type": "Point", "coordinates": [75.1529246, 33.7319559]}, "properties": {"name": "Kralyar", "population": 1500, "place_class": "village", "population_source": "class_default", "osm_id": "13149098995"}}, {"type": "Feature", "geometry": {"type": "Point", "coordinates": [75.1498228, 33.7319718]}, "properties": {"name": "Kutwal Mohalla", "population": 1500, "place_class": "village", "population_source": "class_default", "osm_id": "13149100152"}}, {"type": "Feature", "geometry": {"type": "Point", "coordinates": [75.1499658, 33.7338224]}, "properties": {"name": "Mattan Adda", "population": 1500, "place_class": "village", "population_source": "class_default", "osm_id": "13149102427"}}, {"type": "Feature", "geometry": {"type": "Point", "coordinates": [75.1596106, 33.8213043]}, "properties": {"name": "Kosh Roi Kalan", "population": 1500, "place_class": "village", "population_source": "class_default", "osm_id": "13152214622"}}, {"type": "Feature", "geometry": {"type": "Point", "coordinates": [75.1522386, 33.8128097]}, "properties": {"name": "Satkipora", "population": 1500, "place_class": "village", "population_source": "class_default", "osm_id": "13152228295"}}, {"type": "Feature", "geometry": {"type": "Point", "coordinates": [75.10492, 33.8196818]}, "properties": {"name": "Waghama", "population": 1500, "place_class": "village", "population_source": "class_default", "osm_id": "13154698048"}}, {"type": "Feature", "geometry": {"type": "Point", "coordinates": [75.132297, 33.83603]}, "properties": {"name": "Shalgam", "population": 1500, "place_class": "village", "population_source": "class_default", "osm_id": "13154737602"}}, {"type": "Feature", "geometry": {"type": "Point", "coordinates": [75.1575712, 33.8470611]}, "properties": {"name": "Shirhama", "population": 1500, "place_class": "village", "population_source": "class_default", "osm_id": "13154739481"}}, {"type": "Feature", "geometry": {"type": "Point", "coordinates": [75.1626116, 33.8042675]}, "properties": {"name": "Mirgund", "population": 1500, "place_class": "village", "population_source": "class_default", "osm_id": "13157500144"}}, {"type": "Feature", "geometry": {"type": "Point", "coordinates": [75.1664166, 33.8013484]}, "properties": {"name": "Chinigund", "population": 1500, "place_class": "village", "population_source": "class_default", "osm_id": "13157517821"}}, {"type": "Feature", "geometry": {"type": "Point", "coordinates": [75.1397681, 33.7381682]}, "properties": {"name": "Nai Basti Khanabal", "population": 1500, "place_class": "village", "population_source": "class_default", "osm_id": "13202105259"}}, {"type": "Feature", "geometry": {"type": "Point", "coordinates": [75.139128, 33.7379665]}, "properties": {"name": "Nai Basti Khanabal", "population": 1500, "place_class": "village", "population_source": "class_default", "osm_id": "13202106936"}}, {"type": "Feature", "geometry": {"type": "Point", "coordinates": [74.9399887, 33.6835847]}, "properties": {"name": "BATPURA SHOPIAN", "population": 1500, "place_class": "village", "population_source": "class_default", "osm_id": "13243393189"}}, {"type": "Feature", "geometry": {"type": "Point", "coordinates": [74.9199486, 33.956418]}, "properties": {"name": "Oukhoo", "population": 1500, "place_class": "village", "population_source": "class_default", "osm_id": "13998176526"}}, {"type": "Feature", "geometry": {"type": "Point", "coordinates": [74.9045849, 33.9552256]}, "properties": {"name": "Quazigund", "population": 1500, "place_class": "village", "population_source": "class_default", "osm_id": "13998176527"}}, {"type": "Feature", "geometry": {"type": "Point", "coordinates": [74.9070096, 33.9664735]}, "properties": {"name": "Sether Gund", "population": 1500, "place_class": "village", "population_source": "class_default", "osm_id": "13998176528"}}, {"type": "Feature", "geometry": {"type": "Point", "coordinates": [74.8995424, 33.9823819]}, "properties": {"name": "Khadermoh", "population": 1500, "place_class": "village", "population_source": "class_default", "osm_id": "13998176531"}}, {"type": "Feature", "geometry": {"type": "Point", "coordinates": [74.8697873, 33.9735464]}, "properties": {"name": "Khanda", "population": 1500, "place_class": "village", "population_source": "class_default", "osm_id": "13998176548"}}, {"type": "Feature", "geometry": {"type": "Point", "coordinates": [75.0174165, 34.0152459]}, "properties": {"name": "Raitrag", "population": 250, "place_class": "hamlet", "population_source": "class_default", "osm_id": "7939479244"}}, {"type": "Feature", "geometry": {"type": "Point", "coordinates": [75.110811, 34.0357596]}, "properties": {"name": "Zishal", "population": 250, "place_class": "hamlet", "population_source": "class_default", "osm_id": "7939479249"}}, {"type": "Feature", "geometry": {"type": "Point", "coordinates": [75.0829482, 34.0151036]}, "properties": {"name": "Yangawain", "population": 250, "place_class": "hamlet", "population_source": "class_default", "osm_id": "7939479252"}}, {"type": "Feature", "geometry": {"type": "Point", "coordinates": [75.0995672, 34.0235604]}, "properties": {"name": "Gutyung", "population": 250, "place_class": "hamlet", "population_source": "class_default", "osm_id": "7939479253"}}, {"type": "Feature", "geometry": {"type": "Point", "coordinates": [74.8980045, 33.7271148]}, "properties": {"name": "Dagapur", "population": 250, "place_class": "hamlet", "population_source": "class_default", "osm_id": "8899423894"}}, {"type": "Feature", "geometry": {"type": "Point", "coordinates": [74.9137115, 33.6980653]}, "properties": {"name": "Tsokur", "population": 250, "place_class": "hamlet", "population_source": "class_default", "osm_id": "8899423900"}}, {"type": "Feature", "geometry": {"type": "Point", "coordinates": [74.9124026, 33.6889691]}, "properties": {"name": "Ranipurkash", "population": 250, "place_class": "hamlet", "population_source": "class_default", "osm_id": "8899423901"}}, {"type": "Feature", "geometry": {"type": "Point", "coordinates": [74.9063516, 33.6887995]}, "properties": {"name": "Halpur", "population": 250, "place_class": "hamlet", "population_source": "class_default", "osm_id": "8899423902"}}, {"type": "Feature", "geometry": {"type": "Point", "coordinates": [74.8717081, 33.6823896]}, "properties": {"name": "Chhatiwatan", "population": 250, "place_class": "hamlet", "population_source": "class_default", "osm_id": "8899423907"}}, {"type": "Feature", "geometry": {"type": "Point", "coordinates": [74.86673, 33.6803273]}, "properties": {"name": "Minpur", "population": 250, "place_class": "hamlet", "population_source": "class_default", "osm_id": "8899423908"}}, {"type": "Feature", "geometry": {"type": "Point", "coordinates": [74.8523211, 33.687755]}, "properties": {"name": "Dangapur", "population": 250, "place_class": "hamlet", "population_source": "class_default", "osm_id": "8899423911"}}, {"type": "Feature", "geometry": {"type": "Point", "coordinates": [74.8632431, 33.6910491]}, "properties": {"name": "Chodhirgund", "population": 250, "place_class": "hamlet", "population_source": "class_default", "osm_id": "8899423912"}}, {"type": "Feature", "geometry": {"type": "Point", "coordinates": [74.8540807, 33.7198422]}, "properties": {"name": "Laragom", "population": 250, "place_class": "hamlet", "population_source": "class_default", "osm_id": "8899427319"}}, {"type": "Feature", "geometry": {"type": "Point", "coordinates": [74.8687148, 33.7435049]}, "properties": {"name": "Traparpur", "population": 250, "place_class": "hamlet", "population_source": "class_default", "osm_id": "8899427324"}}, {"type": "Feature", "geometry": {"type": "Point", "coordinates": [74.8540914, 33.7004039]}, "properties": {"name": "Palapur", "population": 250, "place_class": "hamlet", "population_source": "class_default", "osm_id": "8899427359"}}, {"type": "Feature", "geometry": {"type": "Point", "coordinates": [74.8511624, 33.6973244]}, "properties": {"name": "Narawao", "population": 250, "place_class": "hamlet", "population_source": "class_default", "osm_id": "8899427360"}}, {"type": "Feature", "geometry": {"type": "Point", "coordinates": [74.8398435, 33.7026085]}, "properties": {"name": "Chhanapur", "population": 250, "place_class": "hamlet", "population_source": "class_default", "osm_id": "8899427361"}}, {"type": "Feature", "geometry": {"type": "Point", "coordinates": [74.9179602, 33.6757025]}, "properties": {"name": "Zeipur", "population": 250, "place_class": "hamlet", "population_source": "class_default", "osm_id": "8901012438"}}, {"type": "Feature", "geometry": {"type": "Point", "coordinates": [74.9067378, 33.7052237]}, "properties": {"name": "Bunanagshar", "population": 250, "place_class": "hamlet", "population_source": "class_default", "osm_id": "8901012444"}}, {"type": "Feature", "geometry": {"type": "Point", "coordinates": [74.9028754, 33.7385802]}, "properties": {"name": "Watsauhalan", "population": 250, "place_class": "hamlet", "population_source": "class_default", "osm_id": "8901012450"}}, {"type": "Feature", "geometry": {"type": "Point", "coordinates": [74.8937774, 33.7420284]}, "properties": {"name": "Zanabot", "population": 250, "place_class": "hamlet", "population_source": "class_default", "osm_id": "8901012453"}}, {"type": "Feature", "geometry": {"type": "Point", "coordinates": [74.8987985, 33.7445242]}, "properties": {"name": "Mailbug", "population": 250, "place_class": "hamlet", "population_source": "class_default", "osm_id": "8901012454"}}, {"type": "Feature", "geometry": {"type": "Point", "coordinates": [74.9489665, 33.7413727]}, "properties": {"name": "Amarbug", "population": 250, "place_class": "hamlet", "population_source": "class_default", "osm_id": "8915737232"}}, {"type": "Feature", "geometry": {"type": "Point", "coordinates": [74.9223161, 33.7420597]}, "properties": {"name": "Gundiwauyan", "population": 250, "place_class": "hamlet", "population_source": "class_default", "osm_id": "8915737235"}}, {"type": "Feature", "geometry": {"type": "Point", "coordinates": [74.9249124, 33.6752203]}, "properties": {"name": "Kilabal", "population": 250, "place_class": "hamlet", "population_source": "class_default", "osm_id": "8921022838"}}, {"type": "Feature", "geometry": {"type": "Point", "coordinates": [74.9347508, 33.6763632]}, "properties": {"name": "Tangapur", "population": 250, "place_class": "hamlet", "population_source": "class_default", "osm_id": "8921022839"}}, {"type": "Feature", "geometry": {"type": "Point", "coordinates": [74.9910664, 33.6880049]}, "properties": {"name": "Maitpur", "population": 250, "place_class": "hamlet", "population_source": "class_default", "osm_id": "8921022856"}}, {"type": "Feature", "geometry": {"type": "Point", "coordinates": [74.9729347, 33.6881478]}, "properties": {"name": "Soipur", "population": 250, "place_class": "hamlet", "population_source": "class_default", "osm_id": "8921022859"}}, {"type": "Feature", "geometry": {"type": "Point", "coordinates": [74.9697268, 33.6924059]}, "properties": {"name": "Dadarkut", "population": 250, "place_class": "hamlet", "population_source": "class_default", "osm_id": "8921022860"}}, {"type": "Feature", "geometry": {"type": "Point", "coordinates": [74.9624473, 33.6903974]}, "properties": {"name": "Naupurtsulyand", "population": 250, "place_class": "hamlet", "population_source": "class_default", "osm_id": "8921022861"}}, {"type": "Feature", "geometry": {"type": "Point", "coordinates": [74.9341178, 33.6842153]}, "properties": {"name": "Naragachak", "population": 250, "place_class": "hamlet", "population_source": "class_default", "osm_id": "8921022875"}}, {"type": "Feature", "geometry": {"type": "Point", "coordinates": [74.954862, 33.6867417]}, "properties": {"name": "Padarpur", "population": 250, "place_class": "hamlet", "population_source": "class_default", "osm_id": "8921022876"}}, {"type": "Feature", "geometry": {"type": "Point", "coordinates": [74.9861312, 33.6988865]}, "properties": {"name": "Kutibrar", "population": 250, "place_class": "hamlet", "population_source": "class_default", "osm_id": "8921022877"}}, {"type": "Feature", "geometry": {"type": "Point", "coordinates": [74.9597651, 33.6960122]}, "properties": {"name": "Waingpur", "population": 250, "place_class": "hamlet", "population_source": "class_default", "osm_id": "8921022881"}}, {"type": "Feature", "geometry": {"type": "Point", "coordinates": [74.9682462, 33.7018231]}, "properties": {"name": "Chakihanjan", "population": 250, "place_class": "hamlet", "population_source": "class_default", "osm_id": "8921022884"}}, {"type": "Feature", "geometry": {"type": "Point", "coordinates": [74.9550283, 33.7082761]}, "properties": {"name": "Alamganj", "population": 250, "place_class": "hamlet", "population_source": "class_default", "osm_id": "8921022886"}}, {"type": "Feature", "geometry": {"type": "Point", "coordinates": [74.9343538, 33.7101146]}, "properties": {"name": "Abalwon", "population": 250, "place_class": "hamlet", "population_source": "class_default", "osm_id": "8921022887"}}, {"type": "Feature", "geometry": {"type": "Point", "coordinates": [74.9646521, 33.7173256]}, "properties": {"name": "Sampurderapur", "population": 250, "place_class": "hamlet", "population_source": "class_default", "osm_id": "8921022889"}}, {"type": "Feature", "geometry": {"type": "Point", "coordinates": [74.957571, 33.7168437]}, "properties": {"name": "Sahpur", "population": 250, "place_class": "hamlet", "population_source": "class_default", "osm_id": "8921022890"}}, {"type": "Feature", "geometry": {"type": "Point", "coordinates": [74.9417567, 33.6902813]}, "properties": {"name": "Hindipur", "population": 250, "place_class": "hamlet", "population_source": "class_default", "osm_id": "8921022893"}}, {"type": "Feature", "geometry": {"type": "Point", "coordinates": [74.9411023, 33.6941645]}, "properties": {"name": "Tsuk", "population": 250, "place_class": "hamlet", "population_source": "class_default", "osm_id": "8921022894"}}, {"type": "Feature", "geometry": {"type": "Point", "coordinates": [74.9334311, 33.693428]}, "properties": {"name": "Muradpur", "population": 250, "place_class": "hamlet", "population_source": "class_default", "osm_id": "8921022895"}}, {"type": "Feature", "geometry": {"type": "Point", "coordinates": [74.986217, 33.7145323]}, "properties": {"name": "Mailpurzaban", "population": 250, "place_class": "hamlet", "population_source": "class_default", "osm_id": "8921022901"}}, {"type": "Feature", "geometry": {"type": "Point", "coordinates": [74.9794364, 33.7161476]}, "properties": {"name": "Palun", "population": 250, "place_class": "hamlet", "population_source": "class_default", "osm_id": "8921022903"}}, {"type": "Feature", "geometry": {"type": "Point", "coordinates": [74.9968386, 33.744406]}, "properties": {"name": "Batapur", "population": 250, "place_class": "hamlet", "population_source": "class_default", "osm_id": "8921022911"}}, {"type": "Feature", "geometry": {"type": "Point", "coordinates": [74.9747693, 33.7367779]}, "properties": {"name": "Gufan", "population": 250, "place_class": "hamlet", "population_source": "class_default", "osm_id": "8921022915"}}, {"type": "Feature", "geometry": {"type": "Point", "coordinates": [74.9433446, 33.732174]}, "properties": {"name": "Batapurpalapur", "population": 250, "place_class": "hamlet", "population_source": "class_default", "osm_id": "8921022917"}}, {"type": "Feature", "geometry": {"type": "Point", "coordinates": [75.0162324, 33.8975779]}, "properties": {"name": "Ladikpur", "population": 250, "place_class": "hamlet", "population_source": "class_default", "osm_id": "9580806196"}}]}