{"type": "FeatureCollection", "crs": {"type": "name", "properties": {"name": "urn:ogc:def:crs:OGC:1.3:CRS84"}}, "features": [{"type": "Feature", "geometry": {"type": "Polygon", "coordinates": [[[88.64886865999314, 27.605958321962987], [88.64886865999314, 27.604612346992578], [88.64279055417134, 27.604612346992578], [88.64279055417134, 27.603266372022166], [88.64431008062678, 27.603266372022166], [88.64431008062678, 27.601920397051757], [88.64734913353769, 27.601920397051757], [88.64734913353769, 27.597882472140526], [88.64886865999314, 27.597882472140526], [88.64886865999314, 27.596536497170117], [88.6503881864486, 27.596536497170117], [88.6503881864486, 27.595190522199704], [88.65190771290405, 27.595190522199704], [88.65190771290405, 27.593844547229295], [88.6534272393595, 27.593844547229295], [88.6534272393595, 27.592498572258886], [88.65494676581494, 27.592498572258886], [88.65494676581494, 27.579038822554786], [88.6534272393595, 27.579038822554786], [88.6534272393595, 27.576346872613964], [88.65190771290405, 27.576346872613964], [88.65190771290405, 27.569616997761912], [88.6534272393595, 27.569616997761912], [88.6534272393595, 27.564233097880273], [88.65190771290405, 27.564233097880273], [88.65190771290405, 27.56154114793945], [88.6534272393595, 27.56154114793945], [88.6534272393595, 27.55750322302822], [88.65494676581494, 27.55750322302822], [88.65494676581494, 27.55346529811699], [88.6534272393595, 27.55346529811699], [88.6534272393595, 27.550773348176172], [88.64127102771589, 27.550773348176172], [88.64127102771589, 27.54942737320576], [88.63975150126043, 27.54942737320576], [88.63975150126043, 27.54808139823535], [88.63519292189407, 27.54808139823535], [88.63519292189407, 27.54673542326494], [88.63063434252773, 27.54673542326494], [88.63063434252773, 27.54538944829453], [88.61847813088411, 27.54538944829453], [88.61847813088411, 27.54404347332412], [88.6154390779732, 27.54404347332412], [88.6154390779732, 27.54269749835371], [88.61240002506231, 27.54269749835371], [88.61240002506231, 27.541351523383298], [88.6093609721514, 27.541351523383298], [88.6093609721514, 27.54000554841289], [88.6063219192405, 27.54000554841289], [88.6063219192405, 27.53865957344248], [88.6002438134187, 27.53865957344248], [88.6002438134187, 27.53731359847207], [88.59264618114145, 27.53731359847207], [88.59264618114145, 27.53596762350166], [88.58960712823054, 27.53596762350166], [88.58960712823054, 27.53462164853125], [88.58656807531963, 27.53462164853125], [88.58656807531963, 27.53327567356084], [88.58504854886418, 27.53327567356084], [88.58504854886418, 27.531929698590428], [88.58352902240874, 27.531929698590428], [88.58352902240874, 27.53058372362002], [88.58200949595329, 27.53058372362002], [88.58200949595329, 27.52923774864961], [88.57897044304238, 27.52923774864961], [88.57897044304238, 27.527891773679197], [88.57745091658693, 27.527891773679197], [88.57745091658693, 27.52654579870879], [88.56833375785422, 27.52654579870879], [88.56833375785422, 27.527891773679197], [88.56529470494331, 27.527891773679197], [88.56529470494331, 27.52923774864961], [88.55921659912151, 27.52923774864961], [88.55921659912151, 27.53058372362002], [88.55161896684426, 27.53058372362002], [88.55161896684426, 27.52923774864961], [88.54857991393335, 27.52923774864961], [88.54857991393335, 27.527891773679197], [88.5409822816561, 27.527891773679197], [88.5409822816561, 27.52654579870879], [88.53794322874519, 27.52654579870879], [88.53794322874519, 27.52519982373838], [88.53642370228974, 27.52519982373838], [88.53642370228974, 27.523853848767967], [88.53338464937885, 27.523853848767967], [88.53338464937885, 27.522507873797558], [88.53034559646794, 27.522507873797558], [88.53034559646794, 27.515777998945506], [88.52882607001249, 27.515777998945506], [88.52882607001249, 27.513086049004688], [88.52730654355703, 27.513086049004688], [88.52730654355703, 27.510394099063866], [88.52578701710158, 27.510394099063866], [88.52578701710158, 27.507702149123045], [88.52426749064614, 27.507702149123045], [88.52426749064614, 27.499626299300584], [88.52274796419069, 27.499626299300584], [88.52274796419069, 27.496934349359766], [88.52122843773523, 27.496934349359766], [88.52122843773523, 27.492896424448535], [88.51970891127978, 27.492896424448535], [88.51970891127978, 27.488858499537304], [88.52122843773523, 27.488858499537304], [88.52122843773523, 27.484820574626074], [88.52274796419069, 27.484820574626074], [88.52274796419069, 27.47809069977402], [88.52426749064614, 27.47809069977402], [88.52426749064614, 27.475398749833204], [88.52274796419069, 27.475398749833204], [88.52274796419069, 27.47405277486279], [88.52122843773523, 27.47405277486279], [88.52122843773523, 27.472706799892382], [88.51970891127978, 27.472706799892382], [88.51970891127978, 27.46866887498115], [88.51818938482432, 27.46866887498115], [88.51818938482432, 27.46597692504033], [88.51666985836887, 27.46597692504033], [88.51666985836887, 27.4619390001291], [88.51515033191342, 27.4619390001291], [88.51515033191342, 27.46059302515869], [88.51363080545798, 27.46059302515869], [88.51363080545798, 27.45117120036582], [88.51211127900253, 27.45117120036582], [88.51211127900253, 27.44444132551377], [88.51059175254707, 27.44444132551377], [88.51059175254707, 27.436365475691307], [88.51211127900253, 27.436365475691307], [88.51211127900253, 27.428289625868846], [88.51059175254707, 27.428289625868846], [88.51059175254707, 27.425597675928028], [88.51211127900253, 27.425597675928028], [88.51211127900253, 27.422905725987206], [88.51363080545798, 27.422905725987206], [88.51363080545798, 27.410791951253515], [88.51515033191342, 27.410791951253515], [88.51515033191342, 27.408100001312697], [88.51666985836887, 27.408100001312697], [88.51666985836887, 27.405408051371875], [88.51818938482432, 27.405408051371875], [88.51818938482432, 27.400024151490236], [88.51666985836887, 27.400024151490236], [88.51666985836887, 27.398678176519823], [88.51515033191342, 27.398678176519823], [88.51515033191342, 27.397332201549414], [88.51363080545798, 27.397332201549414], [88.51363080545798, 27.395986226579005], [88.51211127900253, 27.395986226579005], [88.51211127900253, 27.393294276638184], [88.51363080545798, 27.393294276638184], [88.51363080545798, 27.394640251608593], [88.51515033191342, 27.394640251608593], [88.51515033191342, 27.395986226579005], [88.51666985836887, 27.395986226579005], [88.51666985836887, 27.397332201549414], [88.51818938482432, 27.397332201549414], [88.51818938482432, 27.398678176519823], [88.51970891127978, 27.398678176519823], [88.51970891127978, 27.401370126460645], [88.52122843773523, 27.401370126460645], [88.52122843773523, 27.404062076401466], [88.51970891127978, 27.404062076401466], [88.51970891127978, 27.406754026342284], [88.51818938482432, 27.406754026342284], [88.51818938482432, 27.409445976283106], [88.51666985836887, 27.409445976283106], [88.51666985836887, 27.412137926223927], [88.51515033191342, 27.412137926223927], [88.51515033191342, 27.424251700957615], [88.51363080545798, 27.424251700957615], [88.51363080545798, 27.43771145066172], [88.51211127900253, 27.43771145066172], [88.51211127900253, 27.44309535054336], [88.51363080545798, 27.44309535054336], [88.51363080545798, 27.44444132551377], [88.51515033191342, 27.44444132551377], [88.51515033191342, 27.45924705018828], [88.51666985836887, 27.45924705018828], [88.51666985836887, 27.46059302515869], [88.51818938482432, 27.46059302515869], [88.51818938482432, 27.46463095006992], [88.51970891127978, 27.46463095006992], [88.51970891127978, 27.467322900010743], [88.52122843773523, 27.467322900010743], [88.52122843773523, 27.471360824921973], [88.52274796419069, 27.471360824921973], [88.52274796419069, 27.472706799892382], [88.52426749064614, 27.472706799892382], [88.52426749064614, 27.47405277486279], [88.52578701710158, 27.47405277486279], [88.52578701710158, 27.480782649714843], [88.52426749064614, 27.480782649714843], [88.52426749064614, 27.486166549596483], [88.52274796419069, 27.486166549596483], [88.52274796419069, 27.495588374389357], [88.52426749064614, 27.495588374389357], [88.52426749064614, 27.498280324330175], [88.52578701710158, 27.498280324330175], [88.52578701710158, 27.499626299300584], [88.52730654355703, 27.499626299300584], [88.52730654355703, 27.509048124093457], [88.52882607001249, 27.509048124093457], [88.52882607001249, 27.510394099063866], [88.53034559646794, 27.510394099063866], [88.53034559646794, 27.513086049004688], [88.53186512292339, 27.513086049004688], [88.53186512292339, 27.51712397391592], [88.53338464937885, 27.51712397391592], [88.53338464937885, 27.52116189882715], [88.53490417583428, 27.52116189882715], [88.53490417583428, 27.522507873797558], [88.53794322874519, 27.522507873797558], [88.53794322874519, 27.523853848767967], [88.53946275520065, 27.523853848767967], [88.53946275520065, 27.52519982373838], [88.544021334567, 27.52519982373838], [88.544021334567, 27.52654579870879], [88.55161896684426, 27.52654579870879], [88.55161896684426, 27.527891773679197], [88.56073612557697, 27.527891773679197], [88.56073612557697, 27.52654579870879], [88.56681423139877, 27.52654579870879], [88.56681423139877, 27.52519982373838], [88.57897044304238, 27.52519982373838], [88.57897044304238, 27.52654579870879], [88.58200949595329, 27.52654579870879], [88.58200949595329, 27.527891773679197], [88.58504854886418, 27.527891773679197], [88.58504854886418, 27.53058372362002], [88.58656807531963, 27.53058372362002], [88.58656807531963, 27.531929698590428], [88.58960712823054, 27.531929698590428], [88.58960712823054, 27.53327567356084], [88.591126654686, 27.53327567356084], [88.591126654686, 27.53462164853125], [88.6002438134187, 27.53462164853125], [88.6002438134187, 27.53596762350166], [88.60328286632961, 27.53596762350166], [88.60328286632961, 27.53731359847207], [88.6093609721514, 27.53731359847207], [88.6093609721514, 27.53865957344248], [88.61240002506231, 27.53865957344248], [88.61240002506231, 27.54000554841289], [88.61391955151777, 27.54000554841289], [88.61391955151777, 27.541351523383298], [88.61695860442866, 27.541351523383298], [88.61695860442866, 27.54269749835371], [88.61999765733957, 27.54269749835371], [88.61999765733957, 27.54404347332412], [88.63215386898318, 27.54404347332412], [88.63215386898318, 27.54538944829453], [88.63975150126043, 27.54538944829453], [88.63975150126043, 27.54673542326494], [88.64127102771589, 27.54673542326494], [88.64127102771589, 27.54808139823535], [88.6534272393595, 27.54808139823535], [88.6534272393595, 27.54942737320576], [88.65494676581494, 27.54942737320576], [88.65494676581494, 27.550773348176172], [88.6564662922704, 27.550773348176172], [88.6564662922704, 27.558849197998633], [88.65494676581494, 27.558849197998633], [88.65494676581494, 27.576346872613964], [88.6564662922704, 27.576346872613964], [88.6564662922704, 27.577692847584373], [88.65798581872585, 27.577692847584373], [88.65798581872585, 27.584422722436425], [88.6564662922704, 27.584422722436425], [88.6564662922704, 27.588460647347656], [88.65798581872585, 27.588460647347656], [88.65798581872585, 27.592498572258886], [88.6564662922704, 27.592498572258886], [88.6564662922704, 27.595190522199704], [88.65494676581494, 27.595190522199704], [88.65494676581494, 27.596536497170117], [88.65190771290405, 27.596536497170117], [88.65190771290405, 27.599228447110935], [88.6503881864486, 27.599228447110935], [88.6503881864486, 27.601920397051757], [88.64886865999314, 27.601920397051757], [88.64886865999314, 27.603266372022166], [88.6503881864486, 27.603266372022166], [88.6503881864486, 27.605958321962987], [88.64886865999314, 27.605958321962987]]]}, "properties": {"area_km2": 7.9616, "min_depth_m": 0.05}}]}