{"type": "FeatureCollection", "crs": {"type": "name", "properties": {"name": "urn:ogc:def:crs:OGC:1.3:CRS84"}}, "features": [{"type": "Feature", "geometry": {"type": "Polygon", "coordinates": [[[88.64987799200065, 27.598444762795815], [88.64987799200065, 27.59682749694609], [88.65078958800525, 27.59682749694609], [88.65078958800525, 27.59601886402123], [88.65170118400987, 27.59601886402123], [88.65170118400987, 27.595210231096367], [88.65261278001446, 27.595210231096367], [88.65261278001446, 27.594401598171505], [88.65352437601906, 27.594401598171505], [88.65352437601906, 27.593592965246643], [88.65443597202366, 27.593592965246643], [88.65443597202366, 27.59278433232178], [88.65534756802826, 27.59278433232178], [88.65534756802826, 27.58874116769747], [88.65443597202366, 27.58874116769747], [88.65443597202366, 27.584698003073164], [88.65534756802826, 27.584698003073164], [88.65534756802826, 27.57903757259913], [88.65443597202366, 27.57903757259913], [88.65443597202366, 27.577420306749406], [88.65352437601906, 27.577420306749406], [88.65352437601906, 27.576611673824544], [88.65261278001446, 27.576611673824544], [88.65261278001446, 27.574185775049962], [88.65170118400987, 27.574185775049962], [88.65170118400987, 27.5733771421251], [88.65261278001446, 27.5733771421251], [88.65261278001446, 27.558821749477588], [88.65352437601906, 27.558821749477588], [88.65352437601906, 27.557204483627864], [88.65443597202366, 27.557204483627864], [88.65443597202366, 27.55235268607869], [88.65352437601906, 27.55235268607869], [88.65352437601906, 27.551544053153833], [88.65261278001446, 27.551544053153833], [88.65261278001446, 27.55073542022897], [88.65170118400987, 27.55073542022897], [88.65170118400987, 27.54992678730411], [88.64896639599606, 27.54992678730411], [88.64896639599606, 27.55073542022897], [88.64167362795924, 27.55073542022897], [88.64167362795924, 27.54992678730411], [88.64076203195464, 27.54992678730411], [88.64076203195464, 27.549118154379247], [88.63985043595004, 27.549118154379247], [88.63985043595004, 27.548309521454385], [88.63893883994544, 27.548309521454385], [88.63893883994544, 27.547500888529523], [88.63438085992243, 27.547500888529523], [88.63438085992243, 27.54669225560466], [88.63073447590402, 27.54669225560466], [88.63073447590402, 27.5458836226798], [88.62982287989942, 27.5458836226798], [88.62982287989942, 27.545074989754937], [88.62708809188562, 27.545074989754937], [88.62708809188562, 27.5458836226798], [88.62344170786722, 27.5458836226798], [88.62344170786722, 27.545074989754937], [88.61797213183961, 27.545074989754937], [88.61797213183961, 27.544266356830075], [88.6161489398304, 27.544266356830075], [88.6161489398304, 27.543457723905213], [88.6143257478212, 27.543457723905213], [88.6143257478212, 27.54264909098035], [88.61159095980739, 27.54264909098035], [88.61159095980739, 27.54184045805549], [88.61067936380279, 27.54184045805549], [88.61067936380279, 27.541031825130627], [88.60885617179359, 27.541031825130627], [88.60885617179359, 27.540223192205765], [88.60703297978438, 27.540223192205765], [88.60703297978438, 27.539414559280903], [88.60612138377978, 27.539414559280903], [88.60612138377978, 27.538605926356045], [88.60065180775217, 27.538605926356045], [88.60065180775217, 27.537797293431183], [88.59974021174757, 27.537797293431183], [88.59974021174757, 27.53698866050632], [88.59791701973838, 27.53698866050632], [88.59791701973838, 27.537797293431183], [88.59335903971537, 27.537797293431183], [88.59335903971537, 27.53698866050632], [88.59244744371075, 27.53698866050632], [88.59244744371075, 27.53618002758146], [88.59062425170156, 27.53618002758146], [88.59062425170156, 27.535371394656597], [88.58880105969236, 27.535371394656597], [88.58880105969236, 27.534562761731735], [88.58788946368776, 27.534562761731735], [88.58788946368776, 27.533754128806873], [88.58697786768315, 27.533754128806873], [88.58697786768315, 27.53294549588201], [88.58515467567395, 27.53294549588201], [88.58515467567395, 27.53213686295715], [88.58424307966935, 27.53213686295715], [88.58424307966935, 27.531328230032287], [88.58333148366475, 27.531328230032287], [88.58333148366475, 27.530519597107425], [88.58241988766014, 27.530519597107425], [88.58241988766014, 27.529710964182563], [88.58059669565094, 27.529710964182563], [88.58059669565094, 27.5289023312577], [88.57968509964634, 27.5289023312577], [88.57968509964634, 27.52809369833284], [88.57695031163253, 27.52809369833284], [88.57695031163253, 27.527285065407977], [88.57239233160952, 27.527285065407977], [88.57239233160952, 27.52647643248312], [88.56874594759113, 27.52647643248312], [88.56874594759113, 27.527285065407977], [88.56783435158653, 27.527285065407977], [88.56783435158653, 27.52809369833284], [88.56509956357272, 27.52809369833284], [88.56509956357272, 27.5289023312577], [88.5614531795543, 27.5289023312577], [88.5614531795543, 27.529710964182563], [88.55962998754511, 27.529710964182563], [88.55962998754511, 27.530519597107425], [88.5550720075221, 27.530519597107425], [88.5550720075221, 27.529710964182563], [88.54960243149449, 27.529710964182563], [88.54960243149449, 27.52809369833284], [88.54048647144847, 27.52809369833284], [88.54048647144847, 27.527285065407977], [88.53957487544388, 27.527285065407977], [88.53957487544388, 27.52647643248312], [88.53775168343466, 27.52647643248312], [88.53775168343466, 27.525667799558256], [88.53684008743006, 27.525667799558256], [88.53684008743006, 27.524859166633394], [88.53592849142547, 27.524859166633394], [88.53592849142547, 27.524050533708532], [88.53410529941627, 27.524050533708532], [88.53410529941627, 27.52324190078367], [88.53319370341165, 27.52324190078367], [88.53319370341165, 27.52243326785881], [88.53045891539786, 27.52243326785881], [88.53045891539786, 27.52324190078367], [88.52863572338866, 27.52324190078367], [88.52863572338866, 27.52243326785881], [88.52954731939326, 27.52243326785881], [88.52954731939326, 27.521624634933946], [88.53045891539786, 27.521624634933946], [88.53045891539786, 27.520816002009084], [88.53137051140246, 27.520816002009084], [88.53137051140246, 27.51919873615936], [88.53045891539786, 27.51919873615936], [88.53045891539786, 27.515964204459912], [88.52954731939326, 27.515964204459912], [88.52954731939326, 27.51434693861019], [88.52863572338866, 27.51434693861019], [88.52863572338866, 27.51353830568533], [88.52772412738405, 27.51353830568533], [88.52772412738405, 27.511112406910744], [88.52681253137945, 27.511112406910744], [88.52681253137945, 27.510303773985882], [88.52590093537485, 27.510303773985882], [88.52590093537485, 27.507877875211296], [88.52498933937025, 27.507877875211296], [88.52498933937025, 27.502217444737262], [88.52407774336565, 27.502217444737262], [88.52407774336565, 27.498982913037818], [88.52316614736104, 27.498982913037818], [88.52316614736104, 27.497365647188094], [88.52225455135644, 27.497365647188094], [88.52225455135644, 27.49655701426323], [88.52134295535184, 27.49655701426323], [88.52134295535184, 27.494131115488646], [88.52043135934724, 27.494131115488646], [88.52043135934724, 27.490896583789198], [88.51860816733804, 27.490896583789198], [88.51860816733804, 27.490087950864336], [88.52043135934724, 27.490087950864336], [88.52043135934724, 27.48604478624003], [88.52134295535184, 27.48604478624003], [88.52134295535184, 27.484427520390305], [88.52225455135644, 27.484427520390305], [88.52225455135644, 27.483618887465443], [88.52316614736104, 27.483618887465443], [88.52316614736104, 27.47795845699141], [88.52407774336565, 27.47795845699141], [88.52407774336565, 27.47634119114169], [88.52316614736104, 27.47634119114169], [88.52316614736104, 27.474723925291965], [88.52225455135644, 27.474723925291965], [88.52225455135644, 27.473915292367103], [88.52134295535184, 27.473915292367103], [88.52134295535184, 27.47310665944224], [88.52043135934724, 27.47310665944224], [88.52043135934724, 27.470680760667655], [88.51951976334264, 27.470680760667655], [88.51951976334264, 27.469872127742793], [88.51860816733804, 27.469872127742793], [88.51860816733804, 27.467446228968207], [88.51769657133343, 27.467446228968207], [88.51769657133343, 27.46502033019362], [88.51678497532883, 27.46502033019362], [88.51678497532883, 27.4634030643439], [88.51587337932423, 27.4634030643439], [88.51587337932423, 27.461785798494176], [88.51496178331963, 27.461785798494176], [88.51496178331963, 27.460168532644452], [88.51405018731504, 27.460168532644452], [88.51405018731504, 27.45935989971959], [88.51313859131042, 27.45935989971959], [88.51313859131042, 27.448847671696388], [88.51222699530582, 27.448847671696388], [88.51222699530582, 27.447230405846664], [88.51313859131042, 27.447230405846664], [88.51313859131042, 27.44561313999694], [88.51222699530582, 27.44561313999694], [88.51222699530582, 27.443995874147216], [88.51040380329663, 27.443995874147216], [88.51040380329663, 27.437526810748324], [88.51131539930122, 27.437526810748324], [88.51131539930122, 27.4359095448986], [88.51222699530582, 27.4359095448986], [88.51222699530582, 27.430249114424566], [88.51131539930122, 27.430249114424566], [88.51131539930122, 27.424588683950535], [88.51222699530582, 27.424588683950535], [88.51222699530582, 27.42297141810081], [88.51313859131042, 27.42297141810081], [88.51313859131042, 27.41326782300247], [88.51405018731504, 27.41326782300247], [88.51405018731504, 27.410841924227885], [88.51496178331963, 27.410841924227885], [88.51496178331963, 27.410033291303023], [88.51587337932423, 27.410033291303023], [88.51587337932423, 27.407607392528437], [88.51678497532883, 27.407607392528437], [88.51678497532883, 27.405990126678713], [88.51769657133343, 27.405990126678713], [88.51769657133343, 27.40437286082899], [88.51860816733804, 27.40437286082899], [88.51860816733804, 27.401946962054406], [88.51769657133343, 27.401946962054406], [88.51769657133343, 27.400329696204683], [88.51678497532883, 27.400329696204683], [88.51678497532883, 27.39952106327982], [88.51587337932423, 27.39952106327982], [88.51587337932423, 27.39871243035496], [88.51496178331963, 27.39871243035496], [88.51496178331963, 27.397903797430097], [88.51405018731504, 27.397903797430097], [88.51405018731504, 27.396286531580373], [88.51313859131042, 27.396286531580373], [88.51313859131042, 27.39547789865551], [88.51222699530582, 27.39547789865551], [88.51222699530582, 27.393860632805787], [88.51131539930122, 27.393860632805787], [88.51131539930122, 27.393051999880925], [88.51040380329663, 27.393051999880925], [88.51040380329663, 27.392243366956063], [88.50949220729203, 27.392243366956063], [88.50949220729203, 27.39062610110634], [88.50858061128741, 27.39062610110634], [88.50858061128741, 27.38981746818148], [88.50675741927822, 27.38981746818148], [88.50675741927822, 27.389008835256618], [88.50584582327362, 27.389008835256618], [88.50584582327362, 27.388200202331756], [88.50402263126442, 27.388200202331756], [88.50402263126442, 27.387391569406894], [88.50219943925521, 27.387391569406894], [88.50219943925521, 27.386582936482032], [88.50037624724601, 27.386582936482032], [88.50037624724601, 27.38577430355717], [88.4985530552368, 27.38577430355717], [88.4985530552368, 27.384965670632308], [88.4967298632276, 27.384965670632308], [88.4967298632276, 27.384157037707446], [88.4939950752138, 27.384157037707446], [88.4939950752138, 27.383348404782584], [88.49308347920919, 27.383348404782584], [88.49308347920919, 27.382539771857722], [88.49126028719999, 27.382539771857722], [88.49126028719999, 27.38173113893286], [88.4894370951908, 27.38173113893286], [88.4894370951908, 27.380922506007998], [88.48852549918618, 27.380922506007998], [88.48852549918618, 27.380113873083136], [88.48670230717698, 27.380113873083136], [88.48670230717698, 27.379305240158274], [88.48579071117238, 27.379305240158274], [88.48579071117238, 27.378496607233412], [88.48487911516779, 27.378496607233412], [88.48487911516779, 27.377687974308554], [88.48214432715397, 27.377687974308554], [88.48214432715397, 27.37607070845883], [88.48123273114938, 27.37607070845883], [88.48123273114938, 27.374453442609106], [88.48032113514478, 27.374453442609106], [88.48032113514478, 27.373644809684244], [88.47940953914018, 27.373644809684244], [88.47940953914018, 27.371218910909658], [88.47849794313557, 27.371218910909658], [88.47849794313557, 27.367175746285348], [88.47758634713097, 27.367175746285348], [88.47758634713097, 27.364749847510765], [88.47667475112637, 27.364749847510765], [88.47667475112637, 27.36313258166104], [88.47576315512177, 27.36313258166104], [88.47576315512177, 27.355854885337283], [88.47485155911717, 27.355854885337283], [88.47485155911717, 27.351003087788115], [88.47576315512177, 27.351003087788115], [88.47576315512177, 27.34857718901353], [88.47667475112637, 27.34857718901353], [88.47667475112637, 27.347768556088667], [88.47758634713097, 27.347768556088667], [88.47758634713097, 27.34453402438922], [88.47849794313557, 27.34453402438922], [88.47849794313557, 27.340490859764913], [88.47940953914018, 27.340490859764913], [88.47940953914018, 27.338064960990327], [88.48032113514478, 27.338064960990327], [88.48032113514478, 27.329978631741707], [88.47940953914018, 27.329978631741707], [88.47940953914018, 27.329169998816845], [88.47849794313557, 27.329169998816845], [88.47849794313557, 27.328361365891986], [88.47758634713097, 27.328361365891986], [88.47758634713097, 27.327552732967124], [88.47576315512177, 27.327552732967124], [88.47576315512177, 27.326744100042262], [88.47302836710796, 27.326744100042262], [88.47302836710796, 27.3259354671174], [88.47120517509876, 27.3259354671174], [88.47120517509876, 27.325126834192538], [88.47029357909416, 27.325126834192538], [88.47029357909416, 27.324318201267676], [88.46847038708495, 27.324318201267676], [88.46847038708495, 27.323509568342814], [88.46755879108035, 27.323509568342814], [88.46755879108035, 27.322700935417952], [88.46664719507575, 27.322700935417952], [88.46664719507575, 27.32189230249309], [88.46391240706194, 27.32189230249309], [88.46391240706194, 27.321083669568228], [88.46300081105734, 27.321083669568228], [88.46300081105734, 27.320275036643366], [88.46117761904814, 27.320275036643366], [88.46117761904814, 27.319466403718504], [88.45570804302054, 27.319466403718504], [88.45570804302054, 27.318657770793642], [88.45388485101132, 27.318657770793642], [88.45388485101132, 27.31784913786878], [88.45297325500673, 27.31784913786878], [88.45297325500673, 27.317040504943918], [88.45206165900213, 27.317040504943918], [88.45206165900213, 27.316231872019056], [88.45115006299753, 27.316231872019056], [88.45115006299753, 27.315423239094198], [88.44932687098832, 27.315423239094198], [88.44932687098832, 27.314614606169336], [88.44750367897912, 27.314614606169336], [88.44750367897912, 27.31218870739475], [88.44841527498372, 27.31218870739475], [88.44841527498372, 27.311380074469888], [88.44932687098832, 27.311380074469888], [88.44932687098832, 27.309762808620164], [88.45115006299753, 27.309762808620164], [88.45115006299753, 27.31218870739475], [88.45023846699293, 27.31218870739475], [88.45023846699293, 27.313805973244474], [88.45115006299753, 27.313805973244474], [88.45115006299753, 27.314614606169336], [88.45206165900213, 27.314614606169336], [88.45206165900213, 27.315423239094198], [88.45297325500673, 27.315423239094198], [88.45297325500673, 27.316231872019056], [88.45479644701594, 27.316231872019056], [88.45479644701594, 27.317040504943918], [88.45661963902513, 27.317040504943918], [88.45661963902513, 27.31784913786878], [88.45935442703895, 27.31784913786878], [88.45935442703895, 27.317040504943918], [88.46208921505274, 27.317040504943918], [88.46208921505274, 27.31784913786878], [88.46391240706194, 27.31784913786878], [88.46391240706194, 27.318657770793642], [88.46482400306655, 27.318657770793642], [88.46482400306655, 27.319466403718504], [88.46664719507575, 27.319466403718504], [88.46664719507575, 27.320275036643366], [88.46755879108035, 27.320275036643366], [88.46755879108035, 27.321083669568228], [88.46938198308956, 27.321083669568228], [88.46938198308956, 27.32189230249309], [88.47029357909416, 27.32189230249309], [88.47029357909416, 27.322700935417952], [88.47211677110336, 27.322700935417952], [88.47211677110336, 27.323509568342814], [88.47393996311256, 27.323509568342814], [88.47393996311256, 27.324318201267676], [88.47576315512177, 27.324318201267676], [88.47576315512177, 27.325126834192538], [88.47758634713097, 27.325126834192538], [88.47758634713097, 27.3259354671174], [88.47940953914018, 27.3259354671174], [88.47940953914018, 27.326744100042262], [88.48032113514478, 27.326744100042262], [88.48032113514478, 27.327552732967124], [88.48214432715397, 27.327552732967124], [88.48214432715397, 27.329978631741707], [88.48305592315857, 27.329978631741707], [88.48305592315857, 27.338064960990327], [88.48214432715397, 27.338064960990327], [88.48214432715397, 27.33968222684005], [88.48123273114938, 27.33968222684005], [88.48123273114938, 27.342916758539495], [88.48032113514478, 27.342916758539495], [88.48032113514478, 27.346151290238943], [88.47940953914018, 27.346151290238943], [88.47940953914018, 27.347768556088667], [88.47849794313557, 27.347768556088667], [88.47849794313557, 27.34938582193839], [88.47758634713097, 27.34938582193839], [88.47758634713097, 27.351003087788115], [88.47667475112637, 27.351003087788115], [88.47667475112637, 27.35504625241242], [88.47758634713097, 27.35504625241242], [88.47758634713097, 27.35908941703673], [88.47849794313557, 27.35908941703673], [88.47849794313557, 27.36313258166104], [88.47940953914018, 27.36313258166104], [88.47940953914018, 27.364749847510765], [88.48032113514478, 27.364749847510765], [88.48032113514478, 27.369601645059934], [88.48123273114938, 27.369601645059934], [88.48123273114938, 27.37283617675938], [88.48214432715397, 27.37283617675938], [88.48214432715397, 27.373644809684244], [88.48305592315857, 27.373644809684244], [88.48305592315857, 27.375262075533968], [88.48396751916317, 27.375262075533968], [88.48396751916317, 27.37607070845883], [88.48487911516779, 27.37607070845883], [88.48487911516779, 27.37687934138369], [88.48579071117238, 27.37687934138369], [88.48579071117238, 27.377687974308554], [88.48761390318158, 27.377687974308554], [88.48761390318158, 27.378496607233412], [88.4894370951908, 27.378496607233412], [88.4894370951908, 27.379305240158274], [88.49126028719999, 27.379305240158274], [88.49126028719999, 27.380113873083136], [88.49308347920919, 27.380113873083136], [88.49308347920919, 27.380922506007998], [88.4939950752138, 27.380922506007998], [88.4939950752138, 27.38173113893286], [88.4949066712184, 27.38173113893286], [88.4949066712184, 27.382539771857722], [88.4985530552368, 27.382539771857722], [88.4985530552368, 27.383348404782584], [88.50037624724601, 27.383348404782584], [88.50037624724601, 27.384157037707446], [88.50128784325061, 27.384157037707446], [88.50128784325061, 27.384965670632308], [88.50219943925521, 27.384965670632308], [88.50219943925521, 27.38577430355717], [88.50402263126442, 27.38577430355717], [88.50402263126442, 27.386582936482032], [88.50584582327362, 27.386582936482032], [88.50584582327362, 27.387391569406894], [88.50675741927822, 27.387391569406894], [88.50675741927822, 27.388200202331756], [88.50949220729203, 27.388200202331756], [88.50949220729203, 27.38981746818148], [88.51131539930122, 27.38981746818148], [88.51131539930122, 27.3914347340312], [88.51222699530582, 27.3914347340312], [88.51222699530582, 27.392243366956063], [88.51313859131042, 27.392243366956063], [88.51313859131042, 27.393860632805787], [88.51405018731504, 27.393860632805787], [88.51405018731504, 27.39466926573065], [88.51496178331963, 27.39466926573065], [88.51496178331963, 27.396286531580373], [88.51587337932423, 27.396286531580373], [88.51587337932423, 27.397095164505235], [88.51678497532883, 27.397095164505235], [88.51678497532883, 27.397903797430097], [88.51769657133343, 27.397903797430097], [88.51769657133343, 27.39871243035496], [88.51860816733804, 27.39871243035496], [88.51860816733804, 27.39952106327982], [88.51951976334264, 27.39952106327982], [88.51951976334264, 27.400329696204683], [88.52043135934724, 27.400329696204683], [88.52043135934724, 27.401138329129545], [88.52134295535184, 27.401138329129545], [88.52134295535184, 27.401946962054406], [88.52225455135644, 27.401946962054406], [88.52225455135644, 27.40275559497927], [88.52134295535184, 27.40275559497927], [88.52134295535184, 27.403564227904127], [88.52043135934724, 27.403564227904127], [88.52043135934724, 27.40518149375385], [88.51951976334264, 27.40518149375385], [88.51951976334264, 27.406798759603575], [88.51860816733804, 27.406798759603575], [88.51860816733804, 27.40922465837816], [88.51769657133343, 27.40922465837816], [88.51769657133343, 27.410033291303023], [88.51678497532883, 27.410033291303023], [88.51678497532883, 27.41245919007761], [88.51587337932423, 27.41245919007761], [88.51587337932423, 27.414076455927333], [88.51496178331963, 27.414076455927333], [88.51496178331963, 27.4189282534765], [88.51587337932423, 27.4189282534765], [88.51587337932423, 27.421354152251087], [88.51496178331963, 27.421354152251087], [88.51496178331963, 27.424588683950535], [88.51405018731504, 27.424588683950535], [88.51405018731504, 27.425397316875397], [88.51313859131042, 27.425397316875397], [88.51313859131042, 27.42863184857484], [88.51405018731504, 27.42863184857484], [88.51405018731504, 27.43267501319915], [88.51313859131042, 27.43267501319915], [88.51313859131042, 27.434292279048876], [88.51405018731504, 27.434292279048876], [88.51405018731504, 27.437526810748324], [88.51313859131042, 27.437526810748324], [88.51313859131042, 27.438335443673186], [88.51222699530582, 27.438335443673186], [88.51222699530582, 27.442378608297492], [88.51313859131042, 27.442378608297492], [88.51313859131042, 27.443187241222354], [88.51405018731504, 27.443187241222354], [88.51405018731504, 27.444804507072078], [88.51496178331963, 27.444804507072078], [88.51496178331963, 27.452082203395836], [88.51587337932423, 27.452082203395836], [88.51587337932423, 27.45531673509528], [88.51496178331963, 27.45531673509528], [88.51496178331963, 27.456125368020142], [88.51587337932423, 27.456125368020142], [88.51587337932423, 27.45935989971959], [88.51678497532883, 27.45935989971959], [88.51678497532883, 27.460977165569314], [88.51769657133343, 27.460977165569314], [88.51769657133343, 27.46259443141904], [88.51860816733804, 27.46259443141904], [88.51860816733804, 27.464211697268762], [88.51951976334264, 27.464211697268762], [88.51951976334264, 27.465828963118483], [88.52043135934724, 27.465828963118483], [88.52043135934724, 27.467446228968207], [88.52134295535184, 27.467446228968207], [88.52134295535184, 27.470680760667655], [88.52225455135644, 27.470680760667655], [88.52225455135644, 27.471489393592517], [88.52316614736104, 27.471489393592517], [88.52316614736104, 27.47229802651738], [88.52407774336565, 27.47229802651738], [88.52407774336565, 27.47310665944224], [88.52498933937025, 27.47310665944224], [88.52498933937025, 27.475532558216827], [88.52590093537485, 27.475532558216827], [88.52590093537485, 27.479575722841133], [88.52498933937025, 27.479575722841133], [88.52498933937025, 27.484427520390305], [88.52407774336565, 27.484427520390305], [88.52407774336565, 27.485236153315167], [88.52316614736104, 27.485236153315167], [88.52316614736104, 27.48685341916489], [88.52225455135644, 27.48685341916489], [88.52225455135644, 27.490087950864336], [88.52316614736104, 27.490087950864336], [88.52316614736104, 27.49170521671406], [88.52225455135644, 27.49170521671406], [88.52225455135644, 27.493322482563784], [88.52316614736104, 27.493322482563784], [88.52316614736104, 27.49574838133837], [88.52407774336565, 27.49574838133837], [88.52407774336565, 27.497365647188094], [88.52498933937025, 27.497365647188094], [88.52498933937025, 27.498174280112956], [88.52590093537485, 27.498174280112956], [88.52590093537485, 27.498982913037818], [88.52681253137945, 27.498982913037818], [88.52681253137945, 27.502217444737262], [88.52772412738405, 27.502217444737262], [88.52772412738405, 27.508686508136158], [88.52863572338866, 27.508686508136158], [88.52863572338866, 27.50949514106102], [88.52954731939326, 27.50949514106102], [88.52954731939326, 27.510303773985882], [88.53045891539786, 27.510303773985882], [88.53045891539786, 27.51353830568533], [88.53137051140246, 27.51353830568533], [88.53137051140246, 27.51434693861019], [88.53228210740706, 27.51434693861019], [88.53228210740706, 27.517581470309636], [88.53319370341165, 27.517581470309636], [88.53319370341165, 27.521624634933946], [88.53592849142547, 27.521624634933946], [88.53592849142547, 27.52243326785881], [88.53684008743006, 27.52243326785881], [88.53684008743006, 27.52324190078367], [88.53775168343466, 27.52324190078367], [88.53775168343466, 27.524050533708532], [88.53957487544388, 27.524050533708532], [88.53957487544388, 27.524859166633394], [88.54139806745307, 27.524859166633394], [88.54139806745307, 27.52647643248312], [88.54230966345767, 27.52647643248312], [88.54230966345767, 27.525667799558256], [88.54595604747608, 27.525667799558256], [88.54595604747608, 27.52647643248312], [88.55051402749909, 27.52647643248312], [88.55051402749909, 27.527285065407977], [88.55142562350369, 27.527285065407977], [88.55142562350369, 27.52809369833284], [88.5568951995313, 27.52809369833284], [88.5568951995313, 27.5289023312577], [88.55871839154051, 27.5289023312577], [88.55871839154051, 27.52809369833284], [88.55962998754511, 27.52809369833284], [88.55962998754511, 27.527285065407977], [88.5605415835497, 27.527285065407977], [88.5605415835497, 27.52647643248312], [88.56601115957731, 27.52647643248312], [88.56601115957731, 27.525667799558256], [88.56692275558191, 27.525667799558256], [88.56692275558191, 27.524859166633394], [88.57330392761413, 27.524859166633394], [88.57330392761413, 27.525667799558256], [88.57421552361873, 27.525667799558256], [88.57421552361873, 27.524859166633394], [88.57786190763714, 27.524859166633394], [88.57786190763714, 27.525667799558256], [88.57968509964634, 27.525667799558256], [88.57968509964634, 27.52647643248312], [88.58059669565094, 27.52647643248312], [88.58059669565094, 27.527285065407977], [88.58424307966935, 27.527285065407977], [88.58424307966935, 27.52809369833284], [88.58515467567395, 27.52809369833284], [88.58515467567395, 27.529710964182563], [88.58606627167855, 27.529710964182563], [88.58606627167855, 27.530519597107425], [88.58697786768315, 27.530519597107425], [88.58697786768315, 27.531328230032287], [88.58788946368776, 27.531328230032287], [88.58788946368776, 27.53213686295715], [88.58880105969236, 27.53213686295715], [88.58880105969236, 27.53294549588201], [88.59062425170156, 27.53294549588201], [88.59062425170156, 27.533754128806873], [88.59153584770615, 27.533754128806873], [88.59153584770615, 27.534562761731735], [88.59335903971537, 27.534562761731735], [88.59335903971537, 27.535371394656597], [88.59882861574297, 27.535371394656597], [88.59882861574297, 27.534562761731735], [88.60065180775217, 27.534562761731735], [88.60065180775217, 27.535371394656597], [88.60156340375677, 27.535371394656597], [88.60156340375677, 27.53618002758146], [88.60247499976138, 27.53618002758146], [88.60247499976138, 27.53698866050632], [88.60703297978438, 27.53698866050632], [88.60703297978438, 27.537797293431183], [88.60976776779819, 27.537797293431183], [88.60976776779819, 27.538605926356045], [88.61159095980739, 27.538605926356045], [88.61159095980739, 27.539414559280903], [88.612502555812, 27.539414559280903], [88.612502555812, 27.540223192205765], [88.6134141518166, 27.540223192205765], [88.6134141518166, 27.541031825130627], [88.6152373438258, 27.541031825130627], [88.6152373438258, 27.54184045805549], [88.6161489398304, 27.54184045805549], [88.6161489398304, 27.54264909098035], [88.6188837278442, 27.54264909098035], [88.6188837278442, 27.543457723905213], [88.6207069198534, 27.543457723905213], [88.6207069198534, 27.544266356830075], [88.62799968789022, 27.544266356830075], [88.62799968789022, 27.543457723905213], [88.62982287989942, 27.543457723905213], [88.62982287989942, 27.544266356830075], [88.63164607190862, 27.544266356830075], [88.63164607190862, 27.545074989754937], [88.63346926391783, 27.545074989754937], [88.63346926391783, 27.5458836226798], [88.63985043595004, 27.5458836226798], [88.63985043595004, 27.54669225560466], [88.64076203195464, 27.54669225560466], [88.64076203195464, 27.547500888529523], [88.64167362795924, 27.547500888529523], [88.64167362795924, 27.548309521454385], [88.64623160798224, 27.548309521454385], [88.64623160798224, 27.549118154379247], [88.64805479999146, 27.549118154379247], [88.64805479999146, 27.548309521454385], [88.65261278001446, 27.548309521454385], [88.65261278001446, 27.549118154379247], [88.65352437601906, 27.549118154379247], [88.65352437601906, 27.54992678730411], [88.65443597202366, 27.54992678730411], [88.65443597202366, 27.55073542022897], [88.65534756802826, 27.55073542022897], [88.65534756802826, 27.551544053153833], [88.65625916403286, 27.551544053153833], [88.65625916403286, 27.554778584853278], [88.65717076003747, 27.554778584853278], [88.65717076003747, 27.557204483627864], [88.65625916403286, 27.557204483627864], [88.65625916403286, 27.558821749477588], [88.65534756802826, 27.558821749477588], [88.65534756802826, 27.568525344575928], [88.65625916403286, 27.568525344575928], [88.65625916403286, 27.56933397750079], [88.65534756802826, 27.56933397750079], [88.65534756802826, 27.571759876275376], [88.65443597202366, 27.571759876275376], [88.65443597202366, 27.575803040899686], [88.65534756802826, 27.575803040899686], [88.65534756802826, 27.576611673824544], [88.65625916403286, 27.576611673824544], [88.65625916403286, 27.577420306749406], [88.65717076003747, 27.577420306749406], [88.65717076003747, 27.57903757259913], [88.65808235604207, 27.57903757259913], [88.65808235604207, 27.58308073722344], [88.65717076003747, 27.58308073722344], [88.65717076003747, 27.583889370148302], [88.65625916403286, 27.583889370148302], [88.65625916403286, 27.58712390184775], [88.65717076003747, 27.58712390184775], [88.65717076003747, 27.587932534772612], [88.65808235604207, 27.587932534772612], [88.65808235604207, 27.59197569939692], [88.65717076003747, 27.59197569939692], [88.65717076003747, 27.593592965246643], [88.65625916403286, 27.593592965246643], [88.65625916403286, 27.594401598171505], [88.65534756802826, 27.594401598171505], [88.65534756802826, 27.595210231096367], [88.65352437601906, 27.595210231096367], [88.65352437601906, 27.59601886402123], [88.65261278001446, 27.59601886402123], [88.65261278001446, 27.59682749694609], [88.65170118400987, 27.59682749694609], [88.65170118400987, 27.597636129870953], [88.65078958800525, 27.597636129870953], [88.65078958800525, 27.598444762795815], [88.64987799200065, 27.598444762795815]]]}, "properties": {"area_km2": 10.3908, "min_depth_m": 0.05}}]}