{"type": "FeatureCollection", "features": [{"type": "Feature", "geometry": {"type": "Point", "coordinates": [79.5612607, 30.5555752]}, "properties": {"name": "Joshīmath", "population": 16709, "place_class": "town", "population_source": "osm:population", "osm_id": "342105699"}}, {"type": "Feature", "geometry": {"type": "Point", "coordinates": [79.618965, 30.4780383]}, "properties": {"name": "Ringi", "population": 1500, "place_class": "village", "population_source": "class_default", "osm_id": "245770322"}}, {"type": "Feature", "geometry": {"type": "Point", "coordinates": [79.74152, 30.53101]}, "properties": {"name": "Suraithota", "population": 1500, "place_class": "village", "population_source": "class_default", "osm_id": "342104904"}}, {"type": "Feature", "geometry": {"type": "Point", "coordinates": [79.70719, 30.49667]}, "properties": {"name": "Lata", "population": 1500, "place_class": "village", "population_source": "class_default", "osm_id": "342104914"}}, {"type": "Feature", "geometry": {"type": "Point", "coordinates": [79.5657242, 30.5377872]}, "properties": {"name": "Auli", "population": 1500, "place_class": "village", "population_source": "class_default", "osm_id": "342105710"}}, {"type": "Feature", "geometry": {"type": "Point", "coordinates": [79.7316006, 30.5190206]}, "properties": {"name": "Balgaon", "population": 1500, "place_class": "village", "population_source": "class_default", "osm_id": "2386907495"}}, {"type": "Feature", "geometry": {"type": "Point", "coordinates": [79.6113429, 30.498861]}, "properties": {"name": "Dhak", "population": 1500, "place_class": "village", "population_source": "class_default", "osm_id": "5519535106"}}, {"type": "Feature", "geometry": {"type": "Point", "coordinates": [79.6102059, 30.4779429]}, "properties": {"name": "Raighadi", "population": 1500, "place_class": "village", "population_source": "class_default", "osm_id": "7690199371"}}, {"type": "Feature", "geometry": {"type": "Point", "coordinates": [79.6077382, 30.4830375]}, "properties": {"name": "Karchi", "population": 1500, "place_class": "village", "population_source": "class_default", "osm_id": "7690199372"}}, {"type": "Feature", "geometry": {"type": "Point", "coordinates": [79.6252673, 30.488531]}, "properties": {"name": "Tapoban", "population": 1500, "place_class": "village", "population_source": "class_default", "osm_id": "7833070513"}}, {"type": "Feature", "geometry": {"type": "Point", "coordinates": [79.6910907, 30.4852215]}, "properties": {"name": "Reni", "population": 1500, "place_class": "village", "population_source": "class_default", "osm_id": "7833070518"}}, {"type": "Feature", "geometry": {"type": "Point", "coordinates": [79.6768841, 30.4782325]}, "properties": {"name": "Subhain", "population": 1500, "place_class": "village", "population_source": "class_default", "osm_id": "7833070519"}}, {"type": "Feature", "geometry": {"type": "Point", "coordinates": [79.5387943, 30.5669897]}, "properties": {"name": "Chain", "population": 1500, "place_class": "village", "population_source": "class_default", "osm_id": "7833130298"}}, {"type": "Feature", "geometry": {"type": "Point", "coordinates": [79.5996133, 30.5212631]}, "properties": {"name": "Kharori", "population": 1500, "place_class": "village", "population_source": "class_default", "osm_id": "7833130310"}}, {"type": "Feature", "geometry": {"type": "Point", "coordinates": [79.6167121, 30.5001965]}, "properties": {"name": "Chamtoli", "population": 1500, "place_class": "village", "population_source": "class_default", "osm_id": "7833130313"}}, {"type": "Feature", "geometry": {"type": "Point", "coordinates": [79.5932808, 30.5295592]}, "properties": {"name": "Mirag", "population": 1500, "place_class": "village", "population_source": "class_default", "osm_id": "7833155599"}}, {"type": "Feature", "geometry": {"type": "Point", "coordinates": [79.5809743, 30.544045]}, "properties": {"name": "Oucha", "population": 1500, "place_class": "village", "population_source": "class_default", "osm_id": "7833155600"}}, {"type": "Feature", "geometry": {"type": "Point", "coordinates": [79.5981038, 30.4822562]}, "properties": {"name": "Tugasi", "population": 1500, "place_class": "village", "population_source": "class_default", "osm_id": "9387763623"}}, {"type": "Feature", "geometry": {"type": "Point", "coordinates": [79.6510041, 30.4840721]}, "properties": {"name": "Rini", "population": 250, "place_class": "hamlet", "population_source": "class_default", "osm_id": "2376466284"}}, {"type": "Feature", "geometry": {"type": "Point", "coordinates": [79.5791482, 30.5626444]}, "properties": {"name": "Vishnuprayāg", "population": 250, "place_class": "hamlet", "population_source": "class_default", "osm_id": "2376466294"}}, {"type": "Feature", "geometry": {"type": "Point", "coordinates": [79.752224, 30.5239133]}, "properties": {"name": "Tolma", "population": 250, "place_class": "hamlet", "population_source": "class_default", "osm_id": "2386907509"}}, {"type": "Feature", "geometry": {"type": "Point", "coordinates": [79.6331412, 30.4764781]}, "properties": {"name": "Rangeli", "population": 250, "place_class": "hamlet", "population_source": "class_default", "osm_id": "7733346070"}}, {"type": "Feature", "geometry": {"type": "Point", "coordinates": [79.6295181, 30.4703129]}, "properties": {"name": "Rikhulti", "population": 250, "place_class": "hamlet", "population_source": "class_default", "osm_id": "7733346071"}}, {"type": "Feature", "geometry": {"type": "Point", "coordinates": [79.626319, 30.4634951]}, "properties": {"name": "Dhurkunda", "population": 250, "place_class": "hamlet", "population_source": "class_default", "osm_id": "7733346072"}}, {"type": "Feature", "geometry": {"type": "Point", "coordinates": [79.7553134, 30.5517287]}, "properties": {"name": "Panwarsa", "population": 250, "place_class": "hamlet", "population_source": "class_default", "osm_id": "7733873626"}}, {"type": "Feature", "geometry": {"type": "Point", "coordinates": [79.7758162, 30.5566439]}, "properties": {"name": "Pagti", "population": 250, "place_class": "hamlet", "population_source": "class_default", "osm_id": "7733873627"}}, {"type": "Feature", "geometry": {"type": "Point", "coordinates": [79.6196412, 30.4952734]}, "properties": {"name": "Bilagarh", "population": 250, "place_class": "hamlet", "population_source": "class_default", "osm_id": "7833070511"}}, {"type": "Feature", "geometry": {"type": "Point", "coordinates": [79.6321168, 30.4956893]}, "properties": {"name": "Bhangyul", "population": 250, "place_class": "hamlet", "population_source": "class_default", "osm_id": "7833070512"}}, {"type": "Feature", "geometry": {"type": "Point", "coordinates": [79.666307, 30.4876073]}, "properties": {"name": "Saldhar", "population": 250, "place_class": "hamlet", "population_source": "class_default", "osm_id": "7833070514"}}, {"type": "Feature", "geometry": {"type": "Point", "coordinates": [79.6662528, 30.483051]}, "properties": {"name": "Chanchri", "population": 250, "place_class": "hamlet", "population_source": "class_default", "osm_id": "7833070515"}}, {"type": "Feature", "geometry": {"type": "Point", "coordinates": [79.6743167, 30.4931218]}, "properties": {"name": "Juwagwar", "population": 250, "place_class": "hamlet", "population_source": "class_default", "osm_id": "7833070516"}}, {"type": "Feature", "geometry": {"type": "Point", "coordinates": [79.6903319, 30.4902886]}, "properties": {"name": "Jugju", "population": 250, "place_class": "hamlet", "population_source": "class_default", "osm_id": "7833070517"}}, {"type": "Feature", "geometry": {"type": "Point", "coordinates": [79.5328187, 30.4900662]}, "properties": {"name": "Urchyuri", "population": 250, "place_class": "hamlet", "population_source": "class_default", "osm_id": "7833103059"}}, {"type": "Feature", "geometry": {"type": "Point", "coordinates": [79.5346629, 30.4782416]}, "properties": {"name": "Chheli", "population": 250, "place_class": "hamlet", "population_source": "class_default", "osm_id": "7833103060"}}, {"type": "Feature", "geometry": {"type": "Point", "coordinates": [79.5888238, 30.5706174]}, "properties": {"name": "Painka", "population": 250, "place_class": "hamlet", "population_source": "class_default", "osm_id": "7833130297"}}, {"type": "Feature", "geometry": {"type": "Point", "coordinates": [79.5269168, 30.5069688]}, "properties": {"name": "Dungra", "population": 250, "place_class": "hamlet", "population_source": "class_default", "osm_id": "7833130307"}}, {"type": "Feature", "geometry": {"type": "Point", "coordinates": [79.5775238, 30.5227631]}, "properties": {"name": "Koti", "population": 250, "place_class": "hamlet", "population_source": "class_default", "osm_id": "7833130308"}}, {"type": "Feature", "geometry": {"type": "Point", "coordinates": [79.6190808, 30.5416843]}, "properties": {"name": "Aira", "population": 250, "place_class": "hamlet", "population_source": "class_default", "osm_id": "7833130309"}}, {"type": "Feature", "geometry": {"type": "Point", "coordinates": [79.6089889, 30.5136333]}, "properties": {"name": "Chormi", "population": 250, "place_class": "hamlet", "population_source": "class_default", "osm_id": "7833130311"}}, {"type": "Feature", "geometry": {"type": "Point", "coordinates": [79.6061622, 30.5018638]}, "properties": {"name": "Kunj", "population": 250, "place_class": "hamlet", "population_source": "class_default", "osm_id": "7833130312"}}, {"type": "Feature", "geometry": {"type": "Point", "coordinates": [79.6243512, 30.5008874]}, "properties": {"name": "Garghaniya", "population": 250, "place_class": "hamlet", "population_source": "class_default", "osm_id": "7833130314"}}, {"type": "Feature", "geometry": {"type": "Point", "coordinates": [79.5803201, 30.5341999]}, "properties": {"name": "Premnagar", "population": 250, "place_class": "hamlet", "population_source": "class_default", "osm_id": "7833155601"}}, {"type": "Feature", "geometry": {"type": "Point", "coordinates": [79.5613087, 30.5497024]}, "properties": {"name": "Dadon", "population": 250, "place_class": "hamlet", "population_source": "class_default", "osm_id": "7833155602"}}, {"type": "Feature", "geometry": {"type": "Point", "coordinates": [79.5473452, 30.5511851]}, "properties": {"name": "Sunil", "population": 250, "place_class": "hamlet", "population_source": "class_default", "osm_id": "7833155603"}}, {"type": "Feature", "geometry": {"type": "Point", "coordinates": [79.5402106, 30.5472291]}, "properties": {"name": "Gaunkh", "population": 250, "place_class": "hamlet", "population_source": "class_default", "osm_id": "7833155604"}}, {"type": "Feature", "geometry": {"type": "Point", "coordinates": [79.5471218, 30.5840446]}, "properties": {"name": "Toli", "population": 250, "place_class": "hamlet", "population_source": "class_default", "osm_id": "7833155611"}}, {"type": "Feature", "geometry": {"type": "Point", "coordinates": [79.7252943, 30.5195944]}, "properties": {"name": "Suki", "population": 250, "place_class": "hamlet", "population_source": "class_default", "osm_id": "7833167610"}}, {"type": "Feature", "geometry": {"type": "Point", "coordinates": [79.7203934, 30.5147004]}, "properties": {"name": "Kuraipani", "population": 250, "place_class": "hamlet", "population_source": "class_default", "osm_id": "7833167611"}}, {"type": "Feature", "geometry": {"type": "Point", "coordinates": [79.7137972, 30.4946997]}, "properties": {"name": "Lata", "population": 250, "place_class": "hamlet", "population_source": "class_default", "osm_id": "7833216682"}}, {"type": "Feature", "geometry": {"type": "Point", "coordinates": [79.7030888, 30.4694786]}, "properties": {"name": "Murunna", "population": 250, "place_class": "hamlet", "population_source": "class_default", "osm_id": "7833216683"}}, {"type": "Feature", "geometry": {"type": "Point", "coordinates": [79.713102, 30.472931]}, "properties": {"name": "Paing", "population": 250, "place_class": "hamlet", "population_source": "class_default", "osm_id": "7833216684"}}, {"type": "Feature", "geometry": {"type": "Point", "coordinates": [79.7853143, 30.5971919]}, "properties": {"name": "Tamak", "population": 250, "place_class": "hamlet", "population_source": "class_default", "osm_id": "7833637989"}}, {"type": "Feature", "geometry": {"type": "Point", "coordinates": [79.7776427, 30.5867532]}, "properties": {"name": "Markura", "population": 250, "place_class": "hamlet", "population_source": "class_default", "osm_id": "7833637990"}}, {"type": "Feature", "geometry": {"type": "Point", "coordinates": [79.7704128, 30.5925978]}, "properties": {"name": "Naug", "population": 250, "place_class": "hamlet", "population_source": "class_default", "osm_id": "7833637991"}}]}