{"type": "FeatureCollection", "features": [{"type": "Feature", "geometry": {"type": "Point", "coordinates": [77.8236852, 18.5729602]}, "properties": {"name": "Kotagiri", "population": 20000, "place_class": "town", "population_source": "class_default", "osm_id": "4462255409"}}, {"type": "Feature", "geometry": {"type": "Point", "coordinates": [77.7796676, 18.5203606]}, "properties": {"name": "Kallur", "population": 3000, "place_class": "village", "population_source": "osm:population", "osm_id": "6149472591"}}, {"type": "Feature", "geometry": {"type": "Point", "coordinates": [77.7754347, 18.5668129]}, "properties": {"name": "Pothangal", "population": 1500, "place_class": "village", "population_source": "class_default", "osm_id": "4462255410"}}, {"type": "Feature", "geometry": {"type": "Point", "coordinates": [77.780964, 18.5874052]}, "properties": {"name": "Hangarga Farm", "population": 1500, "place_class": "village", "population_source": "class_default", "osm_id": "4462255411"}}, {"type": "Feature", "geometry": {"type": "Point", "coordinates": [77.7785142, 18.6086868]}, "properties": {"name": "Hegdoli", "population": 1500, "place_class": "village", "population_source": "class_default", "osm_id": "4462255412"}}, {"type": "Feature", "geometry": {"type": "Point", "coordinates": [77.775473, 18.6041217]}, "properties": {"name": "Bakar Farm", "population": 1500, "place_class": "village", "population_source": "class_default", "osm_id": "4462255413"}}, {"type": "Feature", "geometry": {"type": "Point", "coordinates": [77.761828, 18.600691]}, "properties": {"name": "Karegam", "population": 1500, "place_class": "village", "population_source": "class_default", "osm_id": "4462255414"}}, {"type": "Feature", "geometry": {"type": "Point", "coordinates": [77.7684605, 18.6141382]}, "properties": {"name": "Seshadri Farm", "population": 1500, "place_class": "village", "population_source": "class_default", "osm_id": "4462255415"}}, {"type": "Feature", "geometry": {"type": "Point", "coordinates": [77.7850602, 18.5799583]}, "properties": {"name": "Tirmalapur", "population": 1500, "place_class": "village", "population_source": "class_default", "osm_id": "4462255416"}}, {"type": "Feature", "geometry": {"type": "Point", "coordinates": [77.844027, 18.3305831]}, "properties": {"name": "Chinna Gouraram", "population": 1500, "place_class": "village", "population_source": "class_default", "osm_id": "6144385895"}}, {"type": "Feature", "geometry": {"type": "Point", "coordinates": [77.8506272, 18.3556197]}, "properties": {"name": "Maddel Cheruvu", "population": 1500, "place_class": "village", "population_source": "class_default", "osm_id": "6144385900"}}, {"type": "Feature", "geometry": {"type": "Point", "coordinates": [77.8288059, 18.354855]}, "properties": {"name": "Bandapalle", "population": 1500, "place_class": "village", "population_source": "class_default", "osm_id": "6144385901"}}, {"type": "Feature", "geometry": {"type": "Point", "coordinates": [77.81766, 18.3598597]}, "properties": {"name": "Bandaranjal", "population": 1500, "place_class": "village", "population_source": "class_default", "osm_id": "6144385902"}}, {"type": "Feature", "geometry": {"type": "Point", "coordinates": [77.8071334, 18.3663055]}, "properties": {"name": "Gundenemali", "population": 1500, "place_class": "village", "population_source": "class_default", "osm_id": "6144385903"}}, {"type": "Feature", "geometry": {"type": "Point", "coordinates": [77.7844056, 18.4971821]}, "properties": {"name": "Barangedgi", "population": 1500, "place_class": "village", "population_source": "class_default", "osm_id": "6144385904"}}, {"type": "Feature", "geometry": {"type": "Point", "coordinates": [77.7999286, 18.4646279]}, "properties": {"name": "Birkoor", "population": 1500, "place_class": "village", "population_source": "class_default", "osm_id": "6144385943"}}, {"type": "Feature", "geometry": {"type": "Point", "coordinates": [77.8028309, 18.4326763]}, "properties": {"name": "Kishtapur", "population": 1500, "place_class": "village", "population_source": "class_default", "osm_id": "6144385944"}}, {"type": "Feature", "geometry": {"type": "Point", "coordinates": [77.6764633, 18.354987]}, "properties": {"name": "Khemrajakallali", "population": 1500, "place_class": "village", "population_source": "class_default", "osm_id": "6144385958"}}, {"type": "Feature", "geometry": {"type": "Point", "coordinates": [77.7115871, 18.3490357]}, "properties": {"name": "Chinna Takkadpalle", "population": 1500, "place_class": "village", "population_source": "class_default", "osm_id": "6144385960"}}, {"type": "Feature", "geometry": {"type": "Point", "coordinates": [77.7107241, 18.3555472]}, "properties": {"name": "Pedda Takkadpalle", "population": 1500, "place_class": "village", "population_source": "class_default", "osm_id": "6144385961"}}, {"type": "Feature", "geometry": {"type": "Point", "coordinates": [77.6985416, 18.3324847]}, "properties": {"name": "Kowlas", "population": 1500, "place_class": "village", "population_source": "class_default", "osm_id": "6144385963"}}, {"type": "Feature", "geometry": {"type": "Point", "coordinates": [77.7188783, 18.3302992]}, "properties": {"name": "Jagannathapalle", "population": 1500, "place_class": "village", "population_source": "class_default", "osm_id": "6144385964"}}, {"type": "Feature", "geometry": {"type": "Point", "coordinates": [77.7448419, 18.3354087]}, "properties": {"name": "Seetharampalle", "population": 1500, "place_class": "village", "population_source": "class_default", "osm_id": "6144385966"}}, {"type": "Feature", "geometry": {"type": "Point", "coordinates": [77.7333863, 18.329495]}, "properties": {"name": "Shanthapur", "population": 1500, "place_class": "village", "population_source": "class_default", "osm_id": "6144385967"}}, {"type": "Feature", "geometry": {"type": "Point", "coordinates": [77.7401541, 18.3464003]}, "properties": {"name": "Manyapur", "population": 1500, "place_class": "village", "population_source": "class_default", "osm_id": "6144385968"}}, {"type": "Feature", "geometry": {"type": "Point", "coordinates": [77.7428194, 18.3705352]}, "properties": {"name": "Pedda Dhadgi", "population": 1500, "place_class": "village", "population_source": "class_default", "osm_id": "6144385969"}}, {"type": "Feature", "geometry": {"type": "Point", "coordinates": [77.738334, 18.3788178]}, "properties": {"name": "Chinna Dhadgi", "population": 1500, "place_class": "village", "population_source": "class_default", "osm_id": "6144385970"}}, {"type": "Feature", "geometry": {"type": "Point", "coordinates": [77.76956, 18.3474068]}, "properties": {"name": "Rajapur", "population": 1500, "place_class": "village", "population_source": "class_default", "osm_id": "6144385972"}}, {"type": "Feature", "geometry": {"type": "Point", "coordinates": [77.7934458, 18.3858971]}, "properties": {"name": "Wajidnagar", "population": 1500, "place_class": "village", "population_source": "class_default", "osm_id": "6144385973"}}, {"type": "Feature", "geometry": {"type": "Point", "coordinates": [77.7273367, 18.414513]}, "properties": {"name": "Gopanpalle", "population": 1500, "place_class": "village", "population_source": "class_default", "osm_id": "6144385974"}}, {"type": "Feature", "geometry": {"type": "Point", "coordinates": [77.7412404, 18.3947945]}, "properties": {"name": "Chinna Devada", "population": 1500, "place_class": "village", "population_source": "class_default", "osm_id": "6144385975"}}, {"type": "Feature", "geometry": {"type": "Point", "coordinates": [77.7701022, 18.4012307]}, "properties": {"name": "Pulkal", "population": 1500, "place_class": "village", "population_source": "class_default", "osm_id": "6144385976"}}, {"type": "Feature", "geometry": {"type": "Point", "coordinates": [77.7566183, 18.4061292]}, "properties": {"name": "Pedda Devada", "population": 1500, "place_class": "village", "population_source": "class_default", "osm_id": "6144385977"}}, {"type": "Feature", "geometry": {"type": "Point", "coordinates": [77.761973, 18.4238426]}, "properties": {"name": "Sirsamundar", "population": 1500, "place_class": "village", "population_source": "class_default", "osm_id": "6144385978"}}, {"type": "Feature", "geometry": {"type": "Point", "coordinates": [77.7549749, 18.4347679]}, "properties": {"name": "Husgul", "population": 1500, "place_class": "village", "population_source": "class_default", "osm_id": "6144385979"}}, {"type": "Feature", "geometry": {"type": "Point", "coordinates": [77.7077969, 18.401589]}, "properties": {"name": "Bichkunda", "population": 1500, "place_class": "village", "population_source": "class_default", "osm_id": "6144385980"}}, {"type": "Feature", "geometry": {"type": "Point", "coordinates": [77.6988957, 18.384805]}, "properties": {"name": "Dowlathapur", "population": 1500, "place_class": "village", "population_source": "class_default", "osm_id": "6144385982"}}, {"type": "Feature", "geometry": {"type": "Point", "coordinates": [77.7388602, 18.4969949]}, "properties": {"name": "Enbhura", "population": 1500, "place_class": "village", "population_source": "class_default", "osm_id": "6144388141"}}, {"type": "Feature", "geometry": {"type": "Point", "coordinates": [77.7491245, 18.5026908]}, "properties": {"name": "Kurla", "population": 1500, "place_class": "village", "population_source": "class_default", "osm_id": "6144388143"}}, {"type": "Feature", "geometry": {"type": "Point", "coordinates": [77.7416988, 18.5240207]}, "properties": {"name": "Mahdan Hipparga", "population": 1500, "place_class": "village", "population_source": "class_default", "osm_id": "6144388144"}}, {"type": "Feature", "geometry": {"type": "Point", "coordinates": [77.7274137, 18.4580423]}, "properties": {"name": "Gundekalloor", "population": 1500, "place_class": "village", "population_source": "class_default", "osm_id": "6144388145"}}, {"type": "Feature", "geometry": {"type": "Point", "coordinates": [77.7425253, 18.4543848]}, "properties": {"name": "Meka", "population": 1500, "place_class": "village", "population_source": "class_default", "osm_id": "6144388146"}}, {"type": "Feature", "geometry": {"type": "Point", "coordinates": [77.7494842, 18.4597104]}, "properties": {"name": "Shetloor", "population": 1500, "place_class": "village", "population_source": "class_default", "osm_id": "6144388147"}}, {"type": "Feature", "geometry": {"type": "Point", "coordinates": [77.7280541, 18.4752337]}, "properties": {"name": "Dhoti", "population": 1500, "place_class": "village", "population_source": "class_default", "osm_id": "6144388148"}}, {"type": "Feature", "geometry": {"type": "Point", "coordinates": [77.7378266, 18.4806003]}, "properties": {"name": "Khatgaon", "population": 1500, "place_class": "village", "population_source": "class_default", "osm_id": "6144388149"}}, {"type": "Feature", "geometry": {"type": "Point", "coordinates": [77.711648, 18.4689619]}, "properties": {"name": "Mallapur", "population": 1500, "place_class": "village", "population_source": "class_default", "osm_id": "6144388150"}}, {"type": "Feature", "geometry": {"type": "Point", "coordinates": [77.67449, 18.4001596]}, "properties": {"name": "Kandarpalle", "population": 1500, "place_class": "village", "population_source": "class_default", "osm_id": "6144388153"}}, {"type": "Feature", "geometry": {"type": "Point", "coordinates": [77.681532, 18.4144812]}, "properties": {"name": "Rajola", "population": 1500, "place_class": "village", "population_source": "class_default", "osm_id": "6144388154"}}, {"type": "Feature", "geometry": {"type": "Point", "coordinates": [77.6773771, 18.380364]}, "properties": {"name": "Fathlapur", "population": 1500, "place_class": "village", "population_source": "class_default", "osm_id": "6144388159"}}, {"type": "Feature", "geometry": {"type": "Point", "coordinates": [77.6839777, 18.4353861]}, "properties": {"name": "Rusegaon", "population": 1500, "place_class": "village", "population_source": "class_default", "osm_id": "6144388160"}}, {"type": "Feature", "geometry": {"type": "Point", "coordinates": [77.7037012, 18.4459899]}, "properties": {"name": "Lachan", "population": 1500, "place_class": "village", "population_source": "class_default", "osm_id": "6144388161"}}, {"type": "Feature", "geometry": {"type": "Point", "coordinates": [77.7116617, 18.4329514]}, "properties": {"name": "Misankallali", "population": 1500, "place_class": "village", "population_source": "class_default", "osm_id": "6144388162"}}, {"type": "Feature", "geometry": {"type": "Point", "coordinates": [77.6782478, 18.4803856]}, "properties": {"name": "Lachmapur", "population": 1500, "place_class": "village", "population_source": "class_default", "osm_id": "6144388163"}}, {"type": "Feature", "geometry": {"type": "Point", "coordinates": [77.6848151, 18.4675013]}, "properties": {"name": "Sultanpet", "population": 1500, "place_class": "village", "population_source": "class_default", "osm_id": "6144388166"}}, {"type": "Feature", "geometry": {"type": "Point", "coordinates": [77.6922917, 18.4783683]}, "properties": {"name": "Marepalle", "population": 1500, "place_class": "village", "population_source": "class_default", "osm_id": "6144388167"}}, {"type": "Feature", "geometry": {"type": "Point", "coordinates": [77.7075669, 18.5180911]}, "properties": {"name": "Dongli", "population": 1500, "place_class": "village", "population_source": "class_default", "osm_id": "6144388187"}}, {"type": "Feature", "geometry": {"type": "Point", "coordinates": [77.6876032, 18.5369046]}, "properties": {"name": "Limboor", "population": 1500, "place_class": "village", "population_source": "class_default", "osm_id": "6144388188"}}, {"type": "Feature", "geometry": {"type": "Point", "coordinates": [77.6789885, 18.5199689]}, "properties": {"name": "Wadi Fathepur", "population": 1500, "place_class": "village", "population_source": "class_default", "osm_id": "6144388189"}}, {"type": "Feature", "geometry": {"type": "Point", "coordinates": [77.725786, 18.5497039]}, "properties": {"name": "Sirpur", "population": 1500, "place_class": "village", "population_source": "class_default", "osm_id": "6144388190"}}, {"type": "Feature", "geometry": {"type": "Point", "coordinates": [77.8626052, 18.4487274]}, "properties": {"name": "Nachpalle", "population": 1500, "place_class": "village", "population_source": "class_default", "osm_id": "6149437421"}}, {"type": "Feature", "geometry": {"type": "Point", "coordinates": [77.8579321, 18.3472877]}, "properties": {"name": "Bollakpalle", "population": 1500, "place_class": "village", "population_source": "class_default", "osm_id": "6149471470"}}, {"type": "Feature", "geometry": {"type": "Point", "coordinates": [77.8190733, 18.5072586]}, "properties": {"name": "Baswapur", "population": 1500, "place_class": "village", "population_source": "class_default", "osm_id": "6149472586"}}, {"type": "Feature", "geometry": {"type": "Point", "coordinates": [77.8028856, 18.5098792]}, "properties": {"name": "Lingapur", "population": 1500, "place_class": "village", "population_source": "class_default", "osm_id": "6149472587"}}, {"type": "Feature", "geometry": {"type": "Point", "coordinates": [77.7712836, 18.5393973]}, "properties": {"name": "Kodcherla", "population": 1500, "place_class": "village", "population_source": "class_default", "osm_id": "6149472590"}}, {"type": "Feature", "geometry": {"type": "Point", "coordinates": [77.849404, 18.3981742]}, "properties": {"name": "Chinna Nagaram", "population": 1500, "place_class": "village", "population_source": "class_default", "osm_id": "6149472605"}}, {"type": "Feature", "geometry": {"type": "Point", "coordinates": [77.8514317, 18.4035993]}, "properties": {"name": "Kollur", "population": 1500, "place_class": "village", "population_source": "class_default", "osm_id": "6149472606"}}, {"type": "Feature", "geometry": {"type": "Point", "coordinates": [77.8309549, 18.4089953]}, "properties": {"name": "Pedda Damracha", "population": 1500, "place_class": "village", "population_source": "class_default", "osm_id": "6149472607"}}, {"type": "Feature", "geometry": {"type": "Point", "coordinates": [77.8319939, 18.4160589]}, "properties": {"name": "Raithu Nagar Camp", "population": 1500, "place_class": "village", "population_source": "class_default", "osm_id": "6149472608"}}, {"type": "Feature", "geometry": {"type": "Point", "coordinates": [77.8116512, 18.4252139]}, "properties": {"name": "Chincholi", "population": 1500, "place_class": "village", "population_source": "class_default", "osm_id": "6149472609"}}, {"type": "Feature", "geometry": {"type": "Point", "coordinates": [77.8227961, 18.4204542]}, "properties": {"name": "Chinna Annaram", "population": 1500, "place_class": "village", "population_source": "class_default", "osm_id": "6149472610"}}, {"type": "Feature", "geometry": {"type": "Point", "coordinates": [77.8425493, 18.4423661]}, "properties": {"name": "Mirzapur", "population": 1500, "place_class": "village", "population_source": "class_default", "osm_id": "6149472611"}}, {"type": "Feature", "geometry": {"type": "Point", "coordinates": [77.8391789, 18.4371929]}, "properties": {"name": "Veerapur", "population": 1500, "place_class": "village", "population_source": "class_default", "osm_id": "6149472612"}}, {"type": "Feature", "geometry": {"type": "Point", "coordinates": [77.8315709, 18.46403]}, "properties": {"name": "Timmapur", "population": 1500, "place_class": "village", "population_source": "class_default", "osm_id": "6149472614"}}, {"type": "Feature", "geometry": {"type": "Point", "coordinates": [77.8198116, 18.4938139]}, "properties": {"name": "Bhairapur", "population": 1500, "place_class": "village", "population_source": "class_default", "osm_id": "6149472616"}}, {"type": "Feature", "geometry": {"type": "Point", "coordinates": [77.8190593, 18.4801654]}, "properties": {"name": "Mallapur", "population": 1500, "place_class": "village", "population_source": "class_default", "osm_id": "6149472618"}}, {"type": "Feature", "geometry": {"type": "Point", "coordinates": [77.8019431, 18.4847159]}, "properties": {"name": "Shambapur", "population": 1500, "place_class": "village", "population_source": "class_default", "osm_id": "6149472619"}}, {"type": "Feature", "geometry": {"type": "Point", "coordinates": [77.8426979, 18.4907918]}, "properties": {"name": "Boppaspalle", "population": 1500, "place_class": "village", "population_source": "class_default", "osm_id": "6149472622"}}, {"type": "Feature", "geometry": {"type": "Point", "coordinates": [77.8576763, 18.4739229]}, "properties": {"name": "Mylaram", "population": 1500, "place_class": "village", "population_source": "class_default", "osm_id": "6149472626"}}, {"type": "Feature", "geometry": {"type": "Point", "coordinates": [77.8616688, 18.5402024]}, "properties": {"name": "Taglepalle", "population": 1500, "place_class": "village", "population_source": "class_default", "osm_id": "6158129651"}}, {"type": "Feature", "geometry": {"type": "Point", "coordinates": [77.8666454, 18.7155796]}, "properties": {"name": "Bandarupalle", "population": 1500, "place_class": "village", "population_source": "class_default", "osm_id": "6158199411"}}, {"type": "Feature", "geometry": {"type": "Point", "coordinates": [77.8337447, 18.6516611]}, "properties": {"name": "Salampad", "population": 1500, "place_class": "village", "population_source": "class_default", "osm_id": "6158199413"}}, {"type": "Feature", "geometry": {"type": "Point", "coordinates": [77.848184, 18.636591]}, "properties": {"name": "Penta Khurd", "population": 1500, "place_class": "village", "population_source": "class_default", "osm_id": "6158199415"}}, {"type": "Feature", "geometry": {"type": "Point", "coordinates": [77.8300528, 18.6603905]}, "properties": {"name": "Kummampalle", "population": 1500, "place_class": "village", "population_source": "class_default", "osm_id": "6158199417"}}, {"type": "Feature", "geometry": {"type": "Point", "coordinates": [77.8450202, 18.6798113]}, "properties": {"name": "Rayathunagar Saloora Camp", "population": 1500, "place_class": "village", "population_source": "class_default", "osm_id": "6158199418"}}, {"type": "Feature", "geometry": {"type": "Point", "coordinates": [77.8612062, 18.6745884]}, "properties": {"name": "Naganpalle", "population": 1500, "place_class": "village", "population_source": "class_default", "osm_id": "6158199420"}}, {"type": "Feature", "geometry": {"type": "Point", "coordinates": [77.8525041, 18.6993411]}, "properties": {"name": "Jadijamalpur", "population": 1500, "place_class": "village", "population_source": "class_default", "osm_id": "6158199421"}}, {"type": "Feature", "geometry": {"type": "Point", "coordinates": [77.8317155, 18.7036123]}, "properties": {"name": "Fathepur", "population": 1500, "place_class": "village", "population_source": "class_default", "osm_id": "6158199422"}}, {"type": "Feature", "geometry": {"type": "Point", "coordinates": [77.8208702, 18.6899608]}, "properties": {"name": "Saloora", "population": 1500, "place_class": "village", "population_source": "class_default", "osm_id": "6158199423"}}, {"type": "Feature", "geometry": {"type": "Point", "coordinates": [77.7947402, 18.6776681]}, "properties": {"name": "Khajapur", "population": 1500, "place_class": "village", "population_source": "class_default", "osm_id": "6158199425"}}, {"type": "Feature", "geometry": {"type": "Point", "coordinates": [77.7783856, 18.6722195]}, "properties": {"name": "Hunsa", "population": 1500, "place_class": "village", "population_source": "class_default", "osm_id": "6158199426"}}, {"type": "Feature", "geometry": {"type": "Point", "coordinates": [77.748023, 18.6718338]}, "properties": {"name": "Mandharna", "population": 1500, "place_class": "village", "population_source": "class_default", "osm_id": "6158199427"}}, {"type": "Feature", "geometry": {"type": "Point", "coordinates": [77.7460186, 18.6304366]}, "properties": {"name": "Sunkini", "population": 1500, "place_class": "village", "population_source": "class_default", "osm_id": "6158199428"}}, {"type": "Feature", "geometry": {"type": "Point", "coordinates": [77.789757, 18.6506962]}, "properties": {"name": "Takli", "population": 1500, "place_class": "village", "population_source": "class_default", "osm_id": "6158199429"}}, {"type": "Feature", "geometry": {"type": "Point", "coordinates": [77.7842594, 18.6586406]}, "properties": {"name": "Sompur", "population": 1500, "place_class": "village", "population_source": "class_default", "osm_id": "6158199430"}}, {"type": "Feature", "geometry": {"type": "Point", "coordinates": [77.8024919, 18.6197642]}, "properties": {"name": "Yadgarpur", "population": 1500, "place_class": "village", "population_source": "class_default", "osm_id": "6158199431"}}, {"type": "Feature", "geometry": {"type": "Point", "coordinates": [77.7910159, 18.6314646]}, "properties": {"name": "Domaledgi", "population": 1500, "place_class": "village", "population_source": "class_default", "osm_id": "6158199433"}}, {"type": "Feature", "geometry": {"type": "Point", "coordinates": [77.7766642, 18.6268078]}, "properties": {"name": "Kollur", "population": 1500, "place_class": "village", "population_source": "class_default", "osm_id": "6158199434"}}, {"type": "Feature", "geometry": {"type": "Point", "coordinates": [77.8457711, 18.5466879]}, "properties": {"name": "Rampur", "population": 1500, "place_class": "village", "population_source": "class_default", "osm_id": "6158199436"}}, {"type": "Feature", "geometry": {"type": "Point", "coordinates": [77.7637866, 18.5843323]}, "properties": {"name": "Hangerga", "population": 1500, "place_class": "village", "population_source": "class_default", "osm_id": "6158199440"}}, {"type": "Feature", "geometry": {"type": "Point", "coordinates": [77.815623, 18.5744605]}, "properties": {"name": "Mirzapur", "population": 1500, "place_class": "village", "population_source": "class_default", "osm_id": "6158199442"}}, {"type": "Feature", "geometry": {"type": "Point", "coordinates": [77.8156069, 18.5700533]}, "properties": {"name": "Rozapur", "population": 1500, "place_class": "village", "population_source": "class_default", "osm_id": "6158199443"}}, {"type": "Feature", "geometry": {"type": "Point", "coordinates": [77.8125777, 18.5586045]}, "properties": {"name": "Eklaspur", "population": 1500, "place_class": "village", "population_source": "class_default", "osm_id": "6158199444"}}, {"type": "Feature", "geometry": {"type": "Point", "coordinates": [77.8264884, 18.5305445]}, "properties": {"name": "Sudlam", "population": 1500, "place_class": "village", "population_source": "class_default", "osm_id": "6158199449"}}, {"type": "Feature", "geometry": {"type": "Point", "coordinates": [77.8412568, 18.6126973]}, "properties": {"name": "Siddapur", "population": 1500, "place_class": "village", "population_source": "class_default", "osm_id": "6158199452"}}, {"type": "Feature", "geometry": {"type": "Point", "coordinates": [77.8216459, 18.617249]}, "properties": {"name": "Ethonda", "population": 1500, "place_class": "village", "population_source": "class_default", "osm_id": "6158199453"}}, {"type": "Feature", "geometry": {"type": "Point", "coordinates": [77.8548583, 18.6050792]}, "properties": {"name": "Raikur", "population": 1500, "place_class": "village", "population_source": "class_default", "osm_id": "6158199457"}}, {"type": "Feature", "geometry": {"type": "Point", "coordinates": [77.8440096, 18.5677691]}, "properties": {"name": "Kondapur", "population": 1500, "place_class": "village", "population_source": "class_default", "osm_id": "6158199458"}}, {"type": "Feature", "geometry": {"type": "Point", "coordinates": [77.8624416, 18.5516572]}, "properties": {"name": "Ambam (R)", "population": 1500, "place_class": "village", "population_source": "class_default", "osm_id": "6158199459"}}, {"type": "Feature", "geometry": {"type": "Point", "coordinates": [77.8625101, 18.573797]}, "properties": {"name": "Khijram Thanda", "population": 1500, "place_class": "village", "population_source": "class_default", "osm_id": "6158199460"}}, {"type": "Feature", "geometry": {"type": "Point", "coordinates": [77.8563744, 18.58336]}, "properties": {"name": "Sailampur", "population": 1500, "place_class": "village", "population_source": "class_default", "osm_id": "6158199461"}}, {"type": "Feature", "geometry": {"type": "Point", "coordinates": [77.8570796, 18.5784043]}, "properties": {"name": "Suleman Nagar", "population": 1500, "place_class": "village", "population_source": "class_default", "osm_id": "6158199462"}}, {"type": "Feature", "geometry": {"type": "Point", "coordinates": [77.7336681, 18.6906329]}, "properties": {"name": "Sagroli", "population": 1500, "place_class": "village", "population_source": "class_default", "osm_id": "8505946305"}}, {"type": "Feature", "geometry": {"type": "Point", "coordinates": [77.7651089, 18.5650934]}, "properties": {"name": "Old Pothangal", "population": 1500, "place_class": "village", "population_source": "class_default", "osm_id": "9589056201"}}, {"type": "Feature", "geometry": {"type": "Point", "coordinates": [77.7494028, 18.7132788]}, "properties": {"name": "Bolegaon", "population": 1500, "place_class": "village", "population_source": "class_default", "osm_id": "9998066434"}}, {"type": "Feature", "geometry": {"type": "Point", "coordinates": [77.6713236, 18.6661695]}, "properties": {"name": "Kesrali", "population": 1500, "place_class": "village", "population_source": "class_default", "osm_id": "9998066458"}}, {"type": "Feature", "geometry": {"type": "Point", "coordinates": [77.7055211, 18.6680795]}, "properties": {"name": "Hipparga Thadi", "population": 1500, "place_class": "village", "population_source": "class_default", "osm_id": "9998066460"}}, {"type": "Feature", "geometry": {"type": "Point", "coordinates": [77.7019715, 18.6816476]}, "properties": {"name": "Shimpala", "population": 1500, "place_class": "village", "population_source": "class_default", "osm_id": "9998066461"}}, {"type": "Feature", "geometry": {"type": "Point", "coordinates": [77.6853799, 18.7105962]}, "properties": {"name": "Hingani", "population": 1500, "place_class": "village", "population_source": "class_default", "osm_id": "9998066462"}}, {"type": "Feature", "geometry": {"type": "Point", "coordinates": [77.681061, 18.6032962]}, "properties": {"name": "Kare Malkapur", "population": 1500, "place_class": "village", "population_source": "class_default", "osm_id": "9998367100"}}, {"type": "Feature", "geometry": {"type": "Point", "coordinates": [77.6865237, 18.5601318]}, "properties": {"name": "Mandgi", "population": 1500, "place_class": "village", "population_source": "class_default", "osm_id": "9998408784"}}, {"type": "Feature", "geometry": {"type": "Point", "coordinates": [77.7016371, 18.5644963]}, "properties": {"name": "Thadi Sawargaon", "population": 1500, "place_class": "village", "population_source": "class_default", "osm_id": "9998408785"}}, {"type": "Feature", "geometry": {"type": "Point", "coordinates": [77.719036, 18.5622358]}, "properties": {"name": "Sangvi Umar", "population": 1500, "place_class": "village", "population_source": "class_default", "osm_id": "9998408786"}}, {"type": "Feature", "geometry": {"type": "Point", "coordinates": [77.7170147, 18.589285]}, "properties": {"name": "Tamlur", "population": 1500, "place_class": "village", "population_source": "class_default", "osm_id": "9998408788"}}, {"type": "Feature", "geometry": {"type": "Point", "coordinates": [77.7259189, 18.6142766]}, "properties": {"name": "Shelgaon", "population": 1500, "place_class": "village", "population_source": "class_default", "osm_id": "9998408789"}}, {"type": "Feature", "geometry": {"type": "Point", "coordinates": [77.7100988, 18.6385447]}, "properties": {"name": "Shewala", "population": 1500, "place_class": "village", "population_source": "class_default", "osm_id": "9998408791"}}, {"type": "Feature", "geometry": {"type": "Point", "coordinates": [77.6838155, 18.6379751]}, "properties": {"name": "Nandur", "population": 1500, "place_class": "village", "population_source": "class_default", "osm_id": "9998408792"}}, {"type": "Feature", "geometry": {"type": "Point", "coordinates": [77.6740129, 18.6404662]}, "properties": {"name": "Alur", "population": 1500, "place_class": "village", "population_source": "class_default", "osm_id": "9998408793"}}, {"type": "Feature", "geometry": {"type": "Point", "coordinates": [77.8325918, 18.3311849]}, "properties": {"name": "Gouraram Thanda", "population": 250, "place_class": "hamlet", "population_source": "class_default", "osm_id": "6144385896"}}, {"type": "Feature", "geometry": {"type": "Point", "coordinates": [77.8284738, 18.3331882]}, "properties": {"name": "Chintakunta", "population": 250, "place_class": "hamlet", "population_source": "class_default", "osm_id": "6144385897"}}, {"type": "Feature", "geometry": {"type": "Point", "coordinates": [77.8278665, 18.3347898]}, "properties": {"name": "Komaticheruvu Thanda", "population": 250, "place_class": "hamlet", "population_source": "class_default", "osm_id": "6144385898"}}, {"type": "Feature", "geometry": {"type": "Point", "coordinates": [77.8225479, 18.3391033]}, "properties": {"name": "Boggula Thanda", "population": 250, "place_class": "hamlet", "population_source": "class_default", "osm_id": "6144385899"}}, {"type": "Feature", "geometry": {"type": "Point", "coordinates": [77.8034662, 18.4473549]}, "properties": {"name": "Venkalappaya Camp", "population": 250, "place_class": "hamlet", "population_source": "class_default", "osm_id": "6144385945"}}, {"type": "Feature", "geometry": {"type": "Point", "coordinates": [77.7169977, 18.3545561]}, "properties": {"name": "Tupdal", "population": 250, "place_class": "hamlet", "population_source": "class_default", "osm_id": "6144385962"}}, {"type": "Feature", "geometry": {"type": "Point", "coordinates": [77.7449652, 18.338058]}, "properties": {"name": "Seetharampalle Thanda", "population": 250, "place_class": "hamlet", "population_source": "class_default", "osm_id": "6144385965"}}, {"type": "Feature", "geometry": {"type": "Point", "coordinates": [77.7706252, 18.3574747]}, "properties": {"name": "Yellaram", "population": 250, "place_class": "hamlet", "population_source": "class_default", "osm_id": "6144385971"}}, {"type": "Feature", "geometry": {"type": "Point", "coordinates": [77.6992869, 18.4030896]}, "properties": {"name": "Barbal Thanda", "population": 250, "place_class": "hamlet", "population_source": "class_default", "osm_id": "6144385981"}}, {"type": "Feature", "geometry": {"type": "Point", "coordinates": [77.73866, 18.5125488]}, "properties": {"name": "Elegaon", "population": 250, "place_class": "hamlet", "population_source": "class_default", "osm_id": "6144388142"}}, {"type": "Feature", "geometry": {"type": "Point", "coordinates": [77.7135174, 18.5535385]}, "properties": {"name": "Peda Takli", "population": 250, "place_class": "hamlet", "population_source": "class_default", "osm_id": "6144388191"}}, {"type": "Feature", "geometry": {"type": "Point", "coordinates": [77.6970363, 18.5482929]}, "properties": {"name": "Takli", "population": 250, "place_class": "hamlet", "population_source": "class_default", "osm_id": "6144388192"}}, {"type": "Feature", "geometry": {"type": "Point", "coordinates": [77.8605628, 18.4596455]}, "properties": {"name": "Nachpalle Thanda", "population": 250, "place_class": "hamlet", "population_source": "class_default", "osm_id": "6149437418"}}, {"type": "Feature", "geometry": {"type": "Point", "coordinates": [77.8652037, 18.4599973]}, "properties": {"name": "Ramalagutta Thanda", "population": 250, "place_class": "hamlet", "population_source": "class_default", "osm_id": "6149437420"}}, {"type": "Feature", "geometry": {"type": "Point", "coordinates": [77.78862, 18.5037659]}, "properties": {"name": "Gannavaram", "population": 250, "place_class": "hamlet", "population_source": "class_default", "osm_id": "6149472588"}}, {"type": "Feature", "geometry": {"type": "Point", "coordinates": [77.8032536, 18.5182343]}, "properties": {"name": "Bareedpur", "population": 250, "place_class": "hamlet", "population_source": "class_default", "osm_id": "6149472589"}}, {"type": "Feature", "geometry": {"type": "Point", "coordinates": [77.8365464, 18.4684944]}, "properties": {"name": "Birkoor Thanda", "population": 250, "place_class": "hamlet", "population_source": "class_default", "osm_id": "6149472613"}}, {"type": "Feature", "geometry": {"type": "Point", "coordinates": [77.8143052, 18.4682256]}, "properties": {"name": "Prakashrao Camp", "population": 250, "place_class": "hamlet", "population_source": "class_default", "osm_id": "6149472615"}}, {"type": "Feature", "geometry": {"type": "Point", "coordinates": [77.8022327, 18.4952315]}, "properties": {"name": "Venkatratnampet", "population": 250, "place_class": "hamlet", "population_source": "class_default", "osm_id": "6149472617"}}, {"type": "Feature", "geometry": {"type": "Point", "coordinates": [77.8328419, 18.500025]}, "properties": {"name": "Narayanrao Camp", "population": 250, "place_class": "hamlet", "population_source": "class_default", "osm_id": "6149472620"}}, {"type": "Feature", "geometry": {"type": "Point", "coordinates": [77.8457339, 18.4834404]}, "properties": {"name": "Nadem Thanda", "population": 250, "place_class": "hamlet", "population_source": "class_default", "osm_id": "6149472621"}}, {"type": "Feature", "geometry": {"type": "Point", "coordinates": [77.8532428, 18.4876052]}, "properties": {"name": "Lingampalle Thanda", "population": 250, "place_class": "hamlet", "population_source": "class_default", "osm_id": "6149472623"}}, {"type": "Feature", "geometry": {"type": "Point", "coordinates": [77.8588101, 18.4897578]}, "properties": {"name": "Taryanaik Thanda", "population": 250, "place_class": "hamlet", "population_source": "class_default", "osm_id": "6149472624"}}, {"type": "Feature", "geometry": {"type": "Point", "coordinates": [77.8603816, 18.4762331]}, "properties": {"name": "Rajula Camp", "population": 250, "place_class": "hamlet", "population_source": "class_default", "osm_id": "6149472625"}}, {"type": "Feature", "geometry": {"type": "Point", "coordinates": [77.8404593, 18.5306561]}, "properties": {"name": "Bhikayanaik Thanda", "population": 250, "place_class": "hamlet", "population_source": "class_default", "osm_id": "6158129652"}}, {"type": "Feature", "geometry": {"type": "Point", "coordinates": [77.8467602, 18.5301776]}, "properties": {"name": "Balyianaik Thanda", "population": 250, "place_class": "hamlet", "population_source": "class_default", "osm_id": "6158129653"}}, {"type": "Feature", "geometry": {"type": "Point", "coordinates": [77.8469926, 18.5250085]}, "properties": {"name": "Ruplanaik Thanda", "population": 250, "place_class": "hamlet", "population_source": "class_default", "osm_id": "6158129654"}}, {"type": "Feature", "geometry": {"type": "Point", "coordinates": [77.8401851, 18.6380465]}, "properties": {"name": "Pentakhurd Camp", "population": 250, "place_class": "hamlet", "population_source": "class_default", "osm_id": "6158199414"}}, {"type": "Feature", "geometry": {"type": "Point", "coordinates": [77.8432093, 18.6528892]}, "properties": {"name": "Salampad Camp", "population": 250, "place_class": "hamlet", "population_source": "class_default", "osm_id": "6158199416"}}, {"type": "Feature", "geometry": {"type": "Point", "coordinates": [77.8467841, 18.6676725]}, "properties": {"name": "Kopparthi Camp", "population": 250, "place_class": "hamlet", "population_source": "class_default", "osm_id": "6158199419"}}, {"type": "Feature", "geometry": {"type": "Point", "coordinates": [77.7768031, 18.6484682]}, "properties": {"name": "Basweshwar Nagar", "population": 250, "place_class": "hamlet", "population_source": "class_default", "osm_id": "6158199424"}}, {"type": "Feature", "geometry": {"type": "Point", "coordinates": [77.7974294, 18.6315268]}, "properties": {"name": "Domaledgi Camp", "population": 250, "place_class": "hamlet", "population_source": "class_default", "osm_id": "6158199432"}}, {"type": "Feature", "geometry": {"type": "Point", "coordinates": [77.8514491, 18.5426384]}, "properties": {"name": "Rampur Thanda", "population": 250, "place_class": "hamlet", "population_source": "class_default", "osm_id": "6158199435"}}, {"type": "Feature", "geometry": {"type": "Point", "coordinates": [77.7869964, 18.550576]}, "properties": {"name": "Jallapalle Camp", "population": 250, "place_class": "hamlet", "population_source": "class_default", "osm_id": "6158199437"}}, {"type": "Feature", "geometry": {"type": "Point", "coordinates": [77.7988897, 18.5452535]}, "properties": {"name": "Jallapalle", "population": 250, "place_class": "hamlet", "population_source": "class_default", "osm_id": "6158199438"}}, {"type": "Feature", "geometry": {"type": "Point", "coordinates": [77.7946972, 18.541014]}, "properties": {"name": "Jallapalle Housing Colony", "population": 250, "place_class": "hamlet", "population_source": "class_default", "osm_id": "6158199439"}}, {"type": "Feature", "geometry": {"type": "Point", "coordinates": [77.7781743, 18.5979115]}, "properties": {"name": "Ranganayakula Farm", "population": 250, "place_class": "hamlet", "population_source": "class_default", "osm_id": "6158199441"}}, {"type": "Feature", "geometry": {"type": "Point", "coordinates": [77.8157106, 18.5466172]}, "properties": {"name": "Eklaspur Camp", "population": 250, "place_class": "hamlet", "population_source": "class_default", "osm_id": "6158199445"}}, {"type": "Feature", "geometry": {"type": "Point", "coordinates": [77.8094493, 18.535492]}, "properties": {"name": "Kothapalle Camp", "population": 250, "place_class": "hamlet", "population_source": "class_default", "osm_id": "6158199446"}}, {"type": "Feature", "geometry": {"type": "Point", "coordinates": [77.8098917, 18.538982]}, "properties": {"name": "Kothapalle", "population": 250, "place_class": "hamlet", "population_source": "class_default", "osm_id": "6158199447"}}, {"type": "Feature", "geometry": {"type": "Point", "coordinates": [77.8073959, 18.5337376]}, "properties": {"name": "Devunigutta Thanda", "population": 250, "place_class": "hamlet", "population_source": "class_default", "osm_id": "6158199448"}}, {"type": "Feature", "geometry": {"type": "Point", "coordinates": [77.8242089, 18.6049796]}, "properties": {"name": "Ethonda Camp", "population": 250, "place_class": "hamlet", "population_source": "class_default", "osm_id": "6158199450"}}, {"type": "Feature", "geometry": {"type": "Point", "coordinates": [77.8395149, 18.6188878]}, "properties": {"name": "Siddapur Camp", "population": 250, "place_class": "hamlet", "population_source": "class_default", "osm_id": "6158199451"}}, {"type": "Feature", "geometry": {"type": "Point", "coordinates": [77.8511388, 18.6125808]}, "properties": {"name": "Raikur Camp", "population": 250, "place_class": "hamlet", "population_source": "class_default", "osm_id": "6158199454"}}, {"type": "Feature", "geometry": {"type": "Point", "coordinates": [77.8664542, 18.5928995]}, "properties": {"name": "Ramanpalle Camp", "population": 250, "place_class": "hamlet", "population_source": "class_default", "osm_id": "6158199455"}}, {"type": "Feature", "geometry": {"type": "Point", "coordinates": [77.8663036, 18.5957229]}, "properties": {"name": "Anandanagar", "population": 250, "place_class": "hamlet", "population_source": "class_default", "osm_id": "6158199456"}}, {"type": "Feature", "geometry": {"type": "Point", "coordinates": [77.8660121, 18.5863175]}, "properties": {"name": "Ramanpalle", "population": 250, "place_class": "hamlet", "population_source": "class_default", "osm_id": "6158199463"}}, {"type": "Feature", "geometry": {"type": "Point", "coordinates": [77.6841987, 18.6664273]}, "properties": {"name": "Rampurthadi", "population": 250, "place_class": "hamlet", "population_source": "class_default", "osm_id": "9998066459"}}, {"type": "Feature", "geometry": {"type": "Point", "coordinates": [77.6802038, 18.7152292]}, "properties": {"name": "Daryapyur", "population": 250, "place_class": "hamlet", "population_source": "class_default", "osm_id": "9998066463"}}, {"type": "Feature", "geometry": {"type": "Point", "coordinates": [77.722854, 18.5732313]}, "properties": {"name": "Medan Kellur", "population": 250, "place_class": "hamlet", "population_source": "class_default", "osm_id": "9998408787"}}, {"type": "Feature", "geometry": {"type": "Point", "coordinates": [77.7238845, 18.6402722]}, "properties": {"name": "Shekhapur", "population": 250, "place_class": "hamlet", "population_source": "class_default", "osm_id": "9998408790"}}]}