{"type": "FeatureCollection", "features": [{"type": "Feature", "geometry": {"type": "Point", "coordinates": [88.6122673, 27.329046]}, "properties": {"name": "Gangtok", "population": 100300, "place_class": "city", "population_source": "osm:population", "osm_id": "342097621"}}, {"type": "Feature", "geometry": {"type": "Point", "coordinates": [88.5355333, 27.5011476]}, "properties": {"name": "Mangan", "population": 5000, "place_class": "town", "population_source": "osm:population", "osm_id": "245760084"}}, {"type": "Feature", "geometry": {"type": "Point", "coordinates": [88.5224236, 27.4022231]}, "properties": {"name": "Dikchu", "population": 6571, "place_class": "village", "population_source": "worldpop2020", "osm_id": "342098847"}}, {"type": "Feature", "geometry": {"type": "Point", "coordinates": [88.5294268, 27.5068256]}, "properties": {"name": "Sangkalang", "population": 800, "place_class": "village", "population_source": "worldpop2020", "osm_id": "1477920225"}}, {"type": "Feature", "geometry": {"type": "Point", "coordinates": [88.5491178, 27.5171438]}, "properties": {"name": "Sentam", "population": 274, "place_class": "village", "population_source": "worldpop2020", "osm_id": "4571035218"}}, {"type": "Feature", "geometry": {"type": "Point", "coordinates": [88.6220462, 27.5409131]}, "properties": {"name": "Nanga", "population": 419, "place_class": "village", "population_source": "worldpop2020", "osm_id": "4571035579"}}, {"type": "Feature", "geometry": {"type": "Point", "coordinates": [88.5143684, 27.5280875]}, "properties": {"name": "Passingdong", "population": 62, "place_class": "village", "population_source": "worldpop2020", "osm_id": "6545133798"}}, {"type": "Feature", "geometry": {"type": "Point", "coordinates": [88.5013279, 27.5228907]}, "properties": {"name": "Lingthem", "population": 877, "place_class": "village", "population_source": "worldpop2020", "osm_id": "6545164972"}}, {"type": "Feature", "geometry": {"type": "Point", "coordinates": [88.6504626, 27.3459444]}, "properties": {"name": "Rongek", "population": 1500, "place_class": "village", "population_source": "class_default", "osm_id": "6617643134"}}, {"type": "Feature", "geometry": {"type": "Point", "coordinates": [88.5136592, 27.3762929]}, "properties": {"name": "Samdong", "population": 27390, "place_class": "village", "population_source": "worldpop2020", "osm_id": "6617643281"}}, {"type": "Feature", "geometry": {"type": "Point", "coordinates": [88.6024403, 27.3725105]}, "properties": {"name": "Penlong", "population": 1500, "place_class": "village", "population_source": "class_default", "osm_id": "6617643299"}}, {"type": "Feature", "geometry": {"type": "Point", "coordinates": [88.5033626, 27.4542991]}, "properties": {"name": "Gnon-Sangdong, Lower Dzongu", "population": 565, "place_class": "village", "population_source": "worldpop2020", "osm_id": "9534144197"}}, {"type": "Feature", "geometry": {"type": "Point", "coordinates": [88.4534305, 27.5564446]}, "properties": {"name": "Lingzya", "population": 841, "place_class": "village", "population_source": "worldpop2020", "osm_id": "9534195011"}}, {"type": "Feature", "geometry": {"type": "Point", "coordinates": [88.5055448, 27.4468505]}, "properties": {"name": "Gnon", "population": 1501, "place_class": "village", "population_source": "worldpop2020", "osm_id": "9645176146"}}, {"type": "Feature", "geometry": {"type": "Point", "coordinates": [88.5113495, 27.4734105]}, "properties": {"name": "Sudur", "population": 345, "place_class": "village", "population_source": "worldpop2020", "osm_id": "9645284999"}}, {"type": "Feature", "geometry": {"type": "Point", "coordinates": [88.5088389, 27.4700408]}, "properties": {"name": "Rapchyong", "population": 569, "place_class": "village", "population_source": "worldpop2020", "osm_id": "9645309731"}}, {"type": "Feature", "geometry": {"type": "Point", "coordinates": [88.5214453, 27.4775416]}, "properties": {"name": "Bringbong", "population": 1761, "place_class": "village", "population_source": "worldpop2020", "osm_id": "9645314763"}}, {"type": "Feature", "geometry": {"type": "Point", "coordinates": [88.4709157, 27.3385259]}, "properties": {"name": "Lingmoo", "population": 2509, "place_class": "village", "population_source": "worldpop2020", "osm_id": "12854457861"}}, {"type": "Feature", "geometry": {"type": "Point", "coordinates": [88.486815, 27.346385]}, "properties": {"name": "Raley", "population": 4264, "place_class": "village", "population_source": "worldpop2020", "osm_id": "12854458794"}}, {"type": "Feature", "geometry": {"type": "Point", "coordinates": [88.6465196, 27.604236]}, "properties": {"name": "Chungthang", "population": 1500, "place_class": "village", "population_source": "class_default", "osm_id": "13148720740"}}, {"type": "Feature", "geometry": {"type": "Point", "coordinates": [88.5796567, 27.4201667]}, "properties": {"name": "Tumlong", "population": 2147, "place_class": "hamlet", "population_source": "worldpop2020", "osm_id": "8757615075"}}, {"type": "Feature", "geometry": {"type": "Point", "coordinates": [88.5653575, 27.3660147]}, "properties": {"name": "Golitar", "population": 250, "place_class": "hamlet", "population_source": "class_default", "osm_id": "13190504525"}}]}