{"type": "FeatureCollection", "features": [{"type": "Feature", "geometry": {"type": "Point", "coordinates": [70.8345928, 22.8176662]}, "properties": {"name": "Morbi", "population": 194947, "place_class": "city", "population_source": "osm:population", "osm_id": "245709936"}}, {"type": "Feature", "geometry": {"type": "Point", "coordinates": [70.9180355, 22.751607]}, "properties": {"name": "Makansar", "population": 8000, "place_class": "suburb", "population_source": "class_default", "osm_id": "8039800401"}}, {"type": "Feature", "geometry": {"type": "Point", "coordinates": [70.8228604, 22.822432]}, "properties": {"name": "Janak Nagar", "population": 8000, "place_class": "suburb", "population_source": "class_default", "osm_id": "10800960289"}}, {"type": "Feature", "geometry": {"type": "Point", "coordinates": [70.8496176, 22.7686237]}, "properties": {"name": "Lilapar", "population": 8000, "place_class": "suburb", "population_source": "class_default", "osm_id": "11742097242"}}, {"type": "Feature", "geometry": {"type": "Point", "coordinates": [70.721848, 22.8538135]}, "properties": {"name": "Bagathala", "population": 3333, "place_class": "village", "population_source": "osm:population", "osm_id": "8039800668"}}, {"type": "Feature", "geometry": {"type": "Point", "coordinates": [70.7745018, 22.7698567]}, "properties": {"name": "Rajpur", "population": 2500, "place_class": "village", "population_source": "osm:population", "osm_id": "6772489354"}}, {"type": "Feature", "geometry": {"type": "Point", "coordinates": [70.8040394, 22.7874954]}, "properties": {"name": "Sanala", "population": 1500, "place_class": "village", "population_source": "class_default", "osm_id": "6772480843"}}, {"type": "Feature", "geometry": {"type": "Point", "coordinates": [70.8425903, 22.7191507]}, "properties": {"name": "Titwala", "population": 1500, "place_class": "village", "population_source": "class_default", "osm_id": "8039800398"}}, {"type": "Feature", "geometry": {"type": "Point", "coordinates": [70.7135009, 22.7791097]}, "properties": {"name": "Thorala", "population": 1500, "place_class": "village", "population_source": "osm:population", "osm_id": "8039800577"}}, {"type": "Feature", "geometry": {"type": "Point", "coordinates": [70.8672579, 22.8609922]}, "properties": {"name": "Juni Pipali", "population": 1500, "place_class": "village", "population_source": "class_default", "osm_id": "10798757965"}}, {"type": "Feature", "geometry": {"type": "Point", "coordinates": [70.8773323, 22.8053752]}, "properties": {"name": "Lalpar લાલપર", "population": 1500, "place_class": "village", "population_source": "class_default", "osm_id": "10806840387"}}, {"type": "Feature", "geometry": {"type": "Point", "coordinates": [70.8578618, 22.9452222]}, "properties": {"name": "Haripar હરીપર", "population": 1500, "place_class": "village", "population_source": "class_default", "osm_id": "10818886963"}}, {"type": "Feature", "geometry": {"type": "Point", "coordinates": [70.7564592, 22.7959646]}, "properties": {"name": "Panchasar", "population": 1234, "place_class": "village", "population_source": "osm:population", "osm_id": "8039800557"}}, {"type": "Feature", "geometry": {"type": "Point", "coordinates": [70.7158184, 22.80451]}, "properties": {"name": "Amrapar - Nagalapar", "population": 1200, "place_class": "village", "population_source": "osm:population", "osm_id": "8039800558"}}, {"type": "Feature", "geometry": {"type": "Point", "coordinates": [70.7094285, 22.7202953]}, "properties": {"name": "Mahendrapur", "population": 500, "place_class": "village", "population_source": "osm:population", "osm_id": "10154773270"}}]}