{"type": "FeatureCollection", "features": [{"type": "Feature", "geometry": {"type": "Point", "coordinates": [78.6270483, 31.8813748]}, "properties": {"name": "Nako", "population": 1500, "place_class": "village", "population_source": "class_default", "osm_id": "1428784720"}}, {"type": "Feature", "geometry": {"type": "Point", "coordinates": [78.5944015, 31.9777573]}, "properties": {"name": "Chango", "population": 1500, "place_class": "village", "population_source": "class_default", "osm_id": "1428786522"}}, {"type": "Feature", "geometry": {"type": "Point", "coordinates": [78.5700989, 31.9996147]}, "properties": {"name": "Shailkhar", "population": 1500, "place_class": "village", "population_source": "class_default", "osm_id": "5934959742"}}, {"type": "Feature", "geometry": {"type": "Point", "coordinates": [78.5935199, 31.8839167]}, "properties": {"name": "Leo", "population": 1500, "place_class": "village", "population_source": "class_default", "osm_id": "5934961687"}}, {"type": "Feature", "geometry": {"type": "Point", "coordinates": [78.6187327, 31.9013882]}, "properties": {"name": "Lirai", "population": 250, "place_class": "hamlet", "population_source": "class_default", "osm_id": "5934961423"}}, {"type": "Feature", "geometry": {"type": "Point", "coordinates": [78.6283994, 31.8940648]}, "properties": {"name": "Mailling", "population": 250, "place_class": "hamlet", "population_source": "class_default", "osm_id": "5934961424"}}]}